Location	Pincode	State	District
Akamkudy	690513	Kerala	Alappuzha
Ala	689126	Kerala	Alappuzha
Alappuzha	688001	Kerala	Alappuzha
Alappuzha Bazar	688012	Kerala	Alappuzha
Alappuzha Collectorate	688001	Kerala	Alappuzha
Alappuzha District hospital	688011	Kerala	Alappuzha
Alappuzha Iron bridge	688011	Kerala	Alappuzha
Alappuzha Medical college	688005	Kerala	Alappuzha
Alappuzha Mullackal	688011	Kerala	Alappuzha
Alappuzha North	688007	Kerala	Alappuzha
Amabalapuzha East	688565	Kerala	Alappuzha
Ambalapuzha	688561	Kerala	Alappuzha
Anaprambal	689576	Kerala	Alappuzha
Anaprambal North	689577	Kerala	Alappuzha
Andhakaranazhy	688531	Kerala	Alappuzha
Angadical Chengannur	689122	Kerala	Alappuzha
Arattupuzha	690565	Kerala	Alappuzha
Arattupuzha North	690515	Kerala	Alappuzha
Areekara	689505	Kerala	Alappuzha
Arookutty	688535	Kerala	Alappuzha
Arror	688534	Kerala	Alappuzha
Arthingal	688530	Kerala	Alappuzha
Arunoottimangalam	690110	Kerala	Alappuzha
Aryad North	688542	Kerala	Alappuzha
Athikattukulangara	690504	Kerala	Alappuzha
Avalukunnu	688006	Kerala	Alappuzha
Ayaparambu	690517	Kerala	Alappuzha
Ayiranikudy	689515	Kerala	Alappuzha
Bharanickavu	690541	Kerala	Alappuzha
Bhudhanoor	689510	Kerala	Alappuzha
Champakulam	688505	Kerala	Alappuzha
Champakulam East	688505	Kerala	Alappuzha
Chandiroor	688547	Kerala	Alappuzha
Changankary	689579	Kerala	Alappuzha
Charumoodu	690505	Kerala	Alappuzha
Chathurthiakary	688502	Kerala	Alappuzha
Chekkidikkadu	689573	Kerala	Alappuzha
Chempumpuram	688505	Kerala	Alappuzha
Chengannur	689121	Kerala	Alappuzha
Chengannur Rs	689121	Kerala	Alappuzha
Chennamkary	688501	Kerala	Alappuzha
Chennamkary East	688506	Kerala	Alappuzha
Chennithala	690105	Kerala	Alappuzha
Chennithala South	690105	Kerala	Alappuzha
Cheppaud	690507	Kerala	Alappuzha
Cheriyanadu	689511	Kerala	Alappuzha
Cherthala	688524	Kerala	Alappuzha
Cherthala Cutcherry	688524	Kerala	Alappuzha
Cherthala South	688552	Kerala	Alappuzha
Cherukara Kuttanad	688506	Kerala	Alappuzha
Cherukole	690104	Kerala	Alappuzha
Cheruthana	690563	Kerala	Alappuzha
Chethy	688530	Kerala	Alappuzha
Chettikulangara	690106	Kerala	Alappuzha
Chingoli	690532	Kerala	Alappuzha
Chirayakom	688562	Kerala	Alappuzha
Choolatheruvu	690506	Kerala	Alappuzha
Chunakara	690534	Kerala	Alappuzha
Chungom	688011	Kerala	Alappuzha
Eara North	686534	Kerala	Alappuzha
Edanad	689123	Kerala	Alappuzha
Elanjimel	689511	Kerala	Alappuzha
Ennakkad	689624	Kerala	Alappuzha
Eramallikkara	689109	Kerala	Alappuzha
Eramathoor	689622	Kerala	Alappuzha
Eramullur	688587	Kerala	Alappuzha
Eravankara	690108	Kerala	Alappuzha
Erezha North	690106	Kerala	Alappuzha
Erezha South	690106	Kerala	Alappuzha
Erickavu	690516	Kerala	Alappuzha
Eruva	690564	Kerala	Alappuzha
Evur	690553	Kerala	Alappuzha
Ezhakadavu	690104	Kerala	Alappuzha
Ezhupunna	688548	Kerala	Alappuzha
Ezhupunna South	688550	Kerala	Alappuzha
Govindamuttom	690527	Kerala	Alappuzha
Haripad	690514	Kerala	Alappuzha
Illichira	688561	Kerala	Alappuzha
Illippakulam	690503	Kerala	Alappuzha
Kadakkarapally	688529	Kerala	Alappuzha
Kaduvinal	690501	Kerala	Alappuzha
Kainady	686534	Kerala	Alappuzha
Kainakary	688501	Kerala	Alappuzha
Kainakary East	688501	Kerala	Alappuzha
Kakkazhom	688005	Kerala	Alappuzha
Kalavamkodam	688524	Kerala	Alappuzha
Kallimel	690570	Kerala	Alappuzha
Kallisserry	689124	Kerala	Alappuzha
Kallumala	690110	Kerala	Alappuzha
Kalvoor	688522	Kerala	Alappuzha
Kandallur	690535	Kerala	Alappuzha
Kandiyoor	690103	Kerala	Alappuzha
Kanichukulangara	688544	Kerala	Alappuzha
Kanjipadom	688005	Kerala	Alappuzha
Kanjiramchira	688007	Kerala	Alappuzha
Kannady	688504	Kerala	Alappuzha
Kannady West	688504	Kerala	Alappuzha
Kannamangalam	690106	Kerala	Alappuzha
Kannanakuzhy	690505	Kerala	Alappuzha
Kannankara	688527	Kerala	Alappuzha
Kappil East	690533	Kerala	Alappuzha
Karakkad	689504	Kerala	Alappuzha
Kareelakulangara	690572	Kerala	Alappuzha
Karikad	688527	Kerala	Alappuzha
Karikuzhy	689571	Kerala	Alappuzha
Karipuzha	690109	Kerala	Alappuzha
Karthikappally	690516	Kerala	Alappuzha
Karumady	688564	Kerala	Alappuzha
Karuvatta	690517	Kerala	Alappuzha
Karuvatta North	690517	Kerala	Alappuzha
Kattanam	690503	Kerala	Alappuzha
Kattoor Kalavoor	688546	Kerala	Alappuzha
Kavalam	688506	Kerala	Alappuzha
Kavalam West	688506	Kerala	Alappuzha
Kavalm North	688506	Kerala	Alappuzha
Kayalpuram	688504	Kerala	Alappuzha
Kayangulam	690502	Kerala	Alappuzha
Kayangulam College	690502	Kerala	Alappuzha
Keerikad	690508	Kerala	Alappuzha
Kelemangalam	688562	Kerala	Alappuzha
Kidangara	686107	Kerala	Alappuzha
Kochuramapuram	688556	Kerala	Alappuzha
Kodukulanji	689508	Kerala	Alappuzha
Kodupunna	689595	Kerala	Alappuzha
Kokothamangalam	688583	Kerala	Alappuzha
Kollakadavu	690509	Kerala	Alappuzha
Komalapuram	688006	Kerala	Alappuzha
Komallur	690505	Kerala	Alappuzha
Kommady Ward	688007	Kerala	Alappuzha
Kotta	689504	Kerala	Alappuzha
Kottankulangara	688006	Kerala	Alappuzha
Kozhuvallur	689521	Kerala	Alappuzha
Krishnapuram	690533	Kerala	Alappuzha
Kudassanad	689512	Kerala	Alappuzha
Kumarankary	686103	Kerala	Alappuzha
Kumarapuram	690548	Kerala	Alappuzha
Kunnam	690108	Kerala	Alappuzha
Kunnamkary	686102	Kerala	Alappuzha
Kunnumma Thakazhy	688562	Kerala	Alappuzha
Kunthirickal	689575	Kerala	Alappuzha
Kuppapuram	688011	Kerala	Alappuzha
Kuruppankulangara	688539	Kerala	Alappuzha
Kuthiathode	688533	Kerala	Alappuzha
Kuttamangalam	688501	Kerala	Alappuzha
Kuttemperur	689625	Kerala	Alappuzha
Mahadevikadu	690555	Kerala	Alappuzha
Mampra	689508	Kerala	Alappuzha
Manappuram	688558	Kerala	Alappuzha
Mangalam	690515	Kerala	Alappuzha
Mankamkuzhy	690558	Kerala	Alappuzha
Mannancherry	688538	Kerala	Alappuzha
Mannar	689622	Kerala	Alappuzha
Mannarasala	690550	Kerala	Alappuzha
Mararikulam North	688549	Kerala	Alappuzha
Maruthorvattom	688545	Kerala	Alappuzha
Mavelikara	690101	Kerala	Alappuzha
Mavelikara Court	690101	Kerala	Alappuzha
Mavelikara Cutcherry	690101	Kerala	Alappuzha
Mayithara Market	688539	Kerala	Alappuzha
Melpadom	689627	Kerala	Alappuzha
Mithrakary	689598	Kerala	Alappuzha
Moncombu	688502	Kerala	Alappuzha
Moncombu Thekkekara	688503	Kerala	Alappuzha
Muhamma	688525	Kerala	Alappuzha
Mulakuzha	689505	Kerala	Alappuzha
Mundancavu	689124	Kerala	Alappuzha
Muthukulam	690560	Kerala	Alappuzha
Muthukulam South	690506	Kerala	Alappuzha
Muttam	690103	Kerala	Alappuzha
Muttar	689571	Kerala	Alappuzha
Muttathiparambu	688527	Kerala	Alappuzha
Muttom-alleppey	690511	Kerala	Alappuzha
Naduathunagar	688559	Kerala	Alappuzha
Naduvattom	690512	Kerala	Alappuzha
Nangiarkulangara	690513	Kerala	Alappuzha
Narakathara	688506	Kerala	Alappuzha
Nedumudy	688508	Kerala	Alappuzha
Neduvaramkodu	689508	Kerala	Alappuzha
Neelamperoor	686534	Kerala	Alappuzha
Neerattupuram	689571	Kerala	Alappuzha
Neervilakom	689122	Kerala	Alappuzha
Njakkanal	690533	Kerala	Alappuzha
Nooranad	690504	Kerala	Alappuzha
Nooranad Sanatorium	690571	Kerala	Alappuzha
Olakettiambalam	690510	Kerala	Alappuzha
Olavaipu	688526	Kerala	Alappuzha
Padanilam	690529	Kerala	Alappuzha
Pallana	690515	Kerala	Alappuzha
Pallarimangalam	690107	Kerala	Alappuzha
Pallickal	690503	Kerala	Alappuzha
Pallickal -nooranad	690504	Kerala	Alappuzha
Pallickal Naduvilemuri	690503	Kerala	Alappuzha
Pallipad	690512	Kerala	Alappuzha
Pallippuram	688541	Kerala	Alappuzha
Pallithode	688584	Kerala	Alappuzha
Panavally	688566	Kerala	Alappuzha
Panayil	690504	Kerala	Alappuzha
Pandanad North	689124	Kerala	Alappuzha
Pandankary	689721	Kerala	Alappuzha
Pandy	690517	Kerala	Alappuzha
Parayakad	688540	Kerala	Alappuzha
Pathirappally	688521	Kerala	Alappuzha
Pathiyoor	690552	Kerala	Alappuzha
Pattanacaud	688531	Kerala	Alappuzha
Pattolimarket	690531	Kerala	Alappuzha
Pattoor	690529	Kerala	Alappuzha
Pavukara	689622	Kerala	Alappuzha
Payipad	690556	Kerala	Alappuzha
Payyanallur	690504	Kerala	Alappuzha
Pazhaveedu	688009	Kerala	Alappuzha
Pela	690103	Kerala	Alappuzha
Pennukkara	689520	Kerala	Alappuzha
Peringala-mulakuzha	689505	Kerala	Alappuzha
Peringilipuram	689624	Kerala	Alappuzha
Perisserry	689126	Kerala	Alappuzha
Perumbalam	688570	Kerala	Alappuzha
Perungala	690559	Kerala	Alappuzha
Piralassery	689122	Kerala	Alappuzha
Pollethai	688567	Kerala	Alappuzha
Ponga	688503	Kerala	Alappuzha
Ponnad	688538	Kerala	Alappuzha
Poochackal	688526	Kerala	Alappuzha
Poomala	689520	Kerala	Alappuzha
Pulincunnu	688504	Kerala	Alappuzha
Puliyoor	689510	Kerala	Alappuzha
Pullangadi	688505	Kerala	Alappuzha
Pullikanakku	690537	Kerala	Alappuzha
Punnakunnathussery	688504	Kerala	Alappuzha
Punnakunnathussery South	688504	Kerala	Alappuzha
Punnamoodu	690101	Kerala	Alappuzha
Punnapra	688004	Kerala	Alappuzha
Punnapra North	688014	Kerala	Alappuzha
Punthala	689509	Kerala	Alappuzha
Purakad	690551	Kerala	Alappuzha
Puthencavu	689123	Kerala	Alappuzha
Puthenchantha	690501	Kerala	Alappuzha
Puthiyacavu	690102	Kerala	Alappuzha
Puthiyavila	690531	Kerala	Alappuzha
Puthuppally	690527	Kerala	Alappuzha
Ramankary	689595	Kerala	Alappuzha
Sanathanpuram	688003	Kerala	Alappuzha
Sethulekshmipuram	688523	Kerala	Alappuzha
Sreenarayapuram	688582	Kerala	Alappuzha
Thaickal	688554	Kerala	Alappuzha
Thakazhy	688562	Kerala	Alappuzha
Thalavady	689572	Kerala	Alappuzha
Thalavady South	689723	Kerala	Alappuzha
Thamallackal	690549	Kerala	Alappuzha
Thamallackal North	690514	Kerala	Alappuzha
Thamarakulam	690530	Kerala	Alappuzha
Thanneermukkom	688527	Kerala	Alappuzha
Thannikunnu	690534	Kerala	Alappuzha
Thathampally	688013	Kerala	Alappuzha
Thattarambalam	690103	Kerala	Alappuzha
Thayamkary	689722	Kerala	Alappuzha
Thazhakara	690102	Kerala	Alappuzha
Thekkekara	690107	Kerala	Alappuzha
Thirumalabhagom	688540	Kerala	Alappuzha
Thirunallur	688557	Kerala	Alappuzha
Thiruvampady Junction	688002	Kerala	Alappuzha
Thonackad	689511	Kerala	Alappuzha
Thondankulangara	688013	Kerala	Alappuzha
Thottappally	688563	Kerala	Alappuzha
Thottuvathala	688501	Kerala	Alappuzha
Thrikkunnapuzha	690515	Kerala	Alappuzha
Thripperunthura	690105	Kerala	Alappuzha
Thumpoly	688008	Kerala	Alappuzha
Thuravoor	688532	Kerala	Alappuzha
Thuravoor South	688532	Kerala	Alappuzha
Thycattussery	688528	Kerala	Alappuzha
Tiruvanvandur	689109	Kerala	Alappuzha
Trichattukulam	688581	Kerala	Alappuzha
Vadackal	688003	Kerala	Alappuzha
Vaduthala Jetty	688535	Kerala	Alappuzha
Valamnagalam	688532	Kerala	Alappuzha
Valiyakulangara	690104	Kerala	Alappuzha
Valiyaparambu	690566	Kerala	Alappuzha
Valiyazheekkal	690535	Kerala	Alappuzha
Vallikunnam	690501	Kerala	Alappuzha
Varanadu	688543	Kerala	Alappuzha
Varanam	688555	Kerala	Alappuzha
Varenickal	690107	Kerala	Alappuzha
Vattayal Ward	688002	Kerala	Alappuzha
Vayalar	688536	Kerala	Alappuzha
Vazharmangalam	689125	Kerala	Alappuzha
Vedaraplavu	690505	Kerala	Alappuzha
Veeyapuram	690514	Kerala	Alappuzha
Veliyanadu	689590	Kerala	Alappuzha
Veliyanadu North	689590	Kerala	Alappuzha
Veliyanadu West	689590	Kerala	Alappuzha
Vembanad Kayal	688006	Kerala	Alappuzha
Venmony	689509	Kerala	Alappuzha
Vettackal	688587	Kerala	Alappuzha
Vetticode	690503	Kerala	Alappuzha
Vettiyar	690557	Kerala	Alappuzha
Vezhapra	689595	Kerala	Alappuzha
Vysombhagom	688005	Kerala	Alappuzha
Aimurikara	683544	Kerala	Ernakulam
Airapuram	683541	Kerala	Ernakulam
Airoopadam	686692	Kerala	Ernakulam
Airoor	683579	Kerala	Ernakulam
Alangad	683511	Kerala	Ernakulam
Alattuchira	683544	Kerala	Ernakulam
Allapra	683553	Kerala	Ernakulam
Aluva	683101	Kerala	Ernakulam
Aluva Bazar	683101	Kerala	Ernakulam
Aluva Town bus stand	683101	Kerala	Ernakulam
Aluva-asokapuram	683101	Kerala	Ernakulam
Ambalamedu	682303	Kerala	Ernakulam
Ambalamugal	682302	Kerala	Ernakulam
Amballur	682315	Kerala	Ernakulam
Anappara-kalady	683581	Kerala	Ernakulam
Anchelpetty	686667	Kerala	Ernakulam
Andikkadavu	682008	Kerala	Ernakulam
Angamally	683572	Kerala	Ernakulam
Angamally South	683573	Kerala	Ernakulam
Arakunnam	682313	Kerala	Ernakulam
Arakuzha	686672	Kerala	Ernakulam
Aruvappara	683545	Kerala	Ernakulam
Asamannoor	683549	Kerala	Ernakulam
Athani	683585	Kerala	Ernakulam
Avoly	686677	Kerala	Ernakulam
Ayavana	686676	Kerala	Ernakulam
Ayyampilly	682501	Kerala	Ernakulam
Ayyampuzha	683581	Kerala	Ernakulam
Azhakam	683577	Kerala	Ernakulam
Azheekal	682510	Kerala	Ernakulam
Banerji Road	682018	Kerala	Ernakulam
Bhaktanandapuram	682308	Kerala	Ernakulam
Bhoothathankettu	686691	Kerala	Ernakulam
Binanipuram	683502	Kerala	Ernakulam
Brahmapuram	682303	Kerala	Ernakulam
Changampuzha Nagar	682033	Kerala	Ernakulam
Chathamattam	686671	Kerala	Ernakulam
Chelad Junction	686681	Kerala	Ernakulam
Chellanam	682008	Kerala	Ernakulam
Chendamangalam	683512	Kerala	Ernakulam
Chengamanad	683578	Kerala	Ernakulam
Cherai	683514	Kerala	Ernakulam
Cheranalloor(pbr)	683544	Kerala	Ernakulam
Cheranallur	682034	Kerala	Ernakulam
Cheruvattoor	686691	Kerala	Ernakulam
Chethicode	682315	Kerala	Ernakulam
Chittoor-ekm	682027	Kerala	Ernakulam
Choondakuzhy	683546	Kerala	Ernakulam
Chottanikkara	682312	Kerala	Ernakulam
Chowara	683571	Kerala	Ernakulam
Chully	683581	Kerala	Ernakulam
Cochin Special economic zone	682037	Kerala	Ernakulam
Desom	683102	Kerala	Ernakulam
Dry Dock	682029	Kerala	Ernakulam
Edakkattuvayal	682313	Kerala	Ernakulam
Edakochi	682006	Kerala	Ernakulam
Edapally	682024	Kerala	Ernakulam
Edapally North	682024	Kerala	Ernakulam
Edathala	683561	Kerala	Ernakulam
Edathala North	683564	Kerala	Ernakulam
Edavanakad	682502	Kerala	Ernakulam
Edavoor	683544	Kerala	Ernakulam
Edayar	686662	Kerala	Ernakulam
Elamakkara	682026	Kerala	Ernakulam
Elamkunnapuzha	682503	Kerala	Ernakulam
Elanji	686665	Kerala	Ernakulam
Elanthikara	683594	Kerala	Ernakulam
Elavoor	683572	Kerala	Ernakulam
Enanalloor	686673	Kerala	Ernakulam
Ernakulam	682011	Kerala	Ernakulam
Ernakulam College	682035	Kerala	Ernakulam
Ernakulam High court	682031	Kerala	Ernakulam
Ernakulam Hindi prachar sabha	682016	Kerala	Ernakulam
Ernakulam North	682018	Kerala	Ernakulam
Eroor	682306	Kerala	Ernakulam
Eroor South	682306	Kerala	Ernakulam
Eroor West	682306	Kerala	Ernakulam
Erumathala	683112	Kerala	Ernakulam
Ezhakkaranad	682308	Kerala	Ernakulam
Ezhakkaranadu South	682308	Kerala	Ernakulam
Ezhattumugham	683577	Kerala	Ernakulam
Ezhikkara	683513	Kerala	Ernakulam
Gothuruthy	683516	Kerala	Ernakulam
Hmt Colony	683503	Kerala	Ernakulam
Idamalayar	686691	Kerala	Ernakulam
Illambakapalli	683544	Kerala	Ernakulam
Inchathotty	686691	Kerala	Ernakulam
Iramalloor	686691	Kerala	Ernakulam
Irimbanam	682309	Kerala	Ernakulam
Iringole	683548	Kerala	Ernakulam
Kadakkanad	682311	Kerala	Ernakulam
Kadalikkad	686670	Kerala	Ernakulam
Kadamakudi	682027	Kerala	Ernakulam
Kadamattam	682311	Kerala	Ernakulam
Kadavanthara	682020	Kerala	Ernakulam
Kadavoor	686671	Kerala	Ernakulam
Kadayirippu	682311	Kerala	Ernakulam
Kadungamangalam	682305	Kerala	Ernakulam
Kaipatoor	682313	Kerala	Ernakulam
Kaitharam	683519	Kerala	Ernakulam
Kakkad	686664	Kerala	Ernakulam
Kakkanad	682030	Kerala	Ernakulam
Kakkanad West	682030	Kerala	Ernakulam
Kakkoor	686662	Kerala	Ernakulam
Kalady	683574	Kerala	Ernakulam
Kalady Plantation	683583	Kerala	Ernakulam
Kalamassery	683104	Kerala	Ernakulam
Kalamassery Development plot	683109	Kerala	Ernakulam
Kalampoor	686664	Kerala	Ernakulam
Kalloorkkad	686668	Kerala	Ernakulam
Kaloor	686668	Kerala	Ernakulam
Kanayannoor	682312	Kerala	Ernakulam
Kandanad	682305	Kerala	Ernakulam
Kaninad	682310	Kerala	Ernakulam
Kanjiramattom	682315	Kerala	Ernakulam
Kanjoor	683575	Kerala	Ernakulam
Kannamali	682008	Kerala	Ernakulam
Karamala	686662	Kerala	Ernakulam
Karimpana	686662	Kerala	Ernakulam
Karimugal	682303	Kerala	Ernakulam
Karukadom	686691	Kerala	Ernakulam
Karukappilli	682311	Kerala	Ernakulam
Karukutty	683576	Kerala	Ernakulam
Karumalloor	683511	Kerala	Ernakulam
Kavakkad	686668	Kerala	Ernakulam
Keerampara	686691	Kerala	Ernakulam
Keezhillam	683541	Kerala	Ernakulam
Kidangoor	683572	Kerala	Ernakulam
Kinginimattom	682311	Kerala	Ernakulam
Kizhakkambalam	683562	Kerala	Ernakulam
Kizhakompu	686662	Kerala	Ernakulam
Kizhmuri	686663	Kerala	Ernakulam
Kochi	682001	Kerala	Ernakulam
Kochi Airport	683111	Kerala	Ernakulam
Kochi M.g.road	682016	Kerala	Ernakulam
Kochi Naval base	682004	Kerala	Ernakulam
Kochi Palace	682301	Kerala	Ernakulam
Kochi University	682022	Kerala	Ernakulam
Kodanad	683544	Kerala	Ernakulam
Kokkappilly	682305	Kerala	Ernakulam
Kolenchery	682311	Kerala	Ernakulam
Kombanad	683546	Kerala	Ernakulam
Kongorpilly	683518	Kerala	Ernakulam
Koonammavu	683518	Kerala	Ernakulam
Koothattukulam	686662	Kerala	Ernakulam
Koovalloor	686671	Kerala	Ernakulam
Koovappady	683544	Kerala	Ernakulam
Koovappara	686691	Kerala	Ernakulam
Kothad	682027	Kerala	Ernakulam
Kothamangalam	686691	Kerala	Ernakulam
Kothamangalam Bazar	686691	Kerala	Ernakulam
Kothamangalam College	686666	Kerala	Ernakulam
Kottappady	686695	Kerala	Ernakulam
Kottuvally	683519	Kerala	Ernakulam
Kozhipilly	686691	Kerala	Ernakulam
Kulayettikara	682315	Kerala	Ernakulam
Kumarapuram	683565	Kerala	Ernakulam
Kumbalam	682506	Kerala	Ernakulam
Kumbalangi	682007	Kerala	Ernakulam
Kumbalangi South	682007	Kerala	Ernakulam
Kunjithai	683522	Kerala	Ernakulam
Kunnackal	682316	Kerala	Ernakulam
Kunnukara	683524	Kerala	Ernakulam
Kureekad	682305	Kerala	Ernakulam
Kurumassery	683579	Kerala	Ernakulam
Kuruppampady	683545	Kerala	Ernakulam
Kusumagiri	682030	Kerala	Ernakulam
Kuthiathode(ekm)	683594	Kerala	Ernakulam
Kuthukuzhy	686691	Kerala	Ernakulam
Kuttampuzha	686691	Kerala	Ernakulam
Kuttikkattukara	683501	Kerala	Ernakulam
Kuzhiyara	682312	Kerala	Ernakulam
Madakkathanam	686670	Kerala	Ernakulam
Malayattoor	683587	Kerala	Ernakulam
Malayidumthuruth	683561	Kerala	Ernakulam
Maliankara	683516	Kerala	Ernakulam
Malipara	686691	Kerala	Ernakulam
Malipuram	682511	Kerala	Ernakulam
Mamala	682305	Kerala	Ernakulam
Mamalakandom	686691	Kerala	Ernakulam
Mamalassery	686663	Kerala	Ernakulam
Manary	686673	Kerala	Ernakulam
Manickamangalam	683574	Kerala	Ernakulam
Manidu	686726	Kerala	Ernakulam
Manikinar	686693	Kerala	Ernakulam
Manjapra	683581	Kerala	Ernakulam
Manjummel	683501	Kerala	Ernakulam
Mannam Paravur	683520	Kerala	Ernakulam
Mannathur	686723	Kerala	Ernakulam
Maradu	682304	Kerala	Ernakulam
Marady East	686673	Kerala	Ernakulam
Marampally	683107	Kerala	Ernakulam
Marika	686662	Kerala	Ernakulam
Marithazham	682315	Kerala	Ernakulam
Matsyapuri	682029	Kerala	Ernakulam
Mattancherry	682002	Kerala	Ernakulam
Mattancherry Bazar	682002	Kerala	Ernakulam
Mattancherry Jetty	682002	Kerala	Ernakulam
Mattancherry Town	682002	Kerala	Ernakulam
Mattoor	683574	Kerala	Ernakulam
Mazhuvannoor	686689	Kerala	Ernakulam
Mazhuvannoor South	686669	Kerala	Ernakulam
Meempara	682308	Kerala	Ernakulam
Meenkunnam	686672	Kerala	Ernakulam
Mekkad	683589	Kerala	Ernakulam
Mekkadambu	682316	Kerala	Ernakulam
Memadangu	686672	Kerala	Ernakulam
Methala	683545	Kerala	Ernakulam
Mookkannur	683577	Kerala	Ernakulam
Moothakunnam	683516	Kerala	Ernakulam
Mudakuzha	683546	Kerala	Ernakulam
Mudavoor	686669	Kerala	Ernakulam
Mudikkal	683547	Kerala	Ernakulam
Mulakulam	686664	Kerala	Ernakulam
Mulanthuruthy	682314	Kerala	Ernakulam
Mulavoor	686673	Kerala	Ernakulam
Mulavukad	682504	Kerala	Ernakulam
Mullapuzhachal	686670	Kerala	Ernakulam
Mundamveli	682507	Kerala	Ernakulam
Muppathadam	683110	Kerala	Ernakulam
Mutholapuram	686665	Kerala	Ernakulam
Muvattupuzha	686661	Kerala	Ernakulam
Muvattupuzha Bazar	686661	Kerala	Ernakulam
Muvattupuzha Market	686673	Kerala	Ernakulam
Nadakkavu	682307	Kerala	Ernakulam
Nadukani	686691	Kerala	Ernakulam
Naduvattam	683574	Kerala	Ernakulam
Nagapuzha	686668	Kerala	Ernakulam
Nanthiattukunnam	683513	Kerala	Ernakulam
Narakkal	682505	Kerala	Ernakulam
Naval Armament depot - aluva	683563	Kerala	Ernakulam
Nayarambalam	682509	Kerala	Ernakulam
Nayathode	683572	Kerala	Ernakulam
Nazreth	682507	Kerala	Ernakulam
Nechoor	686664	Kerala	Ernakulam
Nedumbassery	683585	Kerala	Ernakulam
Nedungad	682509	Kerala	Ernakulam
Nedungapra	683545	Kerala	Ernakulam
Neeleeswaram	683584	Kerala	Ernakulam
Neendapara	686693	Kerala	Ernakulam
Neericode	683511	Kerala	Ernakulam
Nellad	686721	Kerala	Ernakulam
Nellikuzhy	686691	Kerala	Ernakulam
Nellimattam	686693	Kerala	Ernakulam
Neriamangalam	686693	Kerala	Ernakulam
Nettoor	682304	Kerala	Ernakulam
Nirmala	686673	Kerala	Ernakulam
Njayapalli	686691	Kerala	Ernakulam
North End	682009	Kerala	Ernakulam
North Piramadom	686667	Kerala	Ernakulam
Ochanthuruth	682508	Kerala	Ernakulam
Okkal	683550	Kerala	Ernakulam
Oliyapuram	686679	Kerala	Ernakulam
Onakkoor	686667	Kerala	Ernakulam
Oonnukal	686693	Kerala	Ernakulam
Ooramana	686730	Kerala	Ernakulam
Pachalam	682012	Kerala	Ernakulam
Paduvapuram	683582	Kerala	Ernakulam
Paingarapilly	682314	Kerala	Ernakulam
Paingattoor	686671	Kerala	Ernakulam
Palakuzha	686686	Kerala	Ernakulam
Palarivattom	682025	Kerala	Ernakulam
Pallarimangalam	686671	Kerala	Ernakulam
Palliport	683515	Kerala	Ernakulam
Palluruthy	682006	Kerala	Ernakulam
Palluruthy South	682006	Kerala	Ernakulam
Pampakuda	686667	Kerala	Ernakulam
Panaikulam	683511	Kerala	Ernakulam
Panampilly Nagar	682036	Kerala	Ernakulam
Panangad	682506	Kerala	Ernakulam
Panayappilly	682002	Kerala	Ernakulam
Pancode	682310	Kerala	Ernakulam
Pandappily	686672	Kerala	Ernakulam
Paniely	683546	Kerala	Ernakulam
Panipra	686692	Kerala	Ernakulam
Parakkadavu	683579	Kerala	Ernakulam
Parappuram	683593	Kerala	Ernakulam
Paravur	683513	Kerala	Ernakulam
Paravur Market	683513	Kerala	Ernakulam
Paravur Town	683513	Kerala	Ernakulam
Pareekanni	686693	Kerala	Ernakulam
Pattimattam	683562	Kerala	Ernakulam
Pazhamthottam	683565	Kerala	Ernakulam
Pazhoor	686664	Kerala	Ernakulam
Periapuram	686667	Kerala	Ernakulam
Peringala	683565	Kerala	Ernakulam
Perumannoor(kgm)	686693	Kerala	Ernakulam
Perumanur	682015	Kerala	Ernakulam
Perumbadavam	686665	Kerala	Ernakulam
Perumballoor	686673	Kerala	Ernakulam
Perumbavoor	683542	Kerala	Ernakulam
Perumbavoor South	683542	Kerala	Ernakulam
Perumpilly	682314	Kerala	Ernakulam
Pezhakkappilly	686674	Kerala	Ernakulam
Pindimana	686698	Kerala	Ernakulam
Piraroor	683574	Kerala	Ernakulam
Piravom	686664	Kerala	Ernakulam
Pizhala	682027	Kerala	Ernakulam
Plamudi	686692	Kerala	Ernakulam
Ponjassery	683547	Kerala	Ernakulam
Poonithura	682038	Kerala	Ernakulam
Poothotta	682307	Kerala	Ernakulam
Poothrikka	682308	Kerala	Ernakulam
Pooyamkutty	686691	Kerala	Ernakulam
Pothanicaud	686671	Kerala	Ernakulam
Pulickamaly	682314	Kerala	Ernakulam
Pulinthanam	686671	Kerala	Ernakulam
Puliyanam	683572	Kerala	Ernakulam
Pulluvazhi	683541	Kerala	Ernakulam
Puthencruz	682308	Kerala	Ernakulam
Puthenvelikkara	683594	Kerala	Ernakulam
Puthupadi	686673	Kerala	Ernakulam
Puthuvype	682508	Kerala	Ernakulam
Rajagiri	683104	Kerala	Ernakulam
Rajagiri Valley	682039	Kerala	Ernakulam
Ramamangalam	686663	Kerala	Ernakulam
Randar	686673	Kerala	Ernakulam
Rayamangalam	683545	Kerala	Ernakulam
Rayonpuram	683543	Kerala	Ernakulam
S.Aduvassery	683578	Kerala	Ernakulam
S.Chellanam	682008	Kerala	Ernakulam
Shanmugham Road	682031	Kerala	Ernakulam
South Paravoor	682320	Kerala	Ernakulam
South Vazhakulam	683105	Kerala	Ernakulam
Sreemoolanagaram	683580	Kerala	Ernakulam
Thabore	683577	Kerala	Ernakulam
Thaikkattukara	683106	Kerala	Ernakulam
Thalacode	682314	Kerala	Ernakulam
Thalakode	686693	Kerala	Ernakulam
Thammanam	682032	Kerala	Ernakulam
Thathappilly	683520	Kerala	Ernakulam
Thattekkad	686691	Kerala	Ernakulam
Thazhvankunnam	686668	Kerala	Ernakulam
Thekkenmarady	686673	Kerala	Ernakulam
Thekkumbhagom	682301	Kerala	Ernakulam
Thengod	682030	Kerala	Ernakulam
Thevara	682013	Kerala	Ernakulam
Thirumarady	686687	Kerala	Ernakulam
Thirumarayoor	682313	Kerala	Ernakulam
Thiruvamkulam	682305	Kerala	Ernakulam
Thiruvaniyoor	682308	Kerala	Ernakulam
Thoppumpady	682005	Kerala	Ernakulam
Thottakkattukara	683108	Kerala	Ernakulam
Thottumughom	683105	Kerala	Ernakulam
Thrikkakara	682021	Kerala	Ernakulam
Thrikkalathoor	683557	Kerala	Ernakulam
Thrikkariyoor	686692	Kerala	Ernakulam
Thuravoor	683586	Kerala	Ernakulam
Thuravumkara	683575	Kerala	Ernakulam
Thuruthippuram	680667	Kerala	Ernakulam
Thuruthy	683545	Kerala	Ernakulam
Tripunithura	682301	Kerala	Ernakulam
Tripunithura Fort	682301	Kerala	Ernakulam
Udayamperoor	682307	Kerala	Ernakulam
Udyogamandal	683501	Kerala	Ernakulam
Uliyannoor	683108	Kerala	Ernakulam
Union Christian college	683102	Kerala	Ernakulam
Urulanthanni	686691	Kerala	Ernakulam
Vadacode	682021	Kerala	Ernakulam
Vadacode Kailas colony	682021	Kerala	Ernakulam
Vadakkekara	683522	Kerala	Ernakulam
Vadakkumpuram	683521	Kerala	Ernakulam
Vadakode-vazhakulam	686670	Kerala	Ernakulam
Vadattupara	686691	Kerala	Ernakulam
Vadavucode	682310	Kerala	Ernakulam
Vadayampadi	682308	Kerala	Ernakulam
Vaduthala	682023	Kerala	Ernakulam
Vaikkara	683549	Kerala	Ernakulam
Valayanchirangara	683556	Kerala	Ernakulam
Vallarpadam	682031	Kerala	Ernakulam
Vappalassery	683572	Kerala	Ernakulam
Varapetty	686691	Kerala	Ernakulam
Varapuzha	683517	Kerala	Ernakulam
Varapuzha Landing	683517	Kerala	Ernakulam
Varikoli	682308	Kerala	Ernakulam
Vattaparambu	683579	Kerala	Ernakulam
Vazhakulam	686670	Kerala	Ernakulam
Vazhappilly East	686673	Kerala	Ernakulam
Veli Kochi	682001	Kerala	Ernakulam
Veliyanad	682319	Kerala	Ernakulam
Vellarappilly South	683580	Kerala	Ernakulam
Vempilly	683565	Kerala	Ernakulam
Vengola	683554	Kerala	Ernakulam
Vengola West	683556	Kerala	Ernakulam
Vengoor	683546	Kerala	Ernakulam
Vennala	682028	Kerala	Ernakulam
Vettampara	686691	Kerala	Ernakulam
Vettickal	682314	Kerala	Ernakulam
Vilangu	683561	Kerala	Ernakulam
Vyttila	682019	Kerala	Ernakulam
West Kadungalloor	683110	Kerala	Ernakulam
West Veliyathunad	683511	Kerala	Ernakulam
Willingdon Island	682003	Kerala	Ernakulam
Yordhanapuram	683574	Kerala	Ernakulam
Adimali	685561	Kerala	Idukki
Adoormala	685590	Kerala	Idukki
Alakode	685588	Kerala	Idukki
Alpara	685606	Kerala	Idukki
Amaravathy	685509	Kerala	Idukki
Anakkara	685512	Kerala	Idukki
Anakulam	685565	Kerala	Idukki
Anavilasam	685535	Kerala	Idukki
Anaviratty	685561	Kerala	Idukki
Anayirankal	685613	Kerala	Idukki
Anchiri	685585	Kerala	Idukki
Anniyartholu	685515	Kerala	Idukki
Arakulam	685591	Kerala	Idukki
Arikuzha	685584	Kerala	Idukki
Arnakal	685533	Kerala	Idukki
Aruvilanchal	685619	Kerala	Idukki
Attapallam	685509	Kerala	Idukki
Ayyappancoil	685507	Kerala	Idukki
Balagram	685552	Kerala	Idukki
Bethel	685510	Kerala	Idukki
Bisonvalley	685565	Kerala	Idukki
C. kuthumkal	685566	Kerala	Idukki
Calvari Mount	685515	Kerala	Idukki
Chakkupallam	685509	Kerala	Idukki
Chathurangapara	685554	Kerala	Idukki
Chattamannar	685614	Kerala	Idukki
Cheenikuzhi	685581	Kerala	Idukki
Cheenthalar	685502	Kerala	Idukki
Chelachuvadu	685606	Kerala	Idukki
Chellarcoil	685509	Kerala	Idukki
Chembalam	685553	Kerala	Idukki
Chemmannar	685554	Kerala	Idukki
Chempakapara	685510	Kerala	Idukki
Chenkara	685539	Kerala	Idukki
Cheppukulam	685581	Kerala	Idukki
Chilavu	685588	Kerala	Idukki
Chinnakanal	685618	Kerala	Idukki
Chinnar	685501	Kerala	Idukki
Chithirapuram	685565	Kerala	Idukki
Chottupara	685552	Kerala	Idukki
Chottupara Periyar	685533	Kerala	Idukki
Combayar	685552	Kerala	Idukki
Cumbumbettu	685551	Kerala	Idukki
Devarupara	685588	Kerala	Idukki
Devikulam	685613	Kerala	Idukki
Dymock	685533	Kerala	Idukki
Edad-idukki	685589	Kerala	Idukki
Edavetty	685588	Kerala	Idukki
Elamdesom	685588	Kerala	Idukki
Elappara	685501	Kerala	Idukki
Ellakallu	685565	Kerala	Idukki
Ellapatti	685615	Kerala	Idukki
Ellumpuram	685587	Kerala	Idukki
Erattayar	685514	Kerala	Idukki
Erattayar North	685510	Kerala	Idukki
Ettithope	685510	Kerala	Idukki
Ezhallur	685605	Kerala	Idukki
Ezhukunvayal	685553	Kerala	Idukki
Ezhumuttom	685605	Kerala	Idukki
Fair Field	685501	Kerala	Idukki
Glenmary	685531	Kerala	Idukki
Gramby	685533	Kerala	Idukki
Gudarle	685612	Kerala	Idukki
Haileyburia	685501	Kerala	Idukki
Idinjamala	685510	Kerala	Idukki
Idukki Colony	685602	Kerala	Idukki
Idukki Painavu	685603	Kerala	Idukki
Ilappally	685589	Kerala	Idukki
Josegiri	685565	Kerala	Idukki
Kadamakuzhy	685515	Kerala	Idukki
Kailasanadu	685553	Kerala	Idukki
Kalayanthani	685588	Kerala	Idukki
Kaliyar	685582	Kerala	Idukki
Kallar	685552	Kerala	Idukki
Kallarkutty	685562	Kerala	Idukki
Kaloor East	685584	Kerala	Idukki
Kalthotty	685507	Kerala	Idukki
Kamakshy	685515	Kerala	Idukki
Kanayankavayal	685532	Kerala	Idukki
Kanchiyar	685511	Kerala	Idukki
Kanjar	685592	Kerala	Idukki
Kanjikuzhi - idukki	685606	Kerala	Idukki
Kannickal	685589	Kerala	Idukki
Kanthallur	685620	Kerala	Idukki
Karadikuzhy	685531	Kerala	Idukki
Karimannoor	685581	Kerala	Idukki
Karimkulam Chappath	685506	Kerala	Idukki
Karimkunnam	685586	Kerala	Idukki
Karippalangad	685601	Kerala	Idukki
Karunapuram	685552	Kerala	Idukki
Kattappana	685508	Kerala	Idukki
Kattappana South	685515	Kerala	Idukki
Keerikara	685533	Kerala	Idukki
Keerithode	685606	Kerala	Idukki
Khajanapara	685619	Kerala	Idukki
Kochara	685551	Kerala	Idukki
Kochukarimtharuvi	685501	Kerala	Idukki
Kochuthovala	685510	Kerala	Idukki
Kodikulam	685582	Kerala	Idukki
Koduveli	685582	Kerala	Idukki
Kolahalamedu	685501	Kerala	Idukki
Kolani	685584	Kerala	Idukki
Konnackamali	685604	Kerala	Idukki
Konnathady	685563	Kerala	Idukki
Koompanpara	685561	Kerala	Idukki
Koottar	685552	Kerala	Idukki
Koovakandam	685588	Kerala	Idukki
Koovappally-kudayathur	685590	Kerala	Idukki
Korangatti	685561	Kerala	Idukki
Kottakomboor	685615	Kerala	Idukki
Kottamala	685503	Kerala	Idukki
Koviloor	685615	Kerala	Idukki
Kudayathur	685590	Kerala	Idukki
Kulamavu	685601	Kerala	Idukki
Kulaparachal	685619	Kerala	Idukki
Kumaramangala	685584	Kerala	Idukki
Kumily	685509	Kerala	Idukki
Kunchithanni	685565	Kerala	Idukki
Kuninji	685583	Kerala	Idukki
Kuppakkayam	686513	Kerala	Idukki
Kuttikanam	685531	Kerala	Idukki
Kuzhithozhu	685551	Kerala	Idukki
Lakshmi Coil	685531	Kerala	Idukki
Lonetree	685505	Kerala	Idukki
Machiplavu	685561	Kerala	Idukki
Mailacombu	685584	Kerala	Idukki
Malayinchi	685581	Kerala	Idukki
Mali	685551	Kerala	Idukki
Mammattikanam	685566	Kerala	Idukki
Manakkad	685584	Kerala	Idukki
Manipara	685602	Kerala	Idukki
Maniyaramkudy	685602	Kerala	Idukki
Manjappara	685553	Kerala	Idukki
Mankulam	685565	Kerala	Idukki
Mankuva	685604	Kerala	Idukki
Mannamkandam	685561	Kerala	Idukki
Maraiyur	685620	Kerala	Idukki
Marigiri	685515	Kerala	Idukki
Mariyapuram	685602	Kerala	Idukki
Mathaipara	685505	Kerala	Idukki
Mattupatty Isp	685616	Kerala	Idukki
Mattuppatti	685616	Kerala	Idukki
Mattuthavalam	685505	Kerala	Idukki
Mavady	685553	Kerala	Idukki
Meencut	685565	Kerala	Idukki
Melekuppachampady	685510	Kerala	Idukki
Meloram	685532	Kerala	Idukki
Michaelgiri	685620	Kerala	Idukki
Moolakad	685581	Kerala	Idukki
Moolamattom	685589	Kerala	Idukki
Moolamattom East	685589	Kerala	Idukki
Moongalar	685533	Kerala	Idukki
Mount	685533	Kerala	Idukki
Mrala	685587	Kerala	Idukki
Mukkudil	685566	Kerala	Idukki
Mukkulam	686514	Kerala	Idukki
Mukkulam East	686514	Kerala	Idukki
Mulakaramedu	685515	Kerala	Idukki
Mulakuvally	685602	Kerala	Idukki
Mulappuram	685581	Kerala	Idukki
Mullarikudy	685564	Kerala	Idukki
Mullaringadu	685582	Kerala	Idukki
Mundakayam East	686513	Kerala	Idukki
Mundanmudy	685582	Kerala	Idukki
Muniyara	685564	Kerala	Idukki
Munnar	685612	Kerala	Idukki
Munnar Colony	685612	Kerala	Idukki
Murickassery	685604	Kerala	Idukki
Murinjapuzha	685532	Kerala	Idukki
Murukady	685535	Kerala	Idukki
Muthalakodam	685605	Kerala	Idukki
Muttom Ek	685587	Kerala	Idukki
N R city	685566	Kerala	Idukki
Narakakanam	685602	Kerala	Idukki
Nariampara	685511	Kerala	Idukki
Nayarupara	685602	Kerala	Idukki
Nediyasala	685584	Kerala	Idukki
Nedumkandam	685553	Kerala	Idukki
Nellipara	685515	Kerala	Idukki
Nettithozhu	685551	Kerala	Idukki
Neyyassery	685581	Kerala	Idukki
Ottalloor	685586	Kerala	Idukki
Pachady	685553	Kerala	Idukki
Pachakanam	685533	Kerala	Idukki
Padamugham	685604	Kerala	Idukki
Padicap	685561	Kerala	Idukki
Pallikunnu	685531	Kerala	Idukki
Pallivasal	685565	Kerala	Idukki
Pallivasal Estate	685612	Kerala	Idukki
Paloorkavu	685532	Kerala	Idukki
Paloorkavu Central	685532	Kerala	Idukki
Pambanar	685537	Kerala	Idukki
Pampadumpara	685556	Kerala	Idukki
Pampupara	685551	Kerala	Idukki
Panamkutty	685562	Kerala	Idukki
Pandipara	685515	Kerala	Idukki
Panickankudy	685564	Kerala	Idukki
Panniar Estate	685621	Kerala	Idukki
Pannimattom	685588	Kerala	Idukki
Pannoor	685581	Kerala	Idukki
Parapuzha	685582	Kerala	Idukki
Parathode	685571	Kerala	Idukki
Pasupara	685502	Kerala	Idukki
Pathippally	685589	Kerala	Idukki
Pazhayarikandam	685606	Kerala	Idukki
Peermade	685531	Kerala	Idukki
Perinchankutty	685604	Kerala	Idukki
Peringassery	685581	Kerala	Idukki
Periyar Lake	685536	Kerala	Idukki
Perumpillichira	685605	Kerala	Idukki
Perumthotty	685515	Kerala	Idukki
Peruvanthanam	685532	Kerala	Idukki
Pethotty	685619	Kerala	Idukki
Pius Nagar	685620	Kerala	Idukki
Ponmudi	685564	Kerala	Idukki
Poopara	685619	Kerala	Idukki
Pottenkad	685569	Kerala	Idukki
Prakash	685515	Kerala	Idukki
Pulickathotty	685582	Kerala	Idukki
Puliyanmala	685515	Kerala	Idukki
Pullikkanam	685503	Kerala	Idukki
Purapuzha	685583	Kerala	Idukki
Pushpakandam	685552	Kerala	Idukki
Puthady	685619	Kerala	Idukki
Puttady	685551	Kerala	Idukki
Rajakad	685566	Kerala	Idukki
Rajakandam	685551	Kerala	Idukki
Rajakumari	685619	Kerala	Idukki
Rajakumari South	685619	Kerala	Idukki
Rajamudi	685604	Kerala	Idukki
Rajapuram	685604	Kerala	Idukki
Ramakkal Mettu	685552	Kerala	Idukki
S P puram	685617	Kerala	Idukki
Sahayagiri	685620	Kerala	Idukki
Sanniasioda	685552	Kerala	Idukki
Santhanpara	685619	Kerala	Idukki
Santhigram	685510	Kerala	Idukki
Sasthanoda	685535	Kerala	Idukki
Selliampara	685563	Kerala	Idukki
Senapathy	685619	Kerala	Idukki
Sengulam	685565	Kerala	Idukki
Sinkukandam	685618	Kerala	Idukki
South Kathipara	685562	Kerala	Idukki
Springvalley	685509	Kerala	Idukki
Surianalle	685618	Kerala	Idukki
Talliar	685614	Kerala	Idukki
Thadiampadu	685602	Kerala	Idukki
Thankamony	685515	Kerala	Idukki
Thattakuzha	685581	Kerala	Idukki
Thattarathatta	685586	Kerala	Idukki
Thattekanni	685606	Kerala	Idukki
Thekkady	685536	Kerala	Idukki
Thekkumbhagam	685585	Kerala	Idukki
Thengakal	685538	Kerala	Idukki
Thodupuzha	685584	Kerala	Idukki
Thodupuzha -puthuperiyaram	685584	Kerala	Idukki
Thodupuzha Bazar	685584	Kerala	Idukki
Thodupuzha East	685585	Kerala	Idukki
Thodupuzha North	685584	Kerala	Idukki
Thokkupara	685565	Kerala	Idukki
Thommankuthu	685581	Kerala	Idukki
Thoppipala	685511	Kerala	Idukki
Thopramkduy	685515	Kerala	Idukki
Thovarayar	685511	Kerala	Idukki
Thudanganad	685587	Kerala	Idukki
Udumbanchola	685554	Kerala	Idukki
Udumbannur	685595	Kerala	Idukki
Uppukandam	685510	Kerala	Idukki
Upputhara	685505	Kerala	Idukki
Upputhode	685604	Kerala	Idukki
Vadakkummury	685586	Kerala	Idukki
Vagamon	685503	Kerala	Idukki
Valara	685561	Kerala	Idukki
Valiyathovala	685510	Kerala	Idukki
Vallakadavu Periyar	685533	Kerala	Idukki
Vandamattom	685582	Kerala	Idukki
Vandanmettu	685551	Kerala	Idukki
Vandiperiyar	685533	Kerala	Idukki
Vannapuram	685582	Kerala	Idukki
Vattappara (ubc)	685619	Kerala	Idukki
Vattiar	685611	Kerala	Idukki
Vazhavara	685515	Kerala	Idukki
Vazhithala	685583	Kerala	Idukki
Vellaramkunnu	685535	Kerala	Idukki
Vellathooval	685563	Kerala	Idukki
Vellayamkudy	685515	Kerala	Idukki
Velliyamattom	685588	Kerala	Idukki
Vengallur	685584	Kerala	Idukki
Venmony	685606	Kerala	Idukki
Vimalagiri	685602	Kerala	Idukki
Wallardie	685533	Kerala	Idukki
Wembly	686514	Kerala	Idukki
West Kodikulam	685582	Kerala	Idukki
Alacherry	670650	Kerala	Kannur
Alakode	670571	Kerala	Kannur
Alakode-kuttaramba	670571	Kerala	Kannur
Alavil	670008	Kerala	Kannur
Ambayathode	670651	Kerala	Kannur
Ambilat	670701	Kerala	Kannur
Anchampeedika	670331	Kerala	Kannur
Angadikadavu	670706	Kerala	Kannur
Aniyaram	670672	Kerala	Kannur
Anjarakandy	670612	Kerala	Kannur
Annur	670332	Kerala	Kannur
Arabi	670705	Kerala	Kannur
Aralam	670704	Kerala	Kannur
Aralam Farm	670673	Kerala	Kannur
Arang	670582	Kerala	Kannur
Aravanchal	670307	Kerala	Kannur
Areekamala	670582	Kerala	Kannur
Aril	670143	Kerala	Kannur
Arivilanjapoyil	670571	Kerala	Kannur
Aroli	670566	Kerala	Kannur
Atakkathode	670674	Kerala	Kannur
Attadappa	670006	Kerala	Kannur
Ayithara Mambram	670643	Kerala	Kannur
Azhikkal	670009	Kerala	Kannur
Azhikode	670009	Kerala	Kannur
Azhikode South	670009	Kerala	Kannur
Bavode	670622	Kerala	Kannur
Burnacherry	670013	Kerala	Kannur
Chala East	670621	Kerala	Kannur
Chalad	670014	Kerala	Kannur
Chalakkode	670307	Kerala	Kannur
Chalil	670102	Kerala	Kannur
Chamathachal	670633	Kerala	Kannur
Champad	670694	Kerala	Kannur
Chandanakampara	670633	Kerala	Kannur
Charal	670706	Kerala	Kannur
Chattuvapara	670592	Kerala	Kannur
Chavasseri	670702	Kerala	Kannur
Chekkikulam	670592	Kerala	Kannur
Cheleri	670604	Kerala	Kannur
Chempanthotty	670631	Kerala	Kannur
Chemperi	670632	Kerala	Kannur
Chendayad	670692	Kerala	Kannur
Chengalayi	670631	Kerala	Kannur
Chepparapadava	670581	Kerala	Kannur
Cherakkara	670104	Kerala	Kannur
Cherikode	670631	Kerala	Kannur
Cherukun R.s.	670301	Kerala	Kannur
Cherukunnu	670301	Kerala	Kannur
Cheruparamba	670693	Kerala	Kannur
Cherupazhassi	670601	Kerala	Kannur
Cherupuzha	670511	Kerala	Kannur
Cheruvancheri	670650	Kerala	Kannur
Chettiamparamba	670674	Kerala	Kannur
Chirakk R.s.	670011	Kerala	Kannur
Chirakkal	670011	Kerala	Kannur
Chithapilapoyil	670502	Kerala	Kannur
Chittariparamba	670650	Kerala	Kannur
Chittodi	670571	Kerala	Kannur
Chokli	670672	Kerala	Kannur
Chovva	670006	Kerala	Kannur
Chunda	670511	Kerala	Kannur
Chundakunnu	670632	Kerala	Kannur
Chunkakunnu	670651	Kerala	Kannur
Chuzhali	670631	Kerala	Kannur
Civil Station kannur	670002	Kerala	Kannur
Dharmadam	670106	Kerala	Kannur
Eachur	670591	Kerala	Kannur
Edakkom	670581	Kerala	Kannur
Edapuzha	670704	Kerala	Kannur
Edat	670327	Kerala	Kannur
Edavaramba	670511	Kerala	Kannur
Edayannur	670595	Kerala	Kannur
Elampara	670595	Kerala	Kannur
Elangot	670692	Kerala	Kannur
Eramam Desom	670307	Kerala	Kannur
Eranholi	670107	Kerala	Kannur
Eriam	670306	Kerala	Kannur
Eruvassi	670632	Kerala	Kannur
Eruvatty	670647	Kerala	Kannur
Eruvatty-chapparapadava	670581	Kerala	Kannur
Etakkad	670663	Kerala	Kannur
Ettikulam	670308	Kerala	Kannur
Ettukudukka	670521	Kerala	Kannur
Ezhilode	670309	Kerala	Kannur
Ezhome	670334	Kerala	Kannur
Irinavu	670301	Kerala	Kannur
Iritty	670703	Kerala	Kannur
Iriveri	670614	Kerala	Kannur
Irukkur	670593	Kerala	Kannur
Josegiri	670511	Kerala	Kannur
Kacherikadavu	670706	Kerala	Kannur
Kadachira	670621	Kerala	Kannur
Kadambur-kannur	670663	Kerala	Kannur
Kadannapally	670501	Kerala	Kannur
Kadavathur	670676	Kerala	Kannur
Kadirur-tly	670642	Kerala	Kannur
Kadumeni	670511	Kerala	Kannur
Kaithapram	670631	Kerala	Kannur
Kakkara	670306	Kerala	Kannur
Kakkat	670005	Kerala	Kannur
Kakkengad	670673	Kerala	Kannur
Kalanki	670705	Kerala	Kannur
Kalliad	670593	Kerala	Kannur
Kalliasseri	670562	Kerala	Kannur
Kallikandy	670693	Kerala	Kannur
Kalluvayal	670703	Kerala	Kannur
Kamballur	670511	Kerala	Kannur
Kanamvayal	670511	Kerala	Kannur
Kanayi	670307	Kerala	Kannur
Kandakai	670602	Kerala	Kannur
Kandankali	670333	Kerala	Kannur
Kandoth	670307	Kerala	Kannur
Kanhileri	670702	Kerala	Kannur
Kanhirangad	670142	Kerala	Kannur
Kanhirode	670592	Kerala	Kannur
Kanichar	670674	Kerala	Kannur
Kanjirakolly	670633	Kerala	Kannur
Kankol	670337	Kerala	Kannur
Kannadiparamba	670604	Kerala	Kannur
Kannavam Colony	670650	Kerala	Kannur
Kannivayal	670511	Kerala	Kannur
Kannookara	670012	Kerala	Kannur
Kannoth	670650	Kerala	Kannur
Kannur	670001	Kerala	Kannur
Kannur City	670003	Kerala	Kannur
Kannur District hospital	670017	Kerala	Kannur
Kannur Railway station	670001	Kerala	Kannur
Kannur Thana	670012	Kerala	Kannur
Kannur University campus	670567	Kerala	Kannur
Kanul	670564	Kerala	Kannur
Kappad	670006	Kerala	Kannur
Kara- Peravoor	670702	Kerala	Kannur
Karanthat	670308	Kerala	Kannur
Karimbam	670142	Kerala	Kannur
Karippal	670581	Kerala	Kannur
Karivellur	670521	Kerala	Kannur
Kariyad South	673316	Kerala	Kannur
Karthikapuram	670571	Kerala	Kannur
Karuvanchal	670571	Kerala	Kannur
Katalayi	670007	Kerala	Kannur
Kattampally	670015	Kerala	Kannur
Kavumbhagam	670110	Kerala	Kannur
Kavvayi	670339	Kerala	Kannur
Kayalampara	670632	Kerala	Kannur
Kayani	670702	Kerala	Kannur
Kayaralam	670602	Kerala	Kannur
Keecheri	670702	Kerala	Kannur
Keezhara	670301	Kerala	Kannur
Keezhpalli	670704	Kerala	Kannur
Keezhur-iritty	670703	Kerala	Kannur
Kelakam	670674	Kerala	Kannur
Kezhallur	670612	Kerala	Kannur
Kidanhi	670675	Kerala	Kannur
Kiliyanthara	670706	Kerala	Kannur
Kizhakke Kadirur	670642	Kerala	Kannur
Kizhunna	670007	Kerala	Kannur
Kokkanisseri	670307	Kerala	Kannur
Kolacherry	670601	Kerala	Kannur
Kolakkad	670673	Kerala	Kannur
Kolari	670702	Kerala	Kannur
Kolayad	670650	Kerala	Kannur
Kolithattu	670706	Kerala	Kannur
Koodali	670592	Kerala	Kannur
Koomanthode	670704	Kerala	Kannur
Koorara	670694	Kerala	Kannur
Koottupuzha	670706	Kerala	Kannur
Kootumugham	670631	Kerala	Kannur
Kooveri	670581	Kerala	Kannur
Korom	670307	Kerala	Kannur
Kottali	670016	Kerala	Kannur
Kottayad	670571	Kerala	Kannur
Kottayam Malabar	670643	Kerala	Kannur
Kottayampoil	670691	Kerala	Kannur
Kottila	670334	Kerala	Kannur
Kottiyur	670651	Kerala	Kannur
Kovvapuram	670309	Kerala	Kannur
Koyyam	670142	Kerala	Kannur
Koyyode	670621	Kerala	Kannur
Kozhichal	670511	Kerala	Kannur
Kozhummal	670522	Kerala	Kannur
Kudiyanmala	670582	Kerala	Kannur
Kunhimangalam	670309	Kerala	Kannur
Kuniyampuzha	670632	Kerala	Kannur
Kuppam-taliparamba	670144	Kerala	Kannur
Kurichiyil	670102	Kerala	Kannur
Kurumathur	670142	Kerala	Kannur
Kusavanvayal	670593	Kerala	Kannur
Kuthuparamba	670643	Kerala	Kannur
Kuttikkakam	670663	Kerala	Kannur
Kuttikol	670141	Kerala	Kannur
Kuttiyattur	670602	Kerala	Kannur
Kuttiyeri	670141	Kerala	Kannur
Kuttur	670306	Kerala	Kannur
Madathil	670703	Kerala	Kannur
Madayi	670304	Kerala	Kannur
Makreri	670622	Kerala	Kannur
Malapattam	670631	Kerala	Kannur
Malayampadi	670674	Kerala	Kannur
Mallannur	670701	Kerala	Kannur
Malur	670702	Kerala	Kannur
Mamba	670611	Kerala	Kannur
Mambram	670741	Kerala	Kannur
Manakadavu	670571	Kerala	Kannur
Manantheri	670643	Kerala	Kannur
Manathana	670677	Kerala	Kannur
Mandalam	670582	Kerala	Kannur
Mandur-kannur	670501	Kerala	Kannur
Mangattidam	670643	Kerala	Kannur
Manikkadavu	670705	Kerala	Kannur
Manippara	670705	Kerala	Kannur
Mathamangalam	670306	Kerala	Kannur
Mathamangalam Bazar	670306	Kerala	Kannur
Mathil	670343	Kerala	Kannur
Mattannur	670702	Kerala	Kannur
Mattanur College	670702	Kerala	Kannur
Mattul	670302	Kerala	Kannur
Mattul North	670325	Kerala	Kannur
Mavilayi	670622	Kerala	Kannur
Mayyil	670602	Kerala	Kannur
Mekkunnu	670675	Kerala	Kannur
Melmuringodi	670673	Kerala	Kannur
Melur-tly	670661	Kerala	Kannur
Mokeri	670692	Kerala	Kannur
Mooriyad	670643	Kerala	Kannur
Moozhikkara	670103	Kerala	Kannur
Morazha	670331	Kerala	Kannur
Mottammal	670331	Kerala	Kannur
Mowancheri	670613	Kerala	Kannur
Mudiyanga	670691	Kerala	Kannur
Mullakodi	670602	Kerala	Kannur
Mundalur	670622	Kerala	Kannur
Mundayad	670597	Kerala	Kannur
Mundayamparamba	670704	Kerala	Kannur
Munderi	670591	Kerala	Kannur
Muringeri	670612	Kerala	Kannur
Muyyam	670142	Kerala	Kannur
Muzhakunnu	670673	Kerala	Kannur
Muzhappala	670611	Kerala	Kannur
Muzhappilangad	670662	Kerala	Kannur
Naduvanad	670702	Kerala	Kannur
Naduvil	670582	Kerala	Kannur
Nanichery	670563	Kerala	Kannur
Narath	670603	Kerala	Kannur
Nareekamvally	670501	Kerala	Kannur
Narikkodmala	670693	Kerala	Kannur
Nediyenga	670631	Kerala	Kannur
Nedumpoil	670650	Kerala	Kannur
Nedungome	670631	Kerala	Kannur
Neerveli	670701	Kerala	Kannur
Nellikutty	670632	Kerala	Kannur
Nellipara	670571	Kerala	Kannur
Nettur	670105	Kerala	Kannur
New Mahe	673311	Kerala	Kannur
Nhekly	670307	Kerala	Kannur
Nirmalagiri	670701	Kerala	Kannur
Nuchiyad	670705	Kerala	Kannur
Olavilam	673313	Kerala	Kannur
Olayampadi	670306	Kerala	Kannur
Othayammadam	670301	Kerala	Kannur
Ottathai	670571	Kerala	Kannur
Pachapoika	670643	Kerala	Kannur
Padappangad	670581	Kerala	Kannur
Padiotchal	670307	Kerala	Kannur
Padiyur-kannur	670703	Kerala	Kannur
Palakkode	670305	Kerala	Kannur
Palaparamba	670701	Kerala	Kannur
Palavayal	670511	Kerala	Kannur
Palayad	670661	Kerala	Kannur
Pallikunnu	670004	Kerala	Kannur
Pallivayal	670142	Kerala	Kannur
Panapuzha	670306	Kerala	Kannur
Panniyannur	670679	Kerala	Kannur
Panniyur	670142	Kerala	Kannur
Panoor	670692	Kerala	Kannur
Pappinisseri	670561	Kerala	Kannur
Pappinisseri West	670565	Kerala	Kannur
Paral	670671	Kerala	Kannur
Parapram	670741	Kerala	Kannur
Parassinikadavu	670563	Kerala	Kannur
Parikkalam	670705	Kerala	Kannur
Pariyaram Medical college	670503	Kerala	Kannur
Pariyaram-kannur	670502	Kerala	Kannur
Pathampara	670571	Kerala	Kannur
Pathayakunnu	670691	Kerala	Kannur
Pathiriyad	670741	Kerala	Kannur
Pattanur	670595	Kerala	Kannur
Pattuvam	670143	Kerala	Kannur
Pavanoormotta	670602	Kerala	Kannur
Payam	670704	Kerala	Kannur
Payam East	670704	Kerala	Kannur
Payangadi	670303	Kerala	Kannur
Payangadi R s	670358	Kerala	Kannur
Payyambalam	670001	Kerala	Kannur
Payyan R.s.	670307	Kerala	Kannur
Payyanur	670307	Kerala	Kannur
Payyavur	670633	Kerala	Kannur
Pazhassikari	670633	Kerala	Kannur
Pazhassiraja Nagar	670702	Kerala	Kannur
Peravoor	670673	Kerala	Kannur
Peringadi	673312	Kerala	Kannur
Peringathur	670675	Kerala	Kannur
Peringome	670354	Kerala	Kannur
Perinkeri	670706	Kerala	Kannur
Perumpunna	670673	Kerala	Kannur
Perundattil	670107	Kerala	Kannur
Peruva	670650	Kerala	Kannur
Peruvalathuparamba	670593	Kerala	Kannur
Pilathara	670501	Kerala	Kannur
Pinarayi	670741	Kerala	Kannur
Poduvachery	670621	Kerala	Kannur
Ponniam	670641	Kerala	Kannur
Ponniam West	670641	Kerala	Kannur
Poolakutty	670650	Kerala	Kannur
Porakunnu	670306	Kerala	Kannur
Porora	670702	Kerala	Kannur
Pottampilavu	670582	Kerala	Kannur
Poyilur	670693	Kerala	Kannur
Prapoyil	670511	Kerala	Kannur
Pukkot-kba	670691	Kerala	Kannur
Pulikurumba	670582	Kerala	Kannur
Puliyanambram	670675	Kerala	Kannur
Pullookkara	670678	Kerala	Kannur
Punnad	670703	Kerala	Kannur
Punnol	670102	Kerala	Kannur
Puthur-panoor	670692	Kerala	Kannur
Ramanthali	670308	Kerala	Kannur
Randamkadavu	670706	Kerala	Kannur
Rayarom	670571	Kerala	Kannur
Sankaranellur	670643	Kerala	Kannur
Santhigiri	670674	Kerala	Kannur
Sivapuram	670702	Kerala	Kannur
Sreekandapuram	670631	Kerala	Kannur
Sreestha	670303	Kerala	Kannur
Talap	670002	Kerala	Kannur
Taliparamba	670141	Kerala	Kannur
Temple Gate	670102	Kerala	Kannur
Thabore	670511	Kerala	Kannur
Thadikadavu	670581	Kerala	Kannur
Thalassery	670101	Kerala	Kannur
Thalassery Bazar	670101	Kerala	Kannur
Thalassery Courts	670101	Kerala	Kannur
Thattummal	670511	Kerala	Kannur
Thavam	670301	Kerala	Kannur
Thayyeni	670511	Kerala	Kannur
Thayyil	670003	Kerala	Kannur
Thazhe Chovva	670018	Kerala	Kannur
Thekkumbad	670301	Kerala	Kannur
Therthally	670571	Kerala	Kannur
Thillenkeri	670702	Kerala	Kannur
Thimiri-chepparapadava	670581	Kerala	Kannur
Thirumeni	670511	Kerala	Kannur
Thiruvattoor	670502	Kerala	Kannur
Tholambra	670673	Kerala	Kannur
Thondiyil	670673	Kerala	Kannur
Thottada	670007	Kerala	Kannur
Thrichambaram	670141	Kerala	Kannur
Thuvakunnu	670693	Kerala	Kannur
Tiruvangad	670103	Kerala	Kannur
Udayagiri	670571	Kerala	Kannur
Ulikkal	670705	Kerala	Kannur
Uliyil	670702	Kerala	Kannur
Ummenchira	670649	Kerala	Kannur
Uruvachal	670702	Kerala	Kannur
Vadakkumbad	670109	Kerala	Kannur
Vadakkumbad-ramanthali	670330	Kerala	Kannur
Valapattanam	670010	Kerala	Kannur
Varam	670594	Kerala	Kannur
Vattiamthode	670705	Kerala	Kannur
Vayalalam	670102	Kerala	Kannur
Vayannur	670650	Kerala	Kannur
Vayattuparamba	670582	Kerala	Kannur
Veerpad	670704	Kerala	Kannur
Velimanam	670704	Kerala	Kannur
Vellad	670571	Kerala	Kannur
Vellarvelly	670673	Kerala	Kannur
Vellora	670306	Kerala	Kannur
Vellunni	670674	Kerala	Kannur
Vellur	670346	Kerala	Kannur
Vengad	670612	Kerala	Kannur
Vengara-kannur	670305	Kerala	Kannur
Vijayagiri	670571	Kerala	Kannur
Vilakkode	670703	Kerala	Kannur
Vilakkottur	670693	Kerala	Kannur
Vilayancode	670501	Kerala	Kannur
Achanthuruthi	671351	Kerala	Kasargod
Achikanam	671531	Kerala	Kasargod
Adkathbail	671121	Kerala	Kasargod
Adur	671543	Kerala	Kasargod
Ajanur	671531	Kerala	Kasargod
Alampady	671123	Kerala	Kasargod
Ammeri	671322	Kerala	Kasargod
Anandashrama	671531	Kerala	Kasargod
Anekallu	671323	Kerala	Kasargod
Angadimogaru	671321	Kerala	Kasargod
Arikady	671321	Kerala	Kasargod
Ariyapady	671551	Kerala	Kasargod
Attenganam	671531	Kerala	Kasargod
Badaje	671323	Kerala	Kasargod
Badur	671321	Kerala	Kasargod
Balal	671533	Kerala	Kasargod
Balanthode	671532	Kerala	Kasargod
Balemoole	671552	Kerala	Kasargod
Balla	671531	Kerala	Kasargod
Bandadka	671541	Kerala	Kasargod
Bangramanjeshwar	671323	Kerala	Kasargod
Bare	671319	Kerala	Kasargod
Bayar	671348	Kerala	Kasargod
Bedadka	671541	Kerala	Kasargod
Bedradka	671124	Kerala	Kasargod
Bekal	671318	Kerala	Kasargod
Bekur	671322	Kerala	Kasargod
Bela	671321	Kerala	Kasargod
Belluru	671543	Kerala	Kasargod
Bengalam	671314	Kerala	Kasargod
Beripadavu	671322	Kerala	Kasargod
Bheemanady	671314	Kerala	Kasargod
Bombrana	671321	Kerala	Kasargod
Chamnad	671317	Kerala	Kasargod
Chamundikunnu	671532	Kerala	Kasargod
Chandragiri	671317	Kerala	Kasargod
Charla	671323	Kerala	Kasargod
Chathamath	671314	Kerala	Kasargod
Chayoth	671314	Kerala	Kasargod
Chengala	671541	Kerala	Kasargod
Cheroor	671123	Kerala	Kasargod
Chervathur	671313	Kerala	Kasargod
Chimeni	671313	Kerala	Kasargod
Chippar	671322	Kerala	Kasargod
Chittari	671316	Kerala	Kasargod
Chittarikkal	671326	Kerala	Kasargod
Chully	671533	Kerala	Kasargod
Darkas	671533	Kerala	Kasargod
Delampady	671543	Kerala	Kasargod
Dharmathadka	671324	Kerala	Kasargod
Edachakai	671310	Kerala	Kasargod
Ednad	671321	Kerala	Kasargod
Edneer	671541	Kerala	Kasargod
Elambachi	671311	Kerala	Kasargod
Elerithattu	671314	Kerala	Kasargod
Erikulam	671314	Kerala	Kasargod
Haripuram	671531	Kerala	Kasargod
Heroor	671324	Kerala	Kasargod
Hidayathnagar	671123	Kerala	Kasargod
Hosabettu	671323	Kerala	Kasargod
Ichlangodu	671324	Kerala	Kasargod
Iriya	671531	Kerala	Kasargod
Iriyanni	671542	Kerala	Kasargod
Kadambar	671323	Kerala	Kasargod
Kaithakkad	671313	Kerala	Kasargod
Kakkebettu	671543	Kerala	Kasargod
Kalichanadukam	671314	Kerala	Kasargod
Kallakatta	671123	Kerala	Kasargod
Kallappally	671532	Kerala	Kasargod
Kalnad	671317	Kerala	Kasargod
Kanakappally	671533	Kerala	Kasargod
Kanathur	671542	Kerala	Kasargod
Kanhangad	671315	Kerala	Kasargod
Kanhangad South	671531	Kerala	Kasargod
Kanhiradkam	671531	Kerala	Kasargod
Kanhirapoil	671531	Kerala	Kasargod
Kannur	671321	Kerala	Kasargod
Karadka	671542	Kerala	Kasargod
Karindala	671314	Kerala	Kasargod
Karivedakam	671541	Kerala	Kasargod
Kasaragod	671121	Kerala	Kasargod
Kasaragod R s	671121	Kerala	Kasargod
Kattipoil	671314	Kerala	Kasargod
Kattukukke	671552	Kerala	Kasargod
Kayyaru	671322	Kerala	Kasargod
Kayyur	671313	Kerala	Kasargod
Keekan	671316	Kerala	Kasargod
Kidoor	671321	Kerala	Kasargod
Kilaikote	671313	Kerala	Kasargod
Kinanur	671533	Kerala	Kasargod
Kinningar	671543	Kerala	Kasargod
Kodiamme	671321	Kerala	Kasargod
Kodlamogaru	671323	Kerala	Kasargod
Kodoth	671531	Kerala	Kasargod
Kolathuri	671541	Kerala	Kasargod
Kolavayal	671531	Kerala	Kasargod
Koliyur	671323	Kerala	Kasargod
Kollampara	671314	Kerala	Kasargod
Konnakad	671533	Kerala	Kasargod
Kotakkat	671357	Kerala	Kasargod
Kotoor	671542	Kerala	Kasargod
Kottacherry	671315	Kerala	Kasargod
Kottamala Estate	671314	Kerala	Kasargod
Kottapuram	671341	Kerala	Kasargod
Kottody	671532	Kerala	Kasargod
Kudalmerkala	671324	Kerala	Kasargod
Kudlu	671124	Kerala	Kasargod
Kumbdaje	671551	Kerala	Kasargod
Kumbla	671321	Kerala	Kasargod
Kundankuzhy	671541	Kerala	Kasargod
Kunjathur	671323	Kerala	Kasargod
Kuntar	671543	Kerala	Kasargod
Kuntikana	671551	Kerala	Kasargod
Kurudapadavu	671322	Kerala	Kasargod
Kuttikolu	671541	Kerala	Kasargod
Madhur	671124	Kerala	Kasargod
Madikai	671314	Kerala	Kasargod
Maire	671552	Kerala	Kasargod
Majibail	671323	Kerala	Kasargod
Malakallu	671532	Kerala	Kasargod
Malla	671542	Kerala	Kasargod
Manadka	671541	Kerala	Kasargod
Mandapam	671326	Kerala	Kasargod
Mangalpady	671324	Kerala	Kasargod
Manikoth	671329	Kerala	Kasargod
Manimoole	671541	Kerala	Kasargod
Maniyat	671310	Kerala	Kasargod
Manjeshwar	671323	Kerala	Kasargod
Mavilakadapuram	671312	Kerala	Kasargod
Mayipady	671124	Kerala	Kasargod
Miyapadavu	671323	Kerala	Kasargod
Mogral	671321	Kerala	Kasargod
Mogral Puthur	671124	Kerala	Kasargod
Moodambail	671323	Kerala	Kasargod
Movval	671316	Kerala	Kasargod
Movvar	671543	Kerala	Kasargod
Mugu	671321	Kerala	Kasargod
Muliyar	671542	Kerala	Kasargod
Mulleria	671543	Kerala	Kasargod
Munnad	671541	Kerala	Kasargod
Muttathody	671123	Kerala	Kasargod
Muttomkadavil	671533	Kerala	Kasargod
Mylatti	671319	Kerala	Kasargod
Natakkal	671533	Kerala	Kasargod
Nekraje	671544	Kerala	Kasargod
Nettanige	671543	Kerala	Kasargod
Nileshwar	671314	Kerala	Kasargod
Nirchal	671321	Kerala	Kasargod
Olat	671310	Kerala	Kasargod
Ozhinhavalappu	671314	Kerala	Kasargod
Padimaruth	671531	Kerala	Kasargod
Padne	671312	Kerala	Kasargod
Padnekadapuram	671312	Kerala	Kasargod
Padnekkad	671328	Kerala	Kasargod
Padre	671552	Kerala	Kasargod
Paivalike	671348	Kerala	Kasargod
Pakkom	671316	Kerala	Kasargod
Pallathadka	671551	Kerala	Kasargod
Pallikere	671316	Kerala	Kasargod
Panathady	671532	Kerala	Kasargod
Panathur	671532	Kerala	Kasargod
Pandi	671543	Kerala	Kasargod
Paniyal	671318	Kerala	Kasargod
Panjikkal	671543	Kerala	Kasargod
Paraklayi	671531	Kerala	Kasargod
Paramba	671533	Kerala	Kasargod
Parappa	671533	Kerala	Kasargod
Parappa - delampady	671543	Kerala	Kasargod
Paravanadkam	671317	Kerala	Kasargod
Pathoor	671323	Kerala	Kasargod
Patla	671124	Kerala	Kasargod
Pavoor	671323	Kerala	Kasargod
Perdala	671551	Kerala	Kasargod
Periyanganam	671314	Kerala	Kasargod
Periye	671316	Kerala	Kasargod
Perla	671552	Kerala	Kasargod
Permude	671324	Kerala	Kasargod
Perumbala	671317	Kerala	Kasargod
Perumbatta	671313	Kerala	Kasargod
Pettikundu	671313	Kerala	Kasargod
Pilicode	671353	Kerala	Kasargod
Plachikara	671533	Kerala	Kasargod
Podavur	671313	Kerala	Kasargod
Pudukai	671314	Kerala	Kasargod
Pullur	671531	Kerala	Kasargod
Punnakkunnu	671533	Kerala	Kasargod
Puthariadukkam	671314	Kerala	Kasargod
Puthige	671321	Kerala	Kasargod
Rajapuram	671532	Kerala	Kasargod
Ramdasnagar	671124	Kerala	Kasargod
Ranipuram	671532	Kerala	Kasargod
Ravaneshwaram	671316	Kerala	Kasargod
Samekochi	671541	Kerala	Kasargod
Sankarampady	671541	Kerala	Kasargod
Shiribagilu	671124	Kerala	Kasargod
Shiriya	671321	Kerala	Kasargod
Talangara	671122	Kerala	Kasargod
Thaikadapuram	671314	Kerala	Kasargod
Thayanoor	671531	Kerala	Kasargod
Thekkil	671541	Kerala	Kasargod
Thekkilferry	671545	Kerala	Kasargod
Thuruthi	671351	Kerala	Kasargod
Timiri - chervathur	671313	Kerala	Kasargod
Trikarpur	671310	Kerala	Kasargod
Trikarpur Kadapuram	671310	Kerala	Kasargod
Trikarpur South	671311	Kerala	Kasargod
Udinur	671349	Kerala	Kasargod
Udma	671319	Kerala	Kasargod
Udumbanthala	671350	Kerala	Kasargod
Udyavara	671323	Kerala	Kasargod
Ukkinadka	671552	Kerala	Kasargod
Ullody	671321	Kerala	Kasargod
Umda - padinhare	671319	Kerala	Kasargod
Uppala	671322	Kerala	Kasargod
Uppala Gate	671322	Kerala	Kasargod
Uppilakai	671314	Kerala	Kasargod
Urdur	671543	Kerala	Kasargod
Valiaparaba	671312	Kerala	Kasargod
Valiapoil	671313	Kerala	Kasargod
Vallikadavu	671533	Kerala	Kasargod
Vaninagar	671552	Kerala	Kasargod
Vattamthatta	671542	Kerala	Kasargod
Vellap	671310	Kerala	Kasargod
Vellarikundu	671533	Kerala	Kasargod
Vidyanagar	671123	Kerala	Kasargod
Vorkadi	671323	Kerala	Kasargod
West Eleri	671314	Kerala	Kasargod
Yethadka	671551	Kerala	Kasargod
Achencoil	689696	Kerala	Kollam
Adichanallur	691573	Kerala	Kollam
Aduthala	691571	Kerala	Kollam
Akkal	691516	Kerala	Kollam
Alayamon	691320	Kerala	Kollam
Alumkadavu	690573	Kerala	Kollam
Alumoodu	691577	Kerala	Kollam
Alumpeedika	690547	Kerala	Kollam
Ambalakkara	691532	Kerala	Kollam
Ambalathinnirappu	691508	Kerala	Kollam
Ambalathumbhagom	690520	Kerala	Kollam
Ambalathumkala	691505	Kerala	Kollam
Ambanad	691309	Kerala	Kollam
Ambipoika	691501	Kerala	Kollam
Amrithapuri	690525	Kerala	Kollam
Anakottur	691505	Kerala	Kollam
Anakulam	691311	Kerala	Kollam
Anapettakongal	691307	Kerala	Kollam
Anayadi	690561	Kerala	Kollam
Anchal	691306	Kerala	Kollam
Andoor	691532	Kerala	Kollam
Areeplachy	691333	Kerala	Kollam
Arinallur	690538	Kerala	Kollam
Arinallur South	690538	Kerala	Kollam
Arkannur	691530	Kerala	Kollam
Aryankavu	691316	Kerala	Kollam
Ashtamudi	691602	Kerala	Kollam
Asramom	691002	Kerala	Kollam
Athinad North	690542	Kerala	Kollam
Avaneeswaram	691508	Kerala	Kollam
Avaneeswaram Rs	691517	Kerala	Kollam
Ayathil	691017	Kerala	Kollam
Ayilara	691312	Kerala	Kollam
Ayirakuzhy	691559	Kerala	Kollam
Ayiranallur	691307	Kerala	Kollam
Ayur	691530	Kerala	Kollam
Azheekkalthura	690547	Kerala	Kollam
Bharatheepuram	691330	Kerala	Kollam
Bhoothakulam	691302	Kerala	Kollam
Chadayamanalam	691534	Kerala	Kollam
Chakkuvarakkal	691508	Kerala	Kollam
Chandanathope	691014	Kerala	Kollam
Channapettah	691311	Kerala	Kollam
Channappara	691536	Kerala	Kollam
Chariparabu	691536	Kerala	Kollam
Chathakulam	690520	Kerala	Kollam
Chathannur	691572	Kerala	Kollam
Chavara	691583	Kerala	Kollam
Chavara Bridge	691583	Kerala	Kollam
Chavara South	691584	Kerala	Kollam
Chembanaruvi	689696	Kerala	Kollam
Chemmakkad	691602	Kerala	Kollam
Chengamanad Jn	691557	Kerala	Kollam
Chenkulam	691510	Kerala	Kollam
Cheppara	691520	Kerala	Kollam
Cheriyavelinallur	691516	Kerala	Kollam
Cheriyazheekal	690573	Kerala	Kollam
Cherukulam	691306	Kerala	Kollam
Cherupoika	691507	Kerala	Kollam
Cheruvakkal	691530	Kerala	Kollam
Chirakkara	691578	Kerala	Kollam
Chirakkarathazham	691578	Kerala	Kollam
Chithara	691559	Kerala	Kollam
Chozhiakode	691317	Kerala	Kollam
Clappana	690525	Kerala	Kollam
Dally	691310	Kerala	Kollam
Decent Jn	691577	Kerala	Kollam
East Kallada	691502	Kerala	Kollam
Edakkad	691552	Kerala	Kollam
Edakulangara	691562	Kerala	Kollam
Edamon	691307	Kerala	Kollam
Edamulackal	691321	Kerala	Kollam
Edanad	691571	Kerala	Kollam
Edapalayam	691309	Kerala	Kollam
Edappallycotta	691583	Kerala	Kollam
Edathara	691536	Kerala	Kollam
Edayam	691532	Kerala	Kollam
Elamadu	691539	Kerala	Kollam
Elampal	691322	Kerala	Kollam
Elampazhannur	691534	Kerala	Kollam
Elicode	691322	Kerala	Kollam
Elikattoor	689696	Kerala	Kollam
Eravipuram	691011	Kerala	Kollam
Eroor	691312	Kerala	Kollam
Extension Trg centre	691531	Kerala	Kollam
Ezhiyam Vattathra mala mukku	691306	Kerala	Kollam
Ezhukone	691505	Kerala	Kollam
Idakkadom	691505	Kerala	Kollam
Inchavila	691601	Kerala	Kollam
Irumpanangadu	691505	Kerala	Kollam
Iverkala East	691507	Kerala	Kollam
Kadakkal	691536	Kerala	Kollam
Kadakkode	691505	Kerala	Kollam
Kadamancode	691312	Kerala	Kollam
Kadappakada	691008	Kerala	Kollam
Kadathur Ward	690523	Kerala	Kollam
Kaithacode	691543	Kerala	Kollam
Kaithode	691535	Kerala	Kollam
Kakkakunnu	690522	Kerala	Kollam
Kakkode	691331	Kerala	Kollam
Kakkotumoola	691303	Kerala	Kollam
Kalakode	691302	Kerala	Kollam
Kalayapuram	691560	Kerala	Kollam
Kallada Irrigation project	691308	Kerala	Kollam
Kallelibhagom	690546	Kerala	Kollam
Kallumthazham	691004	Kerala	Kollam
Kalluvathukkal	691578	Kerala	Kollam
Kalthuruthy	691309	Kerala	Kollam
Kamukumcherry	689696	Kerala	Kollam
Kanjavely	691602	Kerala	Kollam
Kanjiracode	691501	Kerala	Kollam
Kannanallur	691576	Kerala	Kollam
Karali Jn	690543	Kerala	Kollam
Karamcode	691571	Kerala	Kollam
Karavaloor	691318	Kerala	Kollam
Karavoor	689696	Kerala	Kollam
Karikkom	691531	Kerala	Kollam
Karimpinpuzha	691513	Kerala	Kollam
Karimthottuva	690540	Kerala	Kollam
Karingannur	691516	Kerala	Kollam
Kariyara	691332	Kerala	Kollam
Karukone	691324	Kerala	Kollam
Karunagappally North	690544	Kerala	Kollam
Karunagappaly	690518	Kerala	Kollam
Karuvelil	691505	Kerala	Kollam
Kattadi Jn	691537	Kerala	Kollam
Kattilkadavu	690542	Kerala	Kollam
Kavanad	691003	Kerala	Kollam
Kilikollur	691004	Kerala	Kollam
Kilikollur East	691004	Kerala	Kollam
Kizhakkenela	691574	Kerala	Kollam
Kizhakketheruvu	691542	Kerala	Kollam
Koduvila	691502	Kerala	Kollam
Koivila	691590	Kerala	Kollam
Kokkad	691538	Kerala	Kollam
Kollaka	690536	Kerala	Kollam
Kollam	691001	Kerala	Kollam
Kollam Bazar	691001	Kerala	Kollam
Kollam Cantonment	691001	Kerala	Kollam
Kollam Civil station	691013	Kerala	Kollam
Kollam Cutchery	691013	Kerala	Kollam
Kollam Taluk cutchery	691001	Kerala	Kollam
Kollayil	691541	Kerala	Kollam
Koottikada	691020	Kerala	Kollam
Koovakkad	691310	Kerala	Kollam
Kottarakara	691506	Kerala	Kollam
Kottathala	691518	Kerala	Kollam
Kottavattom	691322	Kerala	Kollam
Kottiyam	691571	Kerala	Kollam
Kottukkal	691519	Kerala	Kollam
Kudavattur	691512	Kerala	Kollam
Kulakada	691521	Kerala	Kollam
Kulakkada East	691521	Kerala	Kollam
Kulakkadathazham	691521	Kerala	Kollam
Kulasekharapuram	690544	Kerala	Kollam
Kulathupuzha	691310	Kerala	Kollam
Kumarankudy	689696	Kerala	Kollam
Kumbalam	691503	Kerala	Kollam
Kummallur	691573	Kerala	Kollam
Kummil	691536	Kerala	Kollam
Kundara	691501	Kerala	Kollam
Kundara East	691501	Kerala	Kollam
Kundayam	689695	Kerala	Kollam
Kunnathur East	690540	Kerala	Kollam
Kunnicode	691508	Kerala	Kollam
Kura	691557	Kerala	Kollam
Kureepuzha	691604	Kerala	Kollam
Kuriyode	691534	Kerala	Kollam
Kurumbakara	689695	Kerala	Kollam
Kuthirapanthy	690523	Kerala	Kollam
Kuttikadu	691536	Kerala	Kollam
Kuzhimathicaud	691509	Kerala	Kollam
Kuzhithura	690542	Kerala	Kollam
Madathara	691541	Kerala	Kollam
Madathilkaranma	690525	Kerala	Kollam
Mailode	691537	Kerala	Kollam
Mailom	691560	Kerala	Kollam
Maloor	689695	Kerala	Kollam
Maloor College	689695	Kerala	Kollam
Mampazhathara	691307	Kerala	Kollam
Manalil	691312	Kerala	Kollam
Manampuzha	691553	Kerala	Kollam
Manappally North	690574	Kerala	Kollam
Manchallur Pathanapuram	689695	Kerala	Kollam
Mancode-kadakkal	691559	Kerala	Kollam
Mangad	691015	Kerala	Kollam
Maniyaru-punalur	691333	Kerala	Kollam
Manjakala	691508	Kerala	Kollam
Manjappara	691530	Kerala	Kollam
Mannur-anchal	691311	Kerala	Kollam
Maranad	691505	Kerala	Kollam
Marthandankara	691312	Kerala	Kollam
Maruthadi	691003	Kerala	Kollam
Mathilil	691601	Kerala	Kollam
Mathira	691536	Kerala	Kollam
Mathra	691315	Kerala	Kollam
Mavadi	691507	Kerala	Kollam
Mayyanad	691303	Kerala	Kollam
Meeyana	691510	Kerala	Kollam
Meeyannur	691537	Kerala	Kollam
Melila	691508	Kerala	Kollam
Mukathala	691577	Kerala	Kollam
Mukkoodu	691503	Kerala	Kollam
Mukundapuram	691585	Kerala	Kollam
Mulavana	691503	Kerala	Kollam
Mundakkal	691010	Kerala	Kollam
Munroethuruthu	691502	Kerala	Kollam
Muthupilakkad	690520	Kerala	Kollam
Muttara	691512	Kerala	Kollam
Mylakkadu	691571	Kerala	Kollam
Mynagappally	690519	Kerala	Kollam
Mynagappally North	690519	Kerala	Kollam
Nallila	691515	Kerala	Kollam
Narikal	691326	Kerala	Kollam
Nediyara	691306	Kerala	Kollam
Nedumoncavu	691509	Kerala	Kollam
Nedumpana	691580	Kerala	Kollam
Nedungolam	691334	Kerala	Kollam
Neeleswaram	691506	Kerala	Kollam
Neendakara	691582	Kerala	Kollam
Nellettil	691302	Kerala	Kollam
Nellikunnam	691623	Kerala	Kollam
Nellimukku	691509	Kerala	Kollam
Nellipally	691305	Kerala	Kollam
Nettayam	691537	Kerala	Kollam
Nilamel	691535	Kerala	Kollam
Ochira	690525	Kerala	Kollam
Odanavattom	691512	Kerala	Kollam
Ottackal	691308	Kerala	Kollam
Oyur	691510	Kerala	Kollam
Ozhukkuparackal	691530	Kerala	Kollam
Padappakara	691503	Kerala	Kollam
Padinjattakkara	690524	Kerala	Kollam
Pallickal-kottarakara	691566	Kerala	Kollam
Pallimon	691576	Kerala	Kollam
Pallisserickal	690521	Kerala	Kollam
Pallithottam	691006	Kerala	Kollam
Panavely	691544	Kerala	Kollam
Panayam	691601	Kerala	Kollam
Panmana	691583	Kerala	Kollam
Panmana Puthen chantha	691587	Kerala	Kollam
Panthaplavu	691552	Kerala	Kollam
Paravur	691301	Kerala	Kollam
Parippally	691574	Kerala	Kollam
Pathanapuram	689695	Kerala	Kollam
Patharam	690567	Kerala	Kollam
Pathirickal	689695	Kerala	Kollam
Pattamthuruth	691601	Kerala	Kollam
Pattathanam	691021	Kerala	Kollam
Pattazhy	691552	Kerala	Kollam
Pavithreswaram	691524	Kerala	Kollam
Pavumba	690574	Kerala	Kollam
Perinad	691601	Kerala	Kollam
Perumannur	691545	Kerala	Kollam
Perumkulam	691566	Kerala	Kollam
Perumon	691601	Kerala	Kollam
Perumpuzha	691504	Kerala	Kollam
Perungalam	690538	Kerala	Kollam
Peruvelikara	691500	Kerala	Kollam
Pidavoor	691625	Kerala	Kollam
Piravanthur	689696	Kerala	Kollam
Placherry	691331	Kerala	Kollam
Plappally	691531	Kerala	Kollam
Podiyattuvila	691532	Kerala	Kollam
Polachira	691334	Kerala	Kollam
Ponmana	691583	Kerala	Kollam
Poonkulanji	689695	Kerala	Kollam
Pooyapally	691537	Kerala	Kollam
Poredom	691534	Kerala	Kollam
Poruvazhy	690520	Kerala	Kollam
Pozhikkara	691301	Kerala	Kollam
Prakkulam	691602	Kerala	Kollam
Prayar	690547	Kerala	Kollam
Pulamon	691531	Kerala	Kollam
Pulippara Jn	691536	Kerala	Kollam
Pullichira	691304	Kerala	Kollam
Pullupana	691536	Kerala	Kollam
Punalur	691305	Kerala	Kollam
Punalur Paper mills	691332	Kerala	Kollam
Punnala	689706	Kerala	Kollam
Puthenambalam	691553	Kerala	Kollam
Puthenkulam	691302	Kerala	Kollam
Puthenthura	691588	Kerala	Kollam
Puthukkadukara	691585	Kerala	Kollam
Puthur-kollam	691507	Kerala	Kollam
Rosemala	691309	Kerala	Kollam
S R p market	690539	Kerala	Kollam
S V market	690573	Kerala	Kollam
Sadanandapuram	691550	Kerala	Kollam
Sakthikulangara	691581	Kerala	Kollam
Samnagar	691310	Kerala	Kollam
Sasthamcottah	690521	Kerala	Kollam
Shaliacarry Estate	691305	Kerala	Kollam
Sooranad	690522	Kerala	Kollam
Sooranad North	690561	Kerala	Kollam
T K m college	691005	Kerala	Kollam
Thadicaud	691306	Kerala	Kollam
Thalachira	691546	Kerala	Kollam
Thalavoor	691514	Kerala	Kollam
Thamarakudy	691560	Kerala	Kollam
Thangasserry	691007	Kerala	Kollam
Thattakkattu Market	690547	Kerala	Kollam
Thattamala	691020	Kerala	Kollam
Thattarkonam	691005	Kerala	Kollam
Thazhava	690523	Kerala	Kollam
Thekkevila	691016	Kerala	Kollam
Thekkumbhagom	691016	Kerala	Kollam
Thenmala	691308	Kerala	Kollam
Thevalakkara	690524	Kerala	Kollam
Thevalappuram	691507	Kerala	Kollam
Thevally	691009	Kerala	Kollam
Thevannur	691530	Kerala	Kollam
Thingalkarikom	691310	Kerala	Kollam
Thirumullavaram	691012	Kerala	Kollam
Thodiyur	690568	Kerala	Kollam
Thodiyur North	690523	Kerala	Kollam
Tholicode	691333	Kerala	Kollam
Thottumugham	690519	Kerala	Kollam
Thrioppilazhikom	691509	Kerala	Kollam
Thudayannur	691536	Kerala	Kollam
Thuruthikara	690540	Kerala	Kollam
Uliyakovil	691019	Kerala	Kollam
Umayanallur I e	691589	Kerala	Kollam
Ummannur	691547	Kerala	Kollam
Urukunnu	691329	Kerala	Kollam
Vadakkevila	691010	Kerala	Kollam
Vadakkumbhagom	691584	Kerala	Kollam
Vadakkumthala East	690536	Kerala	Kollam
Vadamon	691306	Kerala	Kollam
Vakkanad	691509	Kerala	Kollam
Valacode	691331	Kerala	Kollam
Valakom	691532	Kerala	Kollam
Valathungal	691018	Kerala	Kollam
Valavupacha	691559	Kerala	Kollam
Valiyode	691520	Kerala	Kollam
Varavila	690528	Kerala	Kollam
Vattathamara	691536	Kerala	Kollam
Vavvakkavu	690528	Kerala	Kollam
Vayakkal	691548	Kerala	Kollam
Vayala-anchal	691306	Kerala	Kollam
Vayyanam	691530	Kerala	Kollam
Velamannoor	691574	Kerala	Kollam
Velichikala	691573	Kerala	Kollam
Veliyam	691540	Kerala	Kollam
Veliyam West	691540	Kerala	Kollam
Vellimon	691511	Kerala	Kollam
Vellimon West	691511	Kerala	Kollam
Venchembu	691333	Kerala	Kollam
Vendar	691507	Kerala	Kollam
Venga	690569	Kerala	Kollam
Vengoor	691530	Kerala	Kollam
Venkolla	691541	Kerala	Kollam
Venture	691309	Kerala	Kollam
Vettikavala	691538	Kerala	Kollam
Vettithitta	689696	Kerala	Kollam
Vilakkupara	691312	Kerala	Kollam
Vilakkuvattom	691305	Kerala	Kollam
Vilakudy	691508	Kerala	Kollam
Vilanthara Jn	690521	Kerala	Kollam
Vilavoorkonam	691578	Kerala	Kollam
Villumala	691310	Kerala	Kollam
West Kallada	691500	Kerala	Kollam
Adivaram	686582	Kerala	Kottayam
Adukkam	686580	Kerala	Kottayam
Akkarapadom	686143	Kerala	Kottayam
Alanad	686651	Kerala	Kottayam
Alapra	686101	Kerala	Kottayam
Amalagiri	686036	Kerala	Kottayam
Amanakara	686576	Kerala	Kottayam
Amara	686546	Kerala	Kottayam
Amayannur	686025	Kerala	Kottayam
Ambika Market	686144	Kerala	Kottayam
Ampara Nirappel	686578	Kerala	Kottayam
Anakkal	686508	Kerala	Kottayam
Anikad	686503	Kerala	Kottayam
Anikad East	686503	Kerala	Kottayam
Anikad West	686503	Kerala	Kottayam
Anjoottimangalam	686579	Kerala	Kottayam
Anthinad	686651	Kerala	Kottayam
Areeparampu	686501	Kerala	Kottayam
Arpookara East	686008	Kerala	Kottayam
Arumanur	686568	Kerala	Kottayam
Arunapuram	686574	Kerala	Kottayam
Arunoottimangalam	686604	Kerala	Kottayam
Aruvikuzhy	686503	Kerala	Kottayam
Aruvithura	686122	Kerala	Kottayam
Athirampuzha	686562	Kerala	Kottayam
Ayamkudy	686613	Kerala	Kottayam
Ayarkunnam	686564	Kerala	Kottayam
Aymanam	686015	Kerala	Kottayam
Ayyarkulangara	686142	Kerala	Kottayam
Bharananganam	686578	Kerala	Kottayam
Brahmamangalam	686614	Kerala	Kottayam
Chakkampuzha	686574	Kerala	Kottayam
Chakompathal	686517	Kerala	Kottayam
Chamakala	686603	Kerala	Kottayam
Champakara	686540	Kerala	Kottayam
Changanacherry	686101	Kerala	Kottayam
Changanacherry College	686101	Kerala	Kottayam
Changanacherry Industrialnagar	686106	Kerala	Kottayam
Changanacherry Market	686101	Kerala	Kottayam
Channanikadu	686533	Kerala	Kottayam
Cheepunkal	686563	Kerala	Kottayam
Cheeranchira	686106	Kerala	Kottayam
Chelacompu	686540	Kerala	Kottayam
Chemmalamattom	686508	Kerala	Kottayam
Chemmanathukara	686606	Kerala	Kottayam
Chempilavu	686584	Kerala	Kottayam
Chempu	686615	Kerala	Kottayam
Chenappady	686520	Kerala	Kottayam
Chengalam	686585	Kerala	Kottayam
Chengalam South	686022	Kerala	Kottayam
Chennad	686581	Kerala	Kottayam
Chennakunnu	686506	Kerala	Kottayam
Cherpunkal	686584	Kerala	Kottayam
Cheruvally	686543	Kerala	Kottayam
Chettuthode	686508	Kerala	Kottayam
Chingavanam	686531	Kerala	Kottayam
Chirakadavu	686520	Kerala	Kottayam
Chirakadavu Centre	686519	Kerala	Kottayam
Chirakadavu East	686520	Kerala	Kottayam
Chittadi	686512	Kerala	Kottayam
Cholathadom	686582	Kerala	Kottayam
Choondacherry	686579	Kerala	Kottayam
Chovvur	686586	Kerala	Kottayam
Devagiri	686555	Kerala	Kottayam
Devalokam	686038	Kerala	Kottayam
Edakadathy	686510	Kerala	Kottayam
Edakkunnam	686512	Kerala	Kottayam
Edamaruku	686652	Kerala	Kottayam
Edanad	686574	Kerala	Kottayam
Edappady	686578	Kerala	Kottayam
Edavattom	686605	Kerala	Kottayam
Edayarickapuzha	686541	Kerala	Kottayam
Elakad	686587	Kerala	Kottayam
Elamkadu	686514	Kerala	Kottayam
Elampally	686503	Kerala	Kottayam
Elikulam	686577	Kerala	Kottayam
Enadi	686608	Kerala	Kottayam
Erathuvadakara	686543	Kerala	Kottayam
Erattupetta	686121	Kerala	Kottayam
Eravimangalam	686613	Kerala	Kottayam
Eravinalloor	686011	Kerala	Kottayam
Eravuchira	686539	Kerala	Kottayam
Erumapramattom	686586	Kerala	Kottayam
Erumely	686509	Kerala	Kottayam
Ettumanur	686631	Kerala	Kottayam
Ettumanur Junction	686631	Kerala	Kottayam
Ezhacherry	686651	Kerala	Kottayam
Ezhumanthuruth	686613	Kerala	Kottayam
Fathimapuram	686102	Kerala	Kottayam
Gandhi Nagar	686008	Kerala	Kottayam
Idamattom	686588	Kerala	Kottayam
Idiyanal	686576	Kerala	Kottayam
Inchiyani	686512	Kerala	Kottayam
Irumpayam	686605	Kerala	Kottayam
Ithithanam	686535	Kerala	Kottayam
Kadanad Meenachil	686653	Kerala	Kottayam
Kadaplamattom	686571	Kerala	Kottayam
Kadappattoor	686574	Kerala	Kottayam
Kadayanickad	686550	Kerala	Kottayam
Kaduthuruthy	686604	Kerala	Kottayam
Kaipally	686582	Kerala	Kottayam
Kaipuzha	686602	Kerala	Kottayam
Kalaketty	686508	Kerala	Kottayam
Kalathoor	686632	Kerala	Kottayam
Kalathukadavu	686579	Kerala	Kottayam
Kallara	686611	Kerala	Kottayam
Kallara South	686611	Kerala	Kottayam
Kalloorkulam	686503	Kerala	Kottayam
Kanakapalam	686509	Kerala	Kottayam
Kanakari	686632	Kerala	Kottayam
Kanam	686515	Kerala	Kottayam
Kanamala	686510	Kerala	Kottayam
Kangazha	686541	Kerala	Kottayam
Kanjiram	686030	Kerala	Kottayam
Kanjiramattom	686585	Kerala	Kottayam
Kanjirapally	686507	Kerala	Kottayam
Kanjirapally West	686506	Kerala	Kottayam
Kanjirappara	686555	Kerala	Kottayam
Kanjirathanam	686603	Kerala	Kottayam
Kannimala	686509	Kerala	Kottayam
Kappadu	686508	Kerala	Kottayam
Kappumthala	686613	Kerala	Kottayam
Karikkattoor	686101	Kerala	Kottayam
Karikkattoor Centre	686101	Kerala	Kottayam
Karikode	686610	Kerala	Kottayam
Karimpani	686564	Kerala	Kottayam
Karinilam	686513	Kerala	Kottayam
Karipadom	686605	Kerala	Kottayam
Karukachal	686540	Kerala	Kottayam
Kattachira	686572	Kerala	Kottayam
Kattampack	686612	Kerala	Kottayam
Kavumbhagom	686519	Kerala	Kottayam
Kayyoor	686651	Kerala	Kottayam
Keezhoor	686605	Kerala	Kottayam
Kezhuvankulam	686584	Kerala	Kottayam
Kidangoor	686572	Kerala	Kottayam
Kidangoor South	686583	Kerala	Kottayam
Kiliroor North	686020	Kerala	Kottayam
Kizhakkenmattom	686652	Kerala	Kottayam
Kizhaparayar	686578	Kerala	Kottayam
Kizhathadiyur	686574	Kerala	Kottayam
Kizhathiri	686576	Kerala	Kottayam
Kodumpidi	686651	Kerala	Kottayam
Kollad	686029	Kerala	Kottayam
Kongandoor	686564	Kerala	Kottayam
Konipad	686652	Kerala	Kottayam
Koodapalam	686576	Kerala	Kottayam
Koorali	686522	Kerala	Kottayam
Kooropada	686502	Kerala	Kottayam
Koothrappally	686540	Kerala	Kottayam
Koottickal	686514	Kerala	Kottayam
Koovapally	686518	Kerala	Kottayam
Koruthode	686513	Kerala	Kottayam
Kothala	686502	Kerala	Kottayam
Kothanallur	686632	Kerala	Kottayam
Kothavara	686607	Kerala	Kottayam
Kottakkapuram	686631	Kerala	Kottayam
Kottamuri	686105	Kerala	Kottayam
Kottayam	686001	Kerala	Kottayam
Kottayam Collectorate	686002	Kerala	Kottayam
Kottayam North	686001	Kerala	Kottayam
Kottayam South	686039	Kerala	Kottayam
Kottayam West	686003	Kerala	Kottayam
Kozha	686640	Kerala	Kottayam
Kozhuvanal	686523	Kerala	Kottayam
Kudakkachira	686635	Kerala	Kottayam
Kudalloor	686595	Kerala	Kottayam
Kudamaloor	686017	Kerala	Kottayam
Kudavechoor	686144	Kerala	Kottayam
Kulasekharamangalam	686608	Kerala	Kottayam
Kulathoorprayar	686541	Kerala	Kottayam
Kumarakom	686563	Kerala	Kottayam
Kumarakom East	686563	Kerala	Kottayam
Kumarakom North	686566	Kerala	Kottayam
Kumarakom South	686563	Kerala	Kottayam
Kumaranalloor	686016	Kerala	Kottayam
Kummanam	686035	Kerala	Kottayam
Kummannoor	686572	Kerala	Kottayam
Kunnam	686582	Kerala	Kottayam
Kuravilangadu	686632	Kerala	Kottayam
Kurianad	686636	Kerala	Kottayam
Kurichithanam	686634	Kerala	Kottayam
Kurichy	686549	Kerala	Kottayam
Kurinji	686576	Kerala	Kottayam
Kurisummoodu	686104	Kerala	Kottayam
Kurumannu	686651	Kerala	Kottayam
Kurumpanadom	686536	Kerala	Kottayam
Kurumulloor	686632	Kerala	Kottayam
Kuruppamthara	686603	Kerala	Kottayam
Kuruvammoozhy	686509	Kerala	Kottayam
Kuzhimattom	686533	Kerala	Kottayam
Lakkattoor	686502	Kerala	Kottayam
Madappally	686546	Kerala	Kottayam
Madukka	686513	Kerala	Kottayam
Madukkakunuu	686577	Kerala	Kottayam
Malakunnam	686552	Kerala	Kottayam
Malam	686019	Kerala	Kottayam
Mallikasery	686577	Kerala	Kottayam
Malloossery	686041	Kerala	Kottayam
Mammoodu	686553	Kerala	Kottayam
Manalunkal	686503	Kerala	Kottayam
Manarcaudu	686019	Kerala	Kottayam
Manganam	686018	Kerala	Kottayam
Manimala	686543	Kerala	Kottayam
Manjoor	686603	Kerala	Kottayam
Manjoor South	686603	Kerala	Kottayam
Mannackanad	686632	Kerala	Kottayam
Mannanam	686561	Kerala	Kottayam
Mannarakayam	686506	Kerala	Kottayam
Manthuruthy	686542	Kerala	Kottayam
Marangattupally	686635	Kerala	Kottayam
Marangoli	686612	Kerala	Kottayam
Maravanthuruthu	686608	Kerala	Kottayam
Mariappally	686023	Kerala	Kottayam
Mariathuruthu	686027	Kerala	Kottayam
Mary Land	686652	Kerala	Kottayam
Mattakkara	686564	Kerala	Kottayam
Mattathipara	686651	Kerala	Kottayam
Mechal	686586	Kerala	Kottayam
Mediri	686576	Kerala	Kottayam
Meenachil	686589	Kerala	Kottayam
Meenadom	686516	Kerala	Kottayam
Melampara	686594	Kerala	Kottayam
Melukavu	686652	Kerala	Kottayam
Melukavumattom	686652	Kerala	Kottayam
Memuri	686617	Kerala	Kottayam
Mevada	686620	Kerala	Kottayam
Mevelloor	686609	Kerala	Kottayam
Midayikunnu	686605	Kerala	Kottayam
Monippally	686636	Kerala	Kottayam
Moolavattom	686026	Kerala	Kottayam
Moonnilavu	686586	Kerala	Kottayam
Moozhikulangara	686601	Kerala	Kottayam
Moozhoor	686503	Kerala	Kottayam
Mukkada	686101	Kerala	Kottayam
Mukkoottuthara	686510	Kerala	Kottayam
Mulakulam South	686610	Kerala	Kottayam
Mundakayam	686513	Kerala	Kottayam
Mundankal	686574	Kerala	Kottayam
Mundathanam	686541	Kerala	Kottayam
Mutholi	686597	Kerala	Kottayam
Muttambalam	686004	Kerala	Kottayam
Muttappally	686510	Kerala	Kottayam
Muttuchira	686613	Kerala	Kottayam
Nadackal	686124	Kerala	Kottayam
Nalukody	686548	Kerala	Kottayam
Nalunnackal	686538	Kerala	Kottayam
Nariayanganam	686579	Kerala	Kottayam
Nariyanani	686506	Kerala	Kottayam
Nattakom	686013	Kerala	Kottayam
Nattassery S h mount	686006	Kerala	Kottayam
Nazreth Hill	686632	Kerala	Kottayam
Nechipuzhoor	686574	Kerala	Kottayam
Nedumanny	686542	Kerala	Kottayam
Nedumkunnam	686542	Kerala	Kottayam
Nedungadappally	686545	Kerala	Kottayam
Neeloor	686651	Kerala	Kottayam
Neendoor	686601	Kerala	Kottayam
Neerikkad	686564	Kerala	Kottayam
Newsprint Nagar	686616	Kerala	Kottayam
Njandupara	686577	Kerala	Kottayam
Njizhoor	686612	Kerala	Kottayam
Olessa	686014	Kerala	Kottayam
Onamthuruthu	686602	Kerala	Kottayam
Ozhavur	686634	Kerala	Kottayam
Ozhavur East	686634	Kerala	Kottayam
Padinjarekkara	686146	Kerala	Kottayam
Padinjattinkara	686571	Kerala	Kottayam
Paduva	686564	Kerala	Kottayam
Pakalomattom	686642	Kerala	Kottayam
Pakkil	686012	Kerala	Kottayam
Pala Town	686575	Kerala	Kottayam
Palai	686575	Kerala	Kottayam
Palai Market junction	686575	Kerala	Kottayam
Palakkattumala	686635	Kerala	Kottayam
Palampra	686518	Kerala	Kottayam
Pallickachirakavala	686537	Kerala	Kottayam
Pallippurathussery	686606	Kerala	Kottayam
Pallom	686007	Kerala	Kottayam
Pampady	686502	Kerala	Kottayam
Pampady South	686521	Kerala	Kottayam
Pampavally North	686510	Kerala	Kottayam
Panachepally	686518	Kerala	Kottayam
Panachikavu	686102	Kerala	Kottayam
Panamattom	686522	Kerala	Kottayam
Pangada	686502	Kerala	Kottayam
Parampuzha	686032	Kerala	Kottayam
Parathanam	686514	Kerala	Kottayam
Parathode	686512	Kerala	Kottayam
Parippu	686024	Kerala	Kottayam
Pariyaram	686021	Kerala	Kottayam
Pathampuzha	686600	Kerala	Kottayam
Pathamuttom	686532	Kerala	Kottayam
Pattithanam	686631	Kerala	Kottayam
Payyappady	686034	Kerala	Kottayam
Payyappar	686651	Kerala	Kottayam
Pazhayidom	686520	Kerala	Kottayam
Peringalam	686582	Kerala	Kottayam
Peroor	686637	Kerala	Kottayam
Perumbaikkad	686016	Kerala	Kottayam
Perumpanachy	686536	Kerala	Kottayam
Perumthuruth	686611	Kerala	Kottayam
Perunna	686102	Kerala	Kottayam
Peruva	686610	Kerala	Kottayam
Pious Mount	686636	Kerala	Kottayam
Pizhaku	686655	Kerala	Kottayam
Plassanal	686579	Kerala	Kottayam
Ponand-karur	686574	Kerala	Kottayam
Ponganthanam	686538	Kerala	Kottayam
Ponkunnam	686506	Kerala	Kottayam
Ponkunnam Court	686506	Kerala	Kottayam
Ponthenpuzha	686101	Kerala	Kottayam
Poonjar	686581	Kerala	Kottayam
Poonjar Thekkekara	686582	Kerala	Kottayam
Poothakuzhy	686521	Kerala	Kottayam
Poovarani	686577	Kerala	Kottayam
Poovathode	686578	Kerala	Kottayam
Poovatholi	686101	Kerala	Kottayam
Poozhikole	686604	Kerala	Kottayam
Pothenpuram	686502	Kerala	Kottayam
Pravithanam	686651	Kerala	Kottayam
Priyadarsini Hills	686560	Kerala	Kottayam
Prpose	686509	Kerala	Kottayam
Pulickakavala	686515	Kerala	Kottayam
Pulikkallu	686101	Kerala	Kottayam
Pulikkuttissery	686015	Kerala	Kottayam
Puliyannoor	686573	Kerala	Kottayam
Punchavayal	686513	Kerala	Kottayam
Punnathura	686583	Kerala	Kottayam
Punnathura West	686631	Kerala	Kottayam
Puthenchantha	686538	Kerala	Kottayam
Puthupalli	686011	Kerala	Kottayam
Puthuvely	686641	Kerala	Kottayam
Rajendraprasad Colony	686513	Kerala	Kottayam
Ramapuram	686591	Kerala	Kottayam
Ramapuram Bazar	686576	Kerala	Kottayam
Rubber Board	686009	Kerala	Kottayam
Ruby Nagar	686103	Kerala	Kottayam
Sachivothamapuram	686532	Kerala	Kottayam
Santhipuram	686545	Kerala	Kottayam
Sreekantamangalam	686562	Kerala	Kottayam
Suryanarayana Puram	686502	Kerala	Kottayam
Teekoy	686580	Kerala	Kottayam
Thalanad	686580	Kerala	Kottayam
Thalayazham	686607	Kerala	Kottayam
Thalayolaparambu	686605	Kerala	Kottayam
Thalumkal	686514	Kerala	Kottayam
Thampalakkad	686506	Kerala	Kottayam
Thazhathangady	686005	Kerala	Kottayam
Thazhathuvadakara	686541	Kerala	Kottayam
Theerthapadapuram	686505	Kerala	Kottayam
Thekkethukavala	686519	Kerala	Kottayam
Thellakom	686016	Kerala	Kottayam
Thidanad	686123	Kerala	Kottayam
Thirumani Venkita puram	686606	Kerala	Kottayam
Thirunakkara	686001	Kerala	Kottayam
Thiruvanchoor	686037	Kerala	Kottayam
Thiruvanpady	686612	Kerala	Kottayam
Thiruvarppu	686033	Kerala	Kottayam
Thodanal	686573	Kerala	Kottayam
Thottackad West	686539	Kerala	Kottayam
Thottakadu	686539	Kerala	Kottayam
Thottakom	686145	Kerala	Kottayam
Thrickodithanam	686105	Kerala	Kottayam
Thrikothamangalam	686011	Kerala	Kottayam
Thuruthy	686535	Kerala	Kottayam
Udayanapuram	686143	Kerala	Kottayam
Ullanad	686651	Kerala	Kottayam
Umbidi	686539	Kerala	Kottayam
Urakkanadu	686512	Kerala	Kottayam
Vadakara - thalayolaparabu	686605	Kerala	Kottayam
Vadakkenirappu	686612	Kerala	Kottayam
Vadavathoor	686010	Kerala	Kottayam
Vadayar	686605	Kerala	Kottayam
Vaikaprayar	686142	Kerala	Kottayam
Vaikom	686141	Kerala	Kottayam
Vaikom Thekkenada	686142	Kerala	Kottayam
Vakad	686636	Kerala	Kottayam
Vakathanam	686538	Kerala	Kottayam
Vakathanam South	686538	Kerala	Kottayam
Valavoor	686635	Kerala	Kottayam
Vallichira	686592	Kerala	Kottayam
Vanchimala	686508	Kerala	Kottayam
Vattakunnu	686516	Kerala	Kottayam
Vattukulam	686596	Kerala	Kottayam
Vayala	686587	Kerala	Kottayam
Vazhappally West	686103	Kerala	Kottayam
Vazhoor	686504	Kerala	Kottayam
Vazhoor East	686504	Kerala	Kottayam
Vechoor	686144	Kerala	Kottayam
Velanilam	686514	Kerala	Kottayam
Velathusseri	686580	Kerala	Kottayam
Veliyannoor	686638	Kerala	Kottayam
Vellavoor	686541	Kerala	Kottayam
Velliappally	686574	Kerala	Kottayam
Vellikulam	686580	Kerala	Kottayam
Velloor	686501	Kerala	Kottayam
Veloor	686003	Kerala	Kottayam
Vempally	686632	Kerala	Kottayam
Vengathanam	686512	Kerala	Kottayam
Venkurinji	686510	Kerala	Kottayam
Veroor	686104	Kerala	Kottayam
Vettimukal	686631	Kerala	Kottayam
Villoonni	686008	Kerala	Kottayam
Vizhikithode	686518	Kerala	Kottayam
Yendayar	686514	Kerala	Kottayam
Abhayagiri	673517	Kerala	Kozhikode
Adivaram Pudupadi	673586	Kerala	Kozhikode
Adukkath	673508	Kerala	Kozhikode
Akkal	673513	Kerala	Kozhikode
Alli	673602	Kerala	Kozhikode
Anakampoyil	673603	Kerala	Kozhikode
Annasseri	673317	Kerala	Kozhikode
Arakinar	673028	Kerala	Kozhikode
Arikulam	673620	Kerala	Kozhikode
Arur	673507	Kerala	Kozhikode
Athiyodi	673527	Kerala	Kozhikode
Atholi	673315	Kerala	Kozhikode
Avadukka	673528	Kerala	Kozhikode
Avala	673524	Kerala	Kozhikode
Avilora	673572	Kerala	Kozhikode
Avitanallur	673618	Kerala	Kozhikode
Ayancheri	673544	Kerala	Kozhikode
Ayanikkad	673521	Kerala	Kozhikode
Azhiyur	673309	Kerala	Kozhikode
Balusseri	673612	Kerala	Kozhikode
Beypore	673015	Kerala	Kozhikode
Beypore North	673015	Kerala	Kozhikode
Bhumivathukkal	673517	Kerala	Kozhikode
Calicut	673001	Kerala	Kozhikode
Calicut Arts & science college	673018	Kerala	Kozhikode
Calicut Beach	673032	Kerala	Kozhikode
Calicut City	673001	Kerala	Kozhikode
Calicut Civil station	673020	Kerala	Kozhikode
Calicut Collectorate	673020	Kerala	Kozhikode
Calicut Courts	673032	Kerala	Kozhikode
Calicut Medical college	673008	Kerala	Kozhikode
Calicut R.s.	673001	Kerala	Kozhikode
Chakkittapara	673526	Kerala	Kozhikode
Chalapuram	673002	Kerala	Kozhikode
Chaliyam	673301	Kerala	Kozhikode
Chamal	673573	Kerala	Kozhikode
Chaniyankadavu	673541	Kerala	Kozhikode
Chappanthottam	673513	Kerala	Kozhikode
Chathamangalam	673601	Kerala	Kozhikode
Chathangottunada	673513	Kerala	Kozhikode
Cheekilode	673315	Kerala	Kozhikode
Cheekkonnummal	673511	Kerala	Kozhikode
Cheekonnummal west	673507	Kerala	Kozhikode
Chekkiyad	673509	Kerala	Kozhikode
Chelakkad	673506	Kerala	Kozhikode
Chelannur	673616	Kerala	Kozhikode
Chelavur	673571	Kerala	Kozhikode
Cheliya	673306	Kerala	Kozhikode
Chemancheri	673304	Kerala	Kozhikode
Chembra	673577	Kerala	Kozhikode
Chembu Kadavu	673580	Kerala	Kozhikode
Chemmarathur	673104	Kerala	Kozhikode
Chempanoda	673528	Kerala	Kozhikode
Chengaroth	673528	Kerala	Kozhikode
Chennamangallur	673602	Kerala	Kozhikode
Chenoli	673525	Kerala	Kozhikode
Cherandathur	673541	Kerala	Kozhikode
Cherapuram	673512	Kerala	Kozhikode
Cherooppa	673661	Kerala	Kozhikode
Cherukad	673527	Kerala	Kozhikode
Cherukulathur	673008	Kerala	Kozhikode
Cherumoth	673517	Kerala	Kozhikode
Cheruvadi	673661	Kerala	Kozhikode
Cheruvannur	673655	Kerala	Kozhikode
Cheruvannur Meladi	673524	Kerala	Kozhikode
Chevarambalam	673017	Kerala	Kozhikode
Chevayur	673017	Kerala	Kozhikode
Chingapuram	673529	Kerala	Kozhikode
Chombala	673308	Kerala	Kozhikode
Chorode	673106	Kerala	Kozhikode
Chorode East	673106	Kerala	Kozhikode
Chulur	673601	Kerala	Kozhikode
Chuzhali	673517	Kerala	Kozhikode
Devagiri College	673008	Kerala	Kozhikode
East Hill	673005	Kerala	Kozhikode
Edacheri	673502	Kerala	Kozhikode
Edacheri North	673520	Kerala	Kozhikode
Edakkad - west hill	673005	Kerala	Kozhikode
Edakkara - quilandy	673616	Kerala	Kozhikode
Edakulam koyilandi	673306	Kerala	Kozhikode
Edavarad	673525	Kerala	Kozhikode
Ekarool	673574	Kerala	Kozhikode
Elathur	673303	Kerala	Kozhikode
Elettil	673572	Kerala	Kozhikode
Emmamparamba	673574	Kerala	Kozhikode
Eramala	673501	Kerala	Kozhikode
Eramangalam	673612	Kerala	Kozhikode
Eranhikkal	673303	Kerala	Kozhikode
Eranhipalam	673006	Kerala	Kozhikode
Eravannur	673585	Kerala	Kozhikode
Eravattur	673525	Kerala	Kozhikode
Farook College	673632	Kerala	Kozhikode
Feroke	673631	Kerala	Kozhikode
Feroke Pettah	673631	Kerala	Kozhikode
Govinda Puram	673016	Kerala	Kozhikode
Guruvayurappan College	673014	Kerala	Kozhikode
Iim Kozhikode campus	673570	Kerala	Kozhikode
Indira Nagar	673506	Kerala	Kozhikode
Iringal	673521	Kerala	Kozhikode
Iringallur	673014	Kerala	Kozhikode
Iringannur	673514	Kerala	Kozhikode
Iringath	673523	Kerala	Kozhikode
Irivallur	673616	Kerala	Kozhikode
Iyyad	673574	Kerala	Kozhikode
Iyyangode	673504	Kerala	Kozhikode
Kabanigiri	673579	Kerala	Kozhikode
Kadalundi	673302	Kerala	Kozhikode
Kadiyangad	673525	Kerala	Kozhikode
Kakkad Pudupadi	673586	Kerala	Kozhikode
Kakkancheri	673620	Kerala	Kozhikode
Kakkatampoyil	673604	Kerala	Kozhikode
Kakkattil	673507	Kerala	Kozhikode
Kakkayam	673615	Kerala	Kozhikode
Kakkoti	673611	Kerala	Kozhikode
Kakkur	673619	Kerala	Kozhikode
Kallachi	673506	Kerala	Kozhikode
Kallai-kozhikode	673003	Kerala	Kozhikode
Kallanode	673615	Kerala	Kozhikode
Kallunira	673517	Kerala	Kozhikode
Kallurutty	673603	Kerala	Kozhikode
Kalpathur	673524	Kerala	Kozhikode
Kannadipoil	673612	Kerala	Kozhikode
Kannan Kara	673616	Kerala	Kozhikode
Kannancheri	673003	Kerala	Kozhikode
Kanni Paramba	673661	Kerala	Kozhikode
Kannookkara	673102	Kerala	Kozhikode
Kannoth	673580	Kerala	Kozhikode
Kappad	673304	Kerala	Kozhikode
Karad Paramba	673632	Kerala	Kozhikode
Karandode	673508	Kerala	Kozhikode
Karanthur	673571	Kerala	Kozhikode
Karaparamba	673010	Kerala	Kozhikode
Karasseri	673602	Kerala	Kozhikode
Karayad	673524	Kerala	Kozhikode
Karingad	673513	Kerala	Kozhikode
Kariyathankavu	673612	Kerala	Kozhikode
Karthikappally	673542	Kerala	Kozhikode
Karumala	673612	Kerala	Kozhikode
Karuvampoyil	673572	Kerala	Kozhikode
Karuvannur	673614	Kerala	Kozhikode
Karuvanthuruthy	673643	Kerala	Kozhikode
Karuvasseri	673010	Kerala	Kozhikode
Katalur	673529	Kerala	Kozhikode
Katameri	673542	Kerala	Kozhikode
Katcheri	673502	Kerala	Kozhikode
Kattippara	673573	Kerala	Kozhikode
Kavil	673614	Kerala	Kozhikode
Kavilampara	673513	Kerala	Kozhikode
Kayakodi	673519	Kerala	Kozhikode
Kayal	673661	Kerala	Kozhikode
Kayanna	673526	Kerala	Kozhikode
Kayanna Bazar	673525	Kerala	Kozhikode
Kayappanichi	673505	Kerala	Kozhikode
Keezhariyur	673307	Kerala	Kozhikode
Keezhil	673104	Kerala	Kozhikode
Kilakkoth	673572	Kerala	Kozhikode
Kilinnanyam	673525	Kerala	Kozhikode
Kilur Meladi	673522	Kerala	Kozhikode
Kinalur	673621	Kerala	Kozhikode
Kizhakkumuri	673611	Kerala	Kozhikode
Kizhpayur	673524	Kerala	Kozhikode
Kodiyathur	673602	Kerala	Kozhikode
Kodiyura	673515	Kerala	Kozhikode
Kokkallur	673612	Kerala	Kozhikode
Kolakkad	673315	Kerala	Kozhikode
Kolathara	673655	Kerala	Kozhikode
Kolathur	673315	Kerala	Kozhikode
Kollam	673307	Kerala	Kozhikode
Kommeri	673007	Kerala	Kozhikode
Kongannur	673315	Kerala	Kozhikode
Konott	673571	Kerala	Kozhikode
Koombara	673604	Kerala	Kozhikode
Koombara Bazar	673604	Kerala	Kozhikode
Koothali	673532	Kerala	Kozhikode
Korothroad	673309	Kerala	Kozhikode
Kotancheri	673503	Kerala	Kozhikode
Kotancheri-tamaracheri	673580	Kerala	Kozhikode
Kottakkal-igl	673521	Kerala	Kozhikode
Kottamparamba	673008	Kerala	Kozhikode
Kottappalli	673542	Kerala	Kozhikode
Kottuli	673016	Kerala	Kozhikode
Kottur	673614	Kerala	Kozhikode
Kotuvalli	673572	Kerala	Kozhikode
Koyilandi	673305	Kerala	Kozhikode
Kozhukkallur	673524	Kerala	Kozhikode
Kudathai	673573	Kerala	Kozhikode
Kudathai Bazar	673573	Kerala	Kozhikode
Kuliramutty	673604	Kerala	Kozhikode
Kumaranellur	673602	Kerala	Kozhikode
Kundungal	673003	Kerala	Kozhikode
Kunduthode	673513	Kerala	Kozhikode
Kuningad	673503	Kerala	Kozhikode
Kunnamangalam	673571	Kerala	Kozhikode
Kunnamangalam Mini industrial	673571	Kerala	Kozhikode
Kunnathara	673327	Kerala	Kozhikode
Kunnummakkara	673308	Kerala	Kozhikode
Kuppayakode	673580	Kerala	Kozhikode
Kurichagam	673508	Kerala	Kozhikode
Kurikkilad	673104	Kerala	Kozhikode
Kurinhaliyode	673542	Kerala	Kozhikode
Kuruvangad	673620	Kerala	Kozhikode
Kuruvattur	673611	Kerala	Kozhikode
Kutaranni	673604	Kerala	Kozhikode
Kuthiravattom	673016	Kerala	Kozhikode
Kuttiadi	673508	Kerala	Kozhikode
Kuttikkattur	673008	Kerala	Kozhikode
Kuttoth	673524	Kerala	Kozhikode
Kythapoyil	673023	Kerala	Kozhikode
Madappalli College	673102	Kerala	Kozhikode
Madavoor	673583	Kerala	Kozhikode
Mahe	673310	Kerala	Kozhikode
Maikavu	673573	Kerala	Kozhikode
Mailellampara	673586	Kerala	Kozhikode
Makkada	673617	Kerala	Kozhikode
Malaparamba	673009	Kerala	Kozhikode
Malayamma	673601	Kerala	Kozhikode
Manasseri	673602	Kerala	Kozhikode
Mandarathur	673105	Kerala	Kozhikode
Mangad	673574	Kerala	Kozhikode
Manha Kadavu	673604	Kerala	Kozhikode
Manipuram	673534	Kerala	Kozhikode
Maniyur	673523	Kerala	Kozhikode
Mankavu	673007	Kerala	Kozhikode
Mannankavu	673614	Kerala	Kozhikode
Mannur	673328	Kerala	Kozhikode
Marikunnu	673012	Kerala	Kozhikode
Marudonkara	673513	Kerala	Kozhikode
Mattanode	673527	Kerala	Kozhikode
Mavoor	673661	Kerala	Kozhikode
Mayanad	673008	Kerala	Kozhikode
Mayyannur	673107	Kerala	Kozhikode
Meemutty	673580	Kerala	Kozhikode
Meladi	673522	Kerala	Kozhikode
Melur	673306	Kerala	Kozhikode
Memunda	673104	Kerala	Kozhikode
Mennaniam	673525	Kerala	Kozhikode
Meppayil	673109	Kerala	Kozhikode
Meppayur	673524	Kerala	Kozhikode
Modakkallur	673321	Kerala	Kozhikode
Moilothara	673513	Kerala	Kozhikode
Mokeri Nadapuram	673516	Kerala	Kozhikode
Mokkam	673602	Kerala	Kozhikode
Moolad	673614	Kerala	Kozhikode
Morikkara	673611	Kerala	Kozhikode
Muchukunnu	673307	Kerala	Kozhikode
Mudadi	673325	Kerala	Kozhikode
Mudadi North	673307	Kerala	Kozhikode
Mudavantheri	673505	Kerala	Kozhikode
Mullambath	673507	Kerala	Kozhikode
Mundur -- kozhikode	673580	Kerala	Kozhikode
Murampathy	673580	Kerala	Kozhikode
Muthappan Puzha	673603	Kerala	Kozhikode
Muthukad	673528	Kerala	Kozhikode
Muthuuvana	673523	Kerala	Kozhikode
Muthuvadathur	673503	Kerala	Kozhikode
Muthuvannacha	673508	Kerala	Kozhikode
Muttancheri	673585	Kerala	Kozhikode
Muttungal	673110	Kerala	Kozhikode
Muttungal West	673106	Kerala	Kozhikode
Muyipoth	673524	Kerala	Kozhikode
Mysore Mala	673602	Kerala	Kozhikode
Nadakavu	673011	Kerala	Kozhikode
Nadakkuthala	673112	Kerala	Kozhikode
Nadapuram	673504	Kerala	Kozhikode
Naderi	673326	Kerala	Kozhikode
Naduvannur	673614	Kerala	Kozhikode
Naduvathur	673620	Kerala	Kozhikode
Nallalam	673027	Kerala	Kozhikode
Nanminda	673613	Kerala	Kozhikode
Narikkuni	673585	Kerala	Kozhikode
Naripetta	673506	Kerala	Kozhikode
Nayar Kuzhi	673601	Kerala	Kozhikode
Nedumparamba	673506	Kerala	Kozhikode
Nedungottur	673010	Kerala	Kozhikode
Neeleswaram	673572	Kerala	Kozhikode
Nellicode	673016	Kerala	Kozhikode
Nellika Paramba	673602	Kerala	Kozhikode
Nit campus po.kozhikode	673601	Kerala	Kozhikode
Nittur	673507	Kerala	Kozhikode
Nitumannur	673507	Kerala	Kozhikode
Nochat	673624	Kerala	Kozhikode
Nooramthode	673586	Kerala	Kozhikode
Nut Street	673104	Kerala	Kozhikode
Olavanna	673025	Kerala	Kozhikode
Omasseri	673572	Kerala	Kozhikode
Onchiyam	673308	Kerala	Kozhikode
Oravil	673614	Kerala	Kozhikode
Orkatteri	673501	Kerala	Kozhikode
Padanilam	673571	Kerala	Kozhikode
Padiripetta	673507	Kerala	Kozhikode
Palath	673611	Kerala	Kozhikode
Palayad Nada	673530	Kerala	Kozhikode
Paleri	673508	Kerala	Kozhikode
Paleri Town	673508	Kerala	Kozhikode
Pallikara	673522	Kerala	Kozhikode
Panangad Qdi	673612	Kerala	Kozhikode
Pannicode	673602	Kerala	Kozhikode
Pannikkottur	673572	Kerala	Kozhikode
Pantheerankavu	673019	Kerala	Kozhikode
Parakkadavu	673509	Kerala	Kozhikode
Parambil	673012	Kerala	Kozhikode
Parannur	673585	Kerala	Kozhikode
Parappanpoyil	673573	Kerala	Kozhikode
Parappil	673001	Kerala	Kozhikode
Paropadi	673009	Kerala	Kozhikode
Pasukkadavu	673513	Kerala	Kozhikode
Pathiyarakkara	673111	Kerala	Kozhikode
Pavandur	673613	Kerala	Kozhikode
Payimbra	673571	Kerala	Kozhikode
Payyoli Angadi	673523	Kerala	Kozhikode
Pazhur	673661	Kerala	Kozhikode
Perampra	673525	Kerala	Kozhikode
Peringalam	673571	Kerala	Kozhikode
Perode	673504	Kerala	Kozhikode
Perumanna	673026	Kerala	Kozhikode
Perumukham	673631	Kerala	Kozhikode
Peruvannamuzhi	673528	Kerala	Kozhikode
Peruvattur	673620	Kerala	Kozhikode
Peruvayal	673024	Kerala	Kozhikode
Pilasseri	673571	Kerala	Kozhikode
Pokkunnu	673013	Kerala	Kozhikode
Ponmeri Parambil	673542	Kerala	Kozhikode
Ponnamkayam	673603	Kerala	Kozhikode
Poolakkul	673507	Kerala	Kozhikode
Poothampara	673513	Kerala	Kozhikode
Poovaranthod	673604	Kerala	Kozhikode
Poovattu Paramba	673008	Kerala	Kozhikode
Poozhithode	673528	Kerala	Kozhikode
Puduppadi	673586	Kerala	Kozhikode
Puduppanam	673105	Kerala	Kozhikode
Puliyavil	673509	Kerala	Kozhikode
Pulluram Para	673603	Kerala	Kozhikode
Punath	673614	Kerala	Kozhikode
Punnakkal	673603	Kerala	Kozhikode
Punnasseri	673585	Kerala	Kozhikode
Punnur - cherupalam	673585	Kerala	Kozhikode
Purakkad	673522	Kerala	Kozhikode
Purameri	673503	Kerala	Kozhikode
Puthiya Nirathu	673303	Kerala	Kozhikode
Puthiyangadi	673021	Kerala	Kozhikode
Puthiyara	673004	Kerala	Kozhikode
Puthur	673104	Kerala	Kozhikode
Puthur- Kotuvalli	673572	Kerala	Kozhikode
Quilandibazar	673620	Kerala	Kozhikode
Ramanattukara	673633	Kerala	Kozhikode
Rayarangoth	673102	Kerala	Kozhikode
Santhi Nagar	673573	Kerala	Kozhikode
Siddhasamaj	673104	Kerala	Kozhikode
Sreerama Krishna mission	673003	Kerala	Kozhikode
St.Vincent colony	673006	Kerala	Kozhikode
Talayad	673574	Kerala	Kozhikode
Tali	673002	Kerala	Kozhikode
Taliyil	673508	Kerala	Kozhikode
Tamaracheri	673573	Kerala	Kozhikode
Thachampoyil	673573	Kerala	Kozhikode
Thalakolathur	673317	Kerala	Kozhikode
Thambalamanna	673603	Kerala	Kozhikode
Thanakottur	673509	Kerala	Kozhikode
Thandorapara	673526	Kerala	Kozhikode
Tharopoyil	673541	Kerala	Kozhikode
Theyyappara	673580	Kerala	Kozhikode
Thinur	673507	Kerala	Kozhikode
Thiruthiyad	673004	Kerala	Kozhikode
Thiruvallur	673541	Kerala	Kozhikode
Thodannur	673108	Kerala	Kozhikode
Thottumukkam	673639	Kerala	Kozhikode
Thuruthiyad	673612	Kerala	Kozhikode
Thuvakkode	673304	Kerala	Kozhikode
Tikkoti	673529	Kerala	Kozhikode
Tiruvambadi	673603	Kerala	Kozhikode
Tiruvangoor	673318	Kerala	Kozhikode
Tiruvannur	673029	Kerala	Kozhikode
Tiruvannur Nada	673029	Kerala	Kozhikode
Tiruvode	673614	Kerala	Kozhikode
Tuneri	673505	Kerala	Kozhikode
Ulliyeri	673323	Kerala	Kozhikode
Unnikulam	673574	Kerala	Kozhikode
Urallur	673620	Kerala	Kozhikode
Vadakara	673101	Kerala	Kozhikode
Vadakara Beach	673103	Kerala	Kozhikode
Vaidyarangadi	673633	Kerala	Kozhikode
Vakayad	673614	Kerala	Kozhikode
Valayam	673517	Kerala	Kozhikode
Valiyaparamba	673572	Kerala	Kozhikode
Valliyad	673542	Kerala	Kozhikode
Vanimal	673506	Kerala	Kozhikode
Vannathichira	673513	Kerala	Kozhikode
Varikoli	673506	Kerala	Kozhikode
Vatayam	673518	Kerala	Kozhikode
Vattoli	673510	Kerala	Kozhikode
Vattoli Bazar	673623	Kerala	Kozhikode
Vavad	673572	Kerala	Kozhikode
Vayalada	673574	Kerala	Kozhikode
Vayikkilassery	673104	Kerala	Kozhikode
Velancode	673580	Kerala	Kozhikode
Velimanna	673573	Kerala	Kozhikode
Vellalasseri	673601	Kerala	Kozhikode
Vellayikkode	673019	Kerala	Kozhikode
Vellayil	673011	Kerala	Kozhikode
Velliparamba	673008	Kerala	Kozhikode
Velom	673508	Kerala	Kozhikode
Velom Peruvayal	673508	Kerala	Kozhikode
Velur West	673315	Kerala	Kozhikode
Venappara	673572	Kerala	Kozhikode
Vengalam	673303	Kerala	Kozhikode
Vengeri	673010	Kerala	Kozhikode
Vilangad	673506	Kerala	Kozhikode
Villyappalli	673542	Kerala	Kozhikode
Vishnumangalam	673506	Kerala	Kozhikode
Vrindavan Colony	673017	Kerala	Kozhikode
West Hill	673005	Kerala	Kozhikode
West Hill beach	673005	Kerala	Kozhikode
West Hill chungam	673005	Kerala	Kozhikode
Abdurahiman Nagar	676305	Kerala	Malappuram
Adakkakundu	676525	Kerala	Malappuram
Akkaparamba	673641	Kerala	Malappuram
Alankode	679585	Kerala	Malappuram
Alathiyur	676102	Kerala	Malappuram
Aliparamba	679357	Kerala	Malappuram
Amarambalam	679332	Kerala	Malappuram
Amarambalam South	679339	Kerala	Malappuram
Amayur	676123	Kerala	Malappuram
Ambalakkadavu	676525	Kerala	Malappuram
Amminikkad	679322	Kerala	Malappuram
Anakkayam	676509	Kerala	Malappuram
Anamangad	679357	Kerala	Malappuram
Ananthavur	676301	Kerala	Malappuram
Anchachavady	676525	Kerala	Malappuram
Andiyoorkunnu	673637	Kerala	Malappuram
Angadipuram	679321	Kerala	Malappuram
Anjapura	676303	Kerala	Malappuram
Areacode	673639	Kerala	Malappuram
Arimanal	676525	Kerala	Malappuram
Arimbra	673638	Kerala	Malappuram
Aripra	679321	Kerala	Malappuram
Ariyallur	676312	Kerala	Malappuram
Arkkuparamba	679322	Kerala	Malappuram
Athalur	679573	Kerala	Malappuram
Athavanad	676310	Kerala	Malappuram
Athrisseri	676106	Kerala	Malappuram
Aurvacode	679329	Kerala	Malappuram
Ayankalam	679594	Kerala	Malappuram
Ayikkarapadi	673637	Kerala	Malappuram
Ayilakkad	679576	Kerala	Malappuram
Ayirur	679580	Kerala	Malappuram
Azhinjilam	673632	Kerala	Malappuram
Bettath Pudiangadi	676102	Kerala	Malappuram
Bhoodan Colony	679334	Kerala	Malappuram
Biyyam	679589	Kerala	Malappuram
Calicut Airport	673647	Kerala	Malappuram
Calicut University	673635	Kerala	Malappuram
Chamravattom	676110	Kerala	Malappuram
Chandakkunnu	679342	Kerala	Malappuram
Chappanangadi	676503	Kerala	Malappuram
Chathallur	676541	Kerala	Malappuram
Chathangottupuram	679328	Kerala	Malappuram
Chattipparamba	676504	Kerala	Malappuram
Chelakkad	679323	Kerala	Malappuram
Chelembra	673634	Kerala	Malappuram
Chembrassei	676521	Kerala	Malappuram
Chembrasseri East	679327	Kerala	Malappuram
Chemmalasseri	679323	Kerala	Malappuram
Chemmaniyode	679325	Kerala	Malappuram
Chemmarakkattur	673639	Kerala	Malappuram
Chenakkalangadi	673636	Kerala	Malappuram
Chengottur	676503	Kerala	Malappuram
Chennara	676561	Kerala	Malappuram
Cherakkaparamba	679321	Kerala	Malappuram
Cheriyamundam	676111	Kerala	Malappuram
Cherukara	679340	Kerala	Malappuram
Cherumukku	676306	Kerala	Malappuram
Cherur	676304	Kerala	Malappuram
Cherushola	676510	Kerala	Malappuram
Cheruvallur	679575	Kerala	Malappuram
Cheruvayur	673645	Kerala	Malappuram
Chettipadi	676319	Kerala	Malappuram
Chettippadam	679332	Kerala	Malappuram
Chikkode	673645	Kerala	Malappuram
Chirayil	673638	Kerala	Malappuram
Chokkad	679355	Kerala	Malappuram
Chullippara	676508	Kerala	Malappuram
Chulliyode	679332	Kerala	Malappuram
Chungathara	679334	Kerala	Malappuram
Codacal	676108	Kerala	Malappuram
Downhill	676519	Kerala	Malappuram
Edakkara-nilambur	679331	Kerala	Malappuram
Edapal	679576	Kerala	Malappuram
Edapatta	679326	Kerala	Malappuram
Edarikode	676501	Kerala	Malappuram
Edavanna	676541	Kerala	Malappuram
Edayattur	679326	Kerala	Malappuram
Edayur	676554	Kerala	Malappuram
Edayur North	676552	Kerala	Malappuram
Edivanna	679329	Kerala	Malappuram
Elad	679340	Kerala	Malappuram
Elankur	676122	Kerala	Malappuram
Eramangalam	679587	Kerala	Malappuram
Eranhikode	676541	Kerala	Malappuram
Eranhimangad	679343	Kerala	Malappuram
Eravimangalam	679340	Kerala	Malappuram
Erumamunda	679334	Kerala	Malappuram
Ezhupathekkar	676525	Kerala	Malappuram
Gramam	679579	Kerala	Malappuram
Hajiarpalli	676519	Kerala	Malappuram
Indianur	676503	Kerala	Malappuram
Irimbiliyam	679572	Kerala	Malappuram
Iringallur	676304	Kerala	Malappuram
Iringattiri	676523	Kerala	Malappuram
Iringavur	676103	Kerala	Malappuram
Irumbuzhi	676513	Kerala	Malappuram
Iruvetti	673639	Kerala	Malappuram
Iswaramangalam	679573	Kerala	Malappuram
Kadalundinagaram	673314	Kerala	Malappuram
Kadambode	676121	Kerala	Malappuram
Kadampuzha	676553	Kerala	Malappuram
Kadancheri	679582	Kerala	Malappuram
Kadannamanna	679324	Kerala	Malappuram
Kadavanad	679586	Kerala	Malappuram
Kadungapurm	679321	Kerala	Malappuram
Kakkad	676306	Kerala	Malappuram
Kaladi-mlp	679582	Kerala	Malappuram
Kalikavu	676525	Kerala	Malappuram
Kalkundu	676523	Kerala	Malappuram
Kallarmangalam	676553	Kerala	Malappuram
Kalpakancheri	676551	Kerala	Malappuram
Kambalakallu	679333	Kerala	Malappuram
Kanhiramukku	679584	Kerala	Malappuram
Kanmanam	676556	Kerala	Malappuram
Kanmanam-thekkummuri	676551	Kerala	Malappuram
Kannamangalam	676318	Kerala	Malappuram
Kannamangalam West	676305	Kerala	Malappuram
Kannamvettikavu	673637	Kerala	Malappuram
Kannattipadi	676304	Kerala	Malappuram
Kappil	679328	Kerala	Malappuram
Karad	679339	Kerala	Malappuram
Karakkode	679333	Kerala	Malappuram
Karakkunnu	676123	Kerala	Malappuram
Karapuram	679331	Kerala	Malappuram
Karekkad	676553	Kerala	Malappuram
Karippol	676552	Kerala	Malappuram
Karippur	673638	Kerala	Malappuram
Karthala	679571	Kerala	Malappuram
Karukathiruthy	679584	Kerala	Malappuram
Karulai	679344	Kerala	Malappuram
Karumarakkad	673640	Kerala	Malappuram
Karuvambram	676123	Kerala	Malappuram
Karuvambram West	676123	Kerala	Malappuram
Karuvarakundu	676523	Kerala	Malappuram
Kavalamukkatta	679332	Kerala	Malappuram
Kavancheri	676561	Kerala	Malappuram
Kavanur	673644	Kerala	Malappuram
Kerala Estate	676525	Kerala	Malappuram
Keraladheeswarapuram	676307	Kerala	Malappuram
Kizhakkumpadam	679326	Kerala	Malappuram
Kizhattur	679325	Kerala	Malappuram
Kizhuparamba	673639	Kerala	Malappuram
Klari	676501	Kerala	Malappuram
Kodinhi	676309	Kerala	Malappuram
Kodur-malabar	676504	Kerala	Malappuram
Kokkur	679591	Kerala	Malappuram
Kolakkattuchali	673634	Kerala	Malappuram
Kolaparamba	676522	Kerala	Malappuram
Kolathur-mlp	679338	Kerala	Malappuram
Kololamba	679576	Kerala	Malappuram
Kondotti	673638	Kerala	Malappuram
Koomankulam	676123	Kerala	Malappuram
Koorad	679339	Kerala	Malappuram
Kooriyad	676306	Kerala	Malappuram
Koottil	679324	Kerala	Malappuram
Kotakkad	676319	Kerala	Malappuram
Kottakkal	676503	Kerala	Malappuram
Kottilangadi	676506	Kerala	Malappuram
Kumminiparamba	673638	Kerala	Malappuram
Kunnakkavu	679340	Kerala	Malappuram
Kunnappally	679322	Kerala	Malappuram
Kunnummalpotti	679331	Kerala	Malappuram
Kuruga	676551	Kerala	Malappuram
Kurumbalangode	679334	Kerala	Malappuram
Kurumbathur	676301	Kerala	Malappuram
Kuruvambalam	679338	Kerala	Malappuram
Kuttathy	676523	Kerala	Malappuram
Kuttayi	676562	Kerala	Malappuram
Kuttippala	676501	Kerala	Malappuram
Kuttippuram	679571	Kerala	Malappuram
Kuttippuram-kottakkal	676503	Kerala	Malappuram
Kuttur North	676305	Kerala	Malappuram
Kuzhimanna	673641	Kerala	Malappuram
Maithra	673639	Kerala	Malappuram
Makkaraparamba	676507	Kerala	Malappuram
Malappuram	676505	Kerala	Malappuram
Malappuram Civil station	676505	Kerala	Malappuram
Mampad	676542	Kerala	Malappuram
Mampad College	676542	Kerala	Malappuram
Mampattumoola	679332	Kerala	Malappuram
Mampuram	676306	Kerala	Malappuram
Manalaya	679357	Kerala	Malappuram
Mangalam-mlp	676561	Kerala	Malappuram
Mangattiri	676105	Kerala	Malappuram
Manhappatta	676123	Kerala	Malappuram
Manimooly	679333	Kerala	Malappuram
Manjeri Bazar	676121	Kerala	Malappuram
Manjeri College	676122	Kerala	Malappuram
Manjeri-kla	676121	Kerala	Malappuram
Mankada	679324	Kerala	Malappuram
Mankada Pallippuram	679324	Kerala	Malappuram
Mannarmala	679325	Kerala	Malappuram
Mannathipoyil	679332	Kerala	Malappuram
Marakkara	676553	Kerala	Malappuram
Marancheri	679581	Kerala	Malappuram
Mariyad	676122	Kerala	Malappuram
Marutha	679333	Kerala	Malappuram
Mattarakkal	679322	Kerala	Malappuram
Mattathur	676528	Kerala	Malappuram
Meenadathur	676307	Kerala	Malappuram
Melangadi	673648	Kerala	Malappuram
Melattur	679326	Kerala	Malappuram
Melmuri	676514	Kerala	Malappuram
Meppadam	676542	Kerala	Malappuram
Modapoika	679331	Kerala	Malappuram
Mongam	673642	Kerala	Malappuram
Mookkuthala	679574	Kerala	Malappuram
Mooniyur	676311	Kerala	Malappuram
Moonniyur South	676311	Kerala	Malappuram
Moorkkanad	679338	Kerala	Malappuram
Moothedam	679331	Kerala	Malappuram
Morayur	673649	Kerala	Malappuram
Mudur	679578	Kerala	Malappuram
Mundakkal	673645	Kerala	Malappuram
Munderi	679334	Kerala	Malappuram
Munduparmba	676509	Kerala	Malappuram
Muthuparamba	673638	Kerala	Malappuram
Muthuvallur	673638	Kerala	Malappuram
Muttanur	676561	Kerala	Malappuram
Naduvath	679328	Kerala	Malappuram
Naduvattom	679592	Kerala	Malappuram
Nallanthanni	679330	Kerala	Malappuram
Nambooripotty	679333	Kerala	Malappuram
Nannambra	676320	Kerala	Malappuram
Nannamukku	679575	Kerala	Malappuram
Nannamukku South	679575	Kerala	Malappuram
Nariparamba	679573	Kerala	Malappuram
Narukara	676122	Kerala	Malappuram
Nediyirippu	673638	Kerala	Malappuram
Neduva	676303	Kerala	Malappuram
Neelancheri	676525	Kerala	Malappuram
Nellikuth	676122	Kerala	Malappuram
Nilambur	679329	Kerala	Malappuram
Nilambur Rs	679330	Kerala	Malappuram
Niramaruthur	676109	Kerala	Malappuram
Olakara	676306	Kerala	Malappuram
Olamathil	673642	Kerala	Malappuram
Olavattur	673638	Kerala	Malappuram
Olukur	673642	Kerala	Malappuram
Omachapuzha	676320	Kerala	Malappuram
Omanur	673645	Kerala	Malappuram
Oorakam Kizhumuri	676515	Kerala	Malappuram
Oorakam Melmuri	676519	Kerala	Malappuram
Othalur West	679591	Kerala	Malappuram
Othukkungal	676528	Kerala	Malappuram
Ozhur	676313	Kerala	Malappuram
Pachattiri	676105	Kerala	Malappuram
Padinharekkara	676562	Kerala	Malappuram
Padinhattumuri	676506	Kerala	Malappuram
Padirikode	679326	Kerala	Malappuram
Padiripadam	679334	Kerala	Malappuram
Palachode	679338	Kerala	Malappuram
Palakkad(mlp)	673641	Kerala	Malappuram
Palakkalvetta	679327	Kerala	Malappuram
Palapetty	679579	Kerala	Malappuram
Palathole	679340	Kerala	Malappuram
Palemad	679331	Kerala	Malappuram
Palengara	679330	Kerala	Malappuram
Pallikkal	673653	Kerala	Malappuram
Pallikuth	679334	Kerala	Malappuram
Panampilavu	673639	Kerala	Malappuram
Panangattur	676302	Kerala	Malappuram
Pandallur	676521	Kerala	Malappuram
Pandallur Hills	676521	Kerala	Malappuram
Pandamangalam	676503	Kerala	Malappuram
Pandikkad	676521	Kerala	Malappuram
Panga	679338	Kerala	Malappuram
Panga Chendy	679338	Kerala	Malappuram
Panga South	679338	Kerala	Malappuram
Pannippara	676541	Kerala	Malappuram
Pantarangadi	676306	Kerala	Malappuram
Pappinippara	676122	Kerala	Malappuram
Parambilpeedika	676315	Kerala	Malappuram
Parammalangadi	676551	Kerala	Malappuram
Parappur	676503	Kerala	Malappuram
Paravanna	676502	Kerala	Malappuram
Pariyapuram	676302	Kerala	Malappuram
Parpanangadi	676303	Kerala	Malappuram
Pathaikara	679322	Kerala	Malappuram
Pathappiriyam	676123	Kerala	Malappuram
Pathar	679334	Kerala	Malappuram
Pathayakallu	676553	Kerala	Malappuram
Pathiriyal	676123	Kerala	Malappuram
Pattarkadavu	676519	Kerala	Malappuram
Pattikkad	679325	Kerala	Malappuram
Payinkanniyur	679571	Kerala	Malappuram
Payyanad	676122	Kerala	Malappuram
Pazhamallur	676506	Kerala	Malappuram
Pazhanji-mlp	679579	Kerala	Malappuram
Pazhur	679571	Kerala	Malappuram
Perakamanna	676541	Kerala	Malappuram
Perasannur	679588	Kerala	Malappuram
Perimbalam	676509	Kerala	Malappuram
Perintalmanna	679322	Kerala	Malappuram
Perintalmanna Bazar	679322	Kerala	Malappuram
Perinthattiri	676507	Kerala	Malappuram
Perumaparamba	679576	Kerala	Malappuram
Perumbadappu	679580	Kerala	Malappuram
Peruparamba-ugrapuram	673639	Kerala	Malappuram
Peruvallur	673638	Kerala	Malappuram
Pidavannur	679574	Kerala	Malappuram
Polpakara	679576	Kerala	Malappuram
Ponani	679577	Kerala	Malappuram
Ponani Nagaram	679583	Kerala	Malappuram
Ponani South	679586	Kerala	Malappuram
Ponmala	676528	Kerala	Malappuram
Ponmundam	676106	Kerala	Malappuram
Ponniyakurissi	679322	Kerala	Malappuram
Pookayil Bazar	676107	Kerala	Malappuram
Pookkottumpadam	679332	Kerala	Malappuram
Pookkottur	676517	Kerala	Malappuram
Pookottumanna	679334	Kerala	Malappuram
Poolamanna	679327	Kerala	Malappuram
Poongode	679327	Kerala	Malappuram
Poonthavanam	679325	Kerala	Malappuram
Poovathikkal	673639	Kerala	Malappuram
Porur	679339	Kerala	Malappuram
Poyilisseri	676102	Kerala	Malappuram
Puducode - feroke	673633	Kerala	Malappuram
Puduppalli	676102	Kerala	Malappuram
Pulamanthole	679323	Kerala	Malappuram
Pulikkal	673637	Kerala	Malappuram
Puliyakkode	673641	Kerala	Malappuram
Pullancheri	676122	Kerala	Malappuram
Pullengode	676525	Kerala	Malappuram
Pulliparamba	673634	Kerala	Malappuram
Pullippadam	676542	Kerala	Malappuram
Pulpatta	676126	Kerala	Malappuram
Pulvetta	676523	Kerala	Malappuram
Punnappala	679328	Kerala	Malappuram
Punnathala	676552	Kerala	Malappuram
Puramannur	676552	Kerala	Malappuram
Puranga	679584	Kerala	Malappuram
Purathur	676102	Kerala	Malappuram
Puthanangadi	679321	Kerala	Malappuram
Puthiyakadappuram	676302	Kerala	Malappuram
Puthuparamba	676501	Kerala	Malappuram
Puthur -kottakkal	676503	Kerala	Malappuram
Puthur-pallikkal	673636	Kerala	Malappuram
Puzhakkattiri	679321	Kerala	Malappuram
Ramankuth	679330	Kerala	Malappuram
Ramapuram	679350	Kerala	Malappuram
Randathani	676510	Kerala	Malappuram
Sugapuram	679576	Kerala	Malappuram
T.K.colony	679332	Kerala	Malappuram
Talekode	679322	Kerala	Malappuram
Talekode West	679352	Kerala	Malappuram
Tanalur	676307	Kerala	Malappuram
Tanur Nagaram	676302	Kerala	Malappuram
Tanur-mbr	676302	Kerala	Malappuram
Tavanur	679573	Kerala	Malappuram
Tavanur-feroke	673641	Kerala	Malappuram
Tayyalingal	676320	Kerala	Malappuram
Tenhipalam	673636	Kerala	Malappuram
Thachinganadam	679325	Kerala	Malappuram
Thalakkadathur	676103	Kerala	Malappuram
Tharis	676523	Kerala	Malappuram
Thekkankuttur	676551	Kerala	Malappuram
Thekkummuri	676105	Kerala	Malappuram
Thelakkad	679325	Kerala	Malappuram
Thennala	676511	Kerala	Malappuram
Theyyathumpadam	679331	Kerala	Malappuram
Thootha	679357	Kerala	Malappuram
Thottilangadi	673639	Kerala	Malappuram
Thurakkal	673638	Kerala	Malappuram
Tirunavaya	676301	Kerala	Malappuram
Tirur East bazar	676101	Kerala	Malappuram
Tirur(kerala)	676101	Kerala	Malappuram
Tirurangadi	676306	Kerala	Malappuram
Tirurangadi Bazar	676306	Kerala	Malappuram
Tirurkad	679351	Kerala	Malappuram
Tiruvali	679348	Kerala	Malappuram
Tolavanur	676557	Kerala	Malappuram
Trikkalangode	676127	Kerala	Malappuram
Trikkanapuram	679573	Kerala	Malappuram
Trikkandiyur	676104	Kerala	Malappuram
Trippanachi	673641	Kerala	Malappuram
Triprangode	676108	Kerala	Malappuram
Tuvvur	679327	Kerala	Malappuram
Ullanam	676303	Kerala	Malappuram
Ullanam North	676303	Kerala	Malappuram
Uppada	679354	Kerala	Malappuram
Urangattiri	673639	Kerala	Malappuram
Vadakkangara	679324	Kerala	Malappuram
Vadakkumbram	676552	Kerala	Malappuram
Vadakkumpadam	679339	Kerala	Malappuram
Vadapuram	676542	Kerala	Malappuram
Vakkad	676502	Kerala	Malappuram
Vakkethodi	676122	Kerala	Malappuram
Valakolam	676508	Kerala	Malappuram
Valambur	679325	Kerala	Malappuram
Valamkulam	679357	Kerala	Malappuram
Valancheri	676552	Kerala	Malappuram
Valapuram	679323	Kerala	Malappuram
Valavannur	676551	Kerala	Malappuram
Valillapuzha	673639	Kerala	Malappuram
Valiyakunnu	676552	Kerala	Malappuram
Valiyaparamba	673637	Kerala	Malappuram
Valiyora	676308	Kerala	Malappuram
Vallikkapatta	679324	Kerala	Malappuram
Vallikkunnu	673314	Kerala	Malappuram
Vallikkunnu North	673314	Kerala	Malappuram
Valluvambram	673651	Kerala	Malappuram
Valluvangad South	676521	Kerala	Malappuram
Vaniyambalam	679339	Kerala	Malappuram
Vattalur	676507	Kerala	Malappuram
Vattamkulam	679578	Kerala	Malappuram
Vazhakkad	673640	Kerala	Malappuram
Vazhayur	673633	Kerala	Malappuram
Vazhayur East	673633	Kerala	Malappuram
Vazhenkada	679357	Kerala	Malappuram
Vazhikkadavu	679333	Kerala	Malappuram
Veliankode	679579	Kerala	Malappuram
Velimukku	676317	Kerala	Malappuram
Velimukku South	676317	Kerala	Malappuram
Vellachal	676106	Kerala	Malappuram
Vellayur	679327	Kerala	Malappuram
Vellila	679324	Kerala	Malappuram
Velliyanchery	679326	Kerala	Malappuram
Vellur	676517	Kerala	Malappuram
Vengad	679338	Kerala	Malappuram
Vengalur	676102	Kerala	Malappuram
Vengara Mlp	676304	Kerala	Malappuram
Vengoor	679325	Kerala	Malappuram
Venniyur	676508	Kerala	Malappuram
Vettathur	679326	Kerala	Malappuram
Vettilappara	673639	Kerala	Malappuram
Vettom	676102	Kerala	Malappuram
Vettom-pallippuram	676102	Kerala	Malappuram
Vilayil	673652	Kerala	Malappuram
Vyrancode	676301	Kerala	Malappuram
Wandoor	679328	Kerala	Malappuram
Adakkaputhur	679503	Kerala	Palakkad
Agali	678581	Kerala	Palakkad
Agali-sholayar-pgt	678581	Kerala	Palakkad
Akalur	679302	Kerala	Palakkad
Akathethara	678008	Kerala	Palakkad
Alampallam	678506	Kerala	Palakkad
Alanallur	678601	Kerala	Palakkad
Alangad	678637	Kerala	Palakkad
Alathur Mbr	678541	Kerala	Palakkad
Amayur	679310	Kerala	Palakkad
Ambalapara	679512	Kerala	Palakkad
Ambalavattom	679501	Kerala	Palakkad
Ambikapuram	678011	Kerala	Palakkad
Anakkal	678651	Kerala	Palakkad
Anakkara	679551	Kerala	Palakkad
Anamari	678506	Kerala	Palakkad
Angadi	679552	Kerala	Palakkad
Anjumoorthy	678682	Kerala	Palakkad
Ariyur	678583	Kerala	Palakkad
Athicode	678554	Kerala	Palakkad
Athipotta	678544	Kerala	Palakkad
Attasseri	679513	Kerala	Palakkad
Attempathy	678556	Kerala	Palakkad
Ayakkad	678683	Kerala	Palakkad
Ayalur	678510	Kerala	Palakkad
Azhiyannur	678633	Kerala	Palakkad
Bhimanad	678601	Kerala	Palakkad
Chalavara	679505	Kerala	Palakkad
Chalisseri	679536	Kerala	Palakkad
Chaliyattiri	679535	Kerala	Palakkad
Chandramala Estate	678508	Kerala	Palakkad
Chandranagar	678007	Kerala	Palakkad
Chandrapuram	678624	Kerala	Palakkad
Chandrasekharapuram	678611	Kerala	Palakkad
Changileri	678762	Kerala	Palakkad
Chathamangalam	678508	Kerala	Palakkad
Chathanur	679537	Kerala	Palakkad
Chavadiyur	678581	Kerala	Palakkad
Chembra	679304	Kerala	Palakkad
Chennangad	678573	Kerala	Palakkad
Chenthamaranagar	678102	Kerala	Palakkad
Cheramangalam	678703	Kerala	Palakkad
Cherambattakavu	679501	Kerala	Palakkad
Cheraya	678635	Kerala	Palakkad
Cherottur	679521	Kerala	Palakkad
Cherpalcheri	679503	Kerala	Palakkad
Cherukattupulam	679522	Kerala	Palakkad
Cherukode	679336	Kerala	Palakkad
Cherukulam	678572	Kerala	Palakkad
Cherukutangad	679305	Kerala	Palakkad
Cherumundasseri	679512	Kerala	Palakkad
Chethallur	678609	Kerala	Palakkad
Chimbukat	678721	Kerala	Palakkad
Chindaki	678582	Kerala	Palakkad
Chithali	678702	Kerala	Palakkad
Chittadi	678706	Kerala	Palakkad
Chittilancheri	678704	Kerala	Palakkad
Chittur -agali	678581	Kerala	Palakkad
Chittur College	678104	Kerala	Palakkad
Chittur Courts	678101	Kerala	Palakkad
Chittur Pg	678101	Kerala	Palakkad
Chokkanathapuram	678005	Kerala	Palakkad
Choorakode	679336	Kerala	Palakkad
Chulanur	678574	Kerala	Palakkad
Chunangad	679511	Kerala	Palakkad
Chundabatta	679337	Kerala	Palakkad
Chundampatta	679309	Kerala	Palakkad
Coyalmanna	678702	Kerala	Palakkad
Coyalmanna Agraharam	678702	Kerala	Palakkad
Dhoni	678009	Kerala	Palakkad
Edakode(pavukonam)	679522	Kerala	Palakkad
Edathanttukara	678601	Kerala	Palakkad
Edathara	678611	Kerala	Palakkad
Eduppukulam	678556	Kerala	Palakkad
Elambulasseri	678752	Kerala	Palakkad
Elapulli	678622	Kerala	Palakkad
Elapulli South	678622	Kerala	Palakkad
Elavampadam	678709	Kerala	Palakkad
Elavancherry	678508	Kerala	Palakkad
Erattakulam	678622	Kerala	Palakkad
Erattakulam Alathur	678682	Kerala	Palakkad
Eravakkad	679552	Kerala	Palakkad
Erimayur	678546	Kerala	Palakkad
Eruthempathy	678558	Kerala	Palakkad
Etapalam	679308	Kerala	Palakkad
Ettanur	678502	Kerala	Palakkad
Ezhakkad	678600	Kerala	Palakkad
Ezhuvanthala	679335	Kerala	Palakkad
Gandhiseva sadanam	679302	Kerala	Palakkad
Ganeshgiri	679123	Kerala	Palakkad
Govindapuram	678507	Kerala	Palakkad
Irimbakachola	678591	Kerala	Palakkad
Irimbalasseri	679335	Kerala	Palakkad
Jellipara	678581	Kerala	Palakkad
Kacheriparamba	678601	Kerala	Palakkad
Kadambur	679515	Kerala	Palakkad
Kadukkamkunnu	678651	Kerala	Palakkad
Kaipuram	679308	Kerala	Palakkad
Kairady	678510	Kerala	Palakkad
Kaithachira	678582	Kerala	Palakkad
Kakkayur	678512	Kerala	Palakkad
Kalapatti	678541	Kerala	Palakkad
Kalkandi	678582	Kerala	Palakkad
Kalladathur	679552	Kerala	Palakkad
Kalladikode	678596	Kerala	Palakkad
Kalladipatta	679313	Kerala	Palakkad
Kallamala	678582	Kerala	Palakkad
Kallekkad	678015	Kerala	Palakkad
Kallekulangara	678009	Kerala	Palakkad
Kallepully	678018	Kerala	Palakkad
Kallur-palakkad	678613	Kerala	Palakkad
Kalluvazhi	679514	Kerala	Palakkad
Kalpathy	678003	Kerala	Palakkad
Kanayam	679125	Kerala	Palakkad
Kandamangalam	678583	Kerala	Palakkad
Kanhikulam	678596	Kerala	Palakkad
Kanhirapuzha	678591	Kerala	Palakkad
Kanhirapuzha Dam	678591	Kerala	Palakkad
Kanimangalam	678508	Kerala	Palakkad
Kanjikode	678621	Kerala	Palakkad
Kanjikode Ind. estate	678621	Kerala	Palakkad
Kanjikode West	678623	Kerala	Palakkad
Kannadi	678701	Kerala	Palakkad
Kannakkanthuruthi	678683	Kerala	Palakkad
Kannambra	678686	Kerala	Palakkad
Kannanur	678702	Kerala	Palakkad
Kanniampuram	679104	Kerala	Palakkad
Kannimari	678534	Kerala	Palakkad
Kappur	679552	Kerala	Palakkad
Karakurissi	678595	Kerala	Palakkad
Karalmanna	679506	Kerala	Palakkad
Karambathur	679305	Kerala	Palakkad
Karara	678581	Kerala	Palakkad
Karattukurissi	679503	Kerala	Palakkad
Karimba	678597	Kerala	Palakkad
Karimpuzha	679513	Kerala	Palakkad
Karingarapully	678559	Kerala	Palakkad
Karinkayam	678706	Kerala	Palakkad
Karipode	678503	Kerala	Palakkad
Karippali	678532	Kerala	Palakkad
Kariyamkode	678572	Kerala	Palakkad
Karkitamkunnu	678605	Kerala	Palakkad
Karumanamkurissi	679504	Kerala	Palakkad
Katambazhipuram	678633	Kerala	Palakkad
Kattukulam	679514	Kerala	Palakkad
Kattukulam South	679514	Kerala	Palakkad
Kattusseri	678542	Kerala	Palakkad
Kavalappara	679523	Kerala	Palakkad
Kavalpad	678017	Kerala	Palakkad
Kavassery	678543	Kerala	Palakkad
Kavukode	679536	Kerala	Palakkad
Kavundikkal	678581	Kerala	Palakkad
Kayiliad	679122	Kerala	Palakkad
Kazhani	678543	Kerala	Palakkad
Keralasseri	678641	Kerala	Palakkad
Kilakkancheri	678684	Kerala	Palakkad
Kilakkumbram	678642	Kerala	Palakkad
Kilmuri	679307	Kerala	Palakkad
Kinasseri	678707	Kerala	Palakkad
Kinavallur	678615	Kerala	Palakkad
Kizhakkumuri	678508	Kerala	Palakkad
Kizhayur	679303	Kerala	Palakkad
Kizhur	679501	Kerala	Palakkad
Kodakkad	678583	Kerala	Palakkad
Kodumunda	679303	Kerala	Palakkad
Kodunthirapulli	678004	Kerala	Palakkad
Koduvayur	678501	Kerala	Palakkad
Koduvayur Agraharam	678501	Kerala	Palakkad
Kolikkottusseri	679303	Kerala	Palakkad
Kollengo R.s.	678506	Kerala	Palakkad
Kollengode	678506	Kerala	Palakkad
Kollengode West	678506	Kerala	Palakkad
Kondurkara	679313	Kerala	Palakkad
Kongad	678631	Kerala	Palakkad
Konikazhi	678632	Kerala	Palakkad
Koonathara	679523	Kerala	Palakkad
Koottala	678681	Kerala	Palakkad
Koranchira	678684	Kerala	Palakkad
Kotambu	678551	Kerala	Palakkad
Kothachira	679535	Kerala	Palakkad
Kottapadam(ttl)	679534	Kerala	Palakkad
Kottappuram	679518	Kerala	Palakkad
Kottathara	678581	Kerala	Palakkad
Kottayi	678572	Kerala	Palakkad
Kottekkad	678732	Kerala	Palakkad
Kottopadam	678583	Kerala	Palakkad
Kozhinjampara	678555	Kerala	Palakkad
Kozhipara	678557	Kerala	Palakkad
Kudallur	679554	Kerala	Palakkad
Kulakkad	679503	Kerala	Palakkad
Kulakkattukurissi	678633	Kerala	Palakkad
Kulappulli	679122	Kerala	Palakkad
Kulukkallur	679337	Kerala	Palakkad
Kumaramputhur	678583	Kerala	Palakkad
Kumaranellur	679552	Kerala	Palakkad
Kumbidi	679553	Kerala	Palakkad
Kundalasseri	678641	Kerala	Palakkad
Kundurkunnu	678583	Kerala	Palakkad
Kunduvampadam	678633	Kerala	Palakkad
Kunisseri	678681	Kerala	Palakkad
Kunnamkattupathy	678101	Kerala	Palakkad
Kunnathurmedu	678013	Kerala	Palakkad
Kuruvattur	679336	Kerala	Palakkad
Kuttanad	679533	Kerala	Palakkad
Kuttanasseri	679514	Kerala	Palakkad
Kuttanur	678721	Kerala	Palakkad
Kuttipallam	678101	Kerala	Palakkad
Lakkidi	679301	Kerala	Palakkad
Mala	679534	Kerala	Palakkad
Malamalkkavu	679554	Kerala	Palakkad
Malampuzha Dam	678651	Kerala	Palakkad
Manappadam	678689	Kerala	Palakkad
Mangalam Dam	678706	Kerala	Palakkad
Mangalam(opm)	679301	Kerala	Palakkad
Mangode	679503	Kerala	Palakkad
Manikkasseri	678631	Kerala	Palakkad
Manisseri	679521	Kerala	Palakkad
Mankarai	678613	Kerala	Palakkad
Mankarai R.s.	678614	Kerala	Palakkad
Mankurussi	678613	Kerala	Palakkad
Mannalur	678502	Kerala	Palakkad
Mannampatta	679517	Kerala	Palakkad
Mannanur	679523	Kerala	Palakkad
Mannapra	678685	Kerala	Palakkad
Mannarkad College	678583	Kerala	Palakkad
Mannarkkad	678582	Kerala	Palakkad
Mannengode	679307	Kerala	Palakkad
Mannur	678642	Kerala	Palakkad
Mannur West	678642	Kerala	Palakkad
Marayamangalam	679336	Kerala	Palakkad
Marayamangalam South	679335	Kerala	Palakkad
Marutharoad	678007	Kerala	Palakkad
Maruthur	679306	Kerala	Palakkad
Mathur Agraharam	678571	Kerala	Palakkad
Mathur Pg	678571	Kerala	Palakkad
Mattathukad	678581	Kerala	Palakkad
Meenakshipuram	678553	Kerala	Palakkad
Meenkara Dam	678507	Kerala	Palakkad
Melarcode	678703	Kerala	Palakkad
Melepattambi	679306	Kerala	Palakkad
Melmuri	679307	Kerala	Palakkad
Melur	679501	Kerala	Palakkad
Menonpara	678556	Kerala	Palakkad
Met Ind nagar	679122	Kerala	Palakkad
Mezhathur	679534	Kerala	Palakkad
Moonnekkar	678597	Kerala	Palakkad
Moothanthara	678012	Kerala	Palakkad
Mucheeri	678631	Kerala	Palakkad
Mudappallur	678705	Kerala	Palakkad
Mudukurissi	678593	Kerala	Palakkad
Muduthala	679314	Kerala	Palakkad
Mukkali	678582	Kerala	Palakkad
Mulangot	678684	Kerala	Palakkad
Mulanhur	679511	Kerala	Palakkad
Mulankavu	679337	Kerala	Palakkad
Mundakkottukurissi	679122	Kerala	Palakkad
Mundur Palakkad	678592	Kerala	Palakkad
Munnurkode	679502	Kerala	Palakkad
Muthalamada	678507	Kerala	Palakkad
Muttikulangara	678594	Kerala	Palakkad
Naduvathupara	678574	Kerala	Palakkad
Naduvattom	679308	Kerala	Palakkad
Nagalassery	679533	Kerala	Palakkad
Nagaripuram	678642	Kerala	Palakkad
Nallepilly	678553	Kerala	Palakkad
Nambullipura	678592	Kerala	Palakkad
Nanniode	678534	Kerala	Palakkad
Nattukal	678554	Kerala	Palakkad
Nechur	678722	Kerala	Palakkad
Nedungottur	679308	Kerala	Palakkad
Nellaya	679335	Kerala	Palakkad
Nelliampathy	678508	Kerala	Palakkad
Nellikattiri	679533	Kerala	Palakkad
Nemmara	678508	Kerala	Palakkad
Nemmara College	678508	Kerala	Palakkad
Nemmara Old village	678508	Kerala	Palakkad
Nenmeni	678506	Kerala	Palakkad
Newkalpathy	678003	Kerala	Palakkad
Nhangattiri	679311	Kerala	Palakkad
Nochipully	678592	Kerala	Palakkad
Nochulli	678702	Kerala	Palakkad
Nurani	678004	Kerala	Palakkad
Nurani Agraharam	678004	Kerala	Palakkad
Olalapadi	678557	Kerala	Palakkad
Olasseri	678551	Kerala	Palakkad
Olavakkot	678002	Kerala	Palakkad
Olinkadavu	678706	Kerala	Palakkad
Olivemount	678702	Kerala	Palakkad
Othalur - ttl	679534	Kerala	Palakkad
Ottapalam	679101	Kerala	Palakkad
Padagiri	678508	Kerala	Palakkad
Padur Kavassery	678548	Kerala	Palakkad
Palakayam	678591	Kerala	Palakkad
Palakkad	678001	Kerala	Palakkad
Palakkad City	678014	Kerala	Palakkad
Palakkad Collectorate	678001	Kerala	Palakkad
Palakkad College	678001	Kerala	Palakkad
Palakkad Engineering college	678008	Kerala	Palakkad
Palakkad Fort	678001	Kerala	Palakkad
Palakkad Industrial estate	678731	Kerala	Palakkad
Palakuzhy	678684	Kerala	Palakkad
Palampalakode	678544	Kerala	Palakkad
Palaniyarpalayam	678555	Kerala	Palakkad
Palappuram	679103	Kerala	Palakkad
Pallanchathanur	678575	Kerala	Palakkad
Pallassana	678505	Kerala	Palakkad
Pallatheri	678007	Kerala	Palakkad
Pallavur	678688	Kerala	Palakkad
Pallikunnu	678583	Kerala	Palakkad
Pallikurup	678593	Kerala	Palakkad
Pallipuram	679305	Kerala	Palakkad
Pallipuram Pg	678006	Kerala	Palakkad
Palode	678583	Kerala	Palakkad
Paloor	678582	Kerala	Palakkad
Pampampallam	678621	Kerala	Palakkad
Panamanna	679501	Kerala	Palakkad
Panamanna South	679501	Kerala	Palakkad
Panangattiri	678506	Kerala	Palakkad
Panayur	678552	Kerala	Palakkad
Panniankara	678683	Kerala	Palakkad
Panniyamkurissi	679503	Kerala	Palakkad
Parambikulam	678661	Kerala	Palakkad
Parasikkal	678556	Kerala	Palakkad
Parasseri	678631	Kerala	Palakkad
Parli Pg	678612	Kerala	Palakkad
Parudur	679312	Kerala	Palakkad
Paruthipra	679121	Kerala	Palakkad
Paruthipulli	678573	Kerala	Palakkad
Paruvasseri	678686	Kerala	Palakkad
Pathankulam	679522	Kerala	Palakkad
Pattambi	679303	Kerala	Palakkad
Pattancheri	678532	Kerala	Palakkad
Pattithara	679534	Kerala	Palakkad
Payyalur	678506	Kerala	Palakkad
Payyanadam	678583	Kerala	Palakkad
Perimbadari	678762	Kerala	Palakkad
Peringannur	679535	Kerala	Palakkad
Peringode	679535	Kerala	Palakkad
Peringottukurussi	678574	Kerala	Palakkad
Perinkulam	678542	Kerala	Palakkad
Perinkunnu	678702	Kerala	Palakkad
Perumannur	679536	Kerala	Palakkad
Perumudiyur	679303	Kerala	Palakkad
Perur-opm	679302	Kerala	Palakkad
Peruvemba	678531	Kerala	Palakkad
Pirayiri	678019	Kerala	Palakkad
Polpully	678552	Kerala	Palakkad
Pombilaya	679335	Kerala	Palakkad
Pombra	678595	Kerala	Palakkad
Poonchola	678598	Kerala	Palakkad
Pothundy Dam	678508	Kerala	Palakkad
Pottasseri	678598	Kerala	Palakkad
Pudanur	678592	Kerala	Palakkad
Pudiyankom	678545	Kerala	Palakkad
Pudunagaram	678503	Kerala	Palakkad
Puduppariyaram	678733	Kerala	Palakkad
Pudur	678581	Kerala	Palakkad
Pudussery	678623	Kerala	Palakkad
Pulappatta	678632	Kerala	Palakkad
Pulasseri	679307	Kerala	Palakkad
Pulinelli	678572	Kerala	Palakkad
Puliyanamkunnu	679505	Kerala	Palakkad
Pullisseri	678582	Kerala	Palakkad
Pullode	678545	Kerala	Palakkad
Punchapadam	678634	Kerala	Palakkad
Puthucode	678687	Kerala	Palakkad
Puthur-palakkad	678005	Kerala	Palakkad
Ramassery	678622	Kerala	Palakkad
Rvp Pudur	678555	Kerala	Palakkad
S G press	679122	Kerala	Palakkad
Sankaramangalam	679303	Kerala	Palakkad
Sekharipuram	678010	Kerala	Palakkad
Shornur	679121	Kerala	Palakkad
Sitharkunda	678508	Kerala	Palakkad
Sreeramakrishnanagar	679103	Kerala	Palakkad
Srikrishnapuram	679513	Kerala	Palakkad
Tachampara	678593	Kerala	Palakkad
Tadukkasseri	678641	Kerala	Palakkad
Tarur	678547	Kerala	Palakkad
Taruvakonam	679501	Kerala	Palakkad
Tattamangalam	678102	Kerala	Palakkad
Tattamangalam South	678102	Kerala	Palakkad
Tenari	678622	Kerala	Palakkad
Tenkara	678761	Kerala	Palakkad
Tenur	678616	Kerala	Palakkad
Thachangad	678571	Kerala	Palakkad
Thakke Vavannur	679533	Kerala	Palakkad
Thakkumuri(cpl)	679506	Kerala	Palakkad
Thalakkasseri	679538	Kerala	Palakkad
Thannilapuram	678682	Kerala	Palakkad
Thannisseri	678501	Kerala	Palakkad
Thattanampully	679337	Kerala	Palakkad
Thavalam	678589	Kerala	Palakkad
Thekkedesam	678553	Kerala	Palakkad
Thekkegramam	678103	Kerala	Palakkad
Thekkepotta	678687	Kerala	Palakkad
Thenkurussi	678671	Kerala	Palakkad
Thirumittakode	679533	Kerala	Palakkad
Thirunayanapuram	679514	Kerala	Palakkad
Thiruvalathur	678551	Kerala	Palakkad
Thiruvaliyad	678510	Kerala	Palakkad
Thiruvazhiyode	679514	Kerala	Palakkad
Thiruvegapura	679304	Kerala	Palakkad
Thottakkara	679102	Kerala	Palakkad
Thrikallur	678593	Kerala	Palakkad
Thunacadavu	678661	Kerala	Palakkad
Tirunilayi	678020	Kerala	Palakkad
Tiruvalamkunnu	678601	Kerala	Palakkad
Tolanur	678722	Kerala	Palakkad
Trikkatiri	679502	Kerala	Palakkad
Trithala	679534	Kerala	Palakkad
Ummanazhi	678632	Kerala	Palakkad
Uppukulam	678601	Kerala	Palakkad
Vadakkancherry Mbr	678683	Kerala	Palakkad
Vadakkanthara	678012	Kerala	Palakkad
Vadanamkurussi	679124	Kerala	Palakkad
Vadasseri	678641	Kerala	Palakkad
Vadavannur	678504	Kerala	Palakkad
Vakkadapuram	678595	Kerala	Palakkad
Valambillimangalam	679513	Kerala	Palakkad
Vallanghy	678508	Kerala	Palakkad
Vallapuzha	679336	Kerala	Palakkad
Vallikode	678594	Kerala	Palakkad
Vandali	678706	Kerala	Palakkad
Vandithavalam	678534	Kerala	Palakkad
Vaniamkulam	679522	Kerala	Palakkad
Vannamada	678555	Kerala	Palakkad
Varode	679102	Kerala	Palakkad
Varode-kottayi	678572	Kerala	Palakkad
Vattamannapuram	678601	Kerala	Palakkad
Vattekkad	678506	Kerala	Palakkad
Vavulliapuram	678543	Kerala	Palakkad
Vazhumbram	678595	Kerala	Palakkad
Veeramangalam	679502	Kerala	Palakkad
Veetampara	679102	Kerala	Palakkad
Velanthavalam	678557	Kerala	Palakkad
Velikkad	678592	Kerala	Palakkad
Vellinezhi	679504	Kerala	Palakkad
Vemballur	678502	Kerala	Palakkad
Vengasseri	679516	Kerala	Palakkad
Venody	678622	Kerala	Palakkad
Verkoli	678552	Kerala	Palakkad
Vettakara	678633	Kerala	Palakkad
Vilathur	679304	Kerala	Palakkad
Vilayannur	678671	Kerala	Palakkad
Vilayodi	678103	Kerala	Palakkad
Vilayur	679309	Kerala	Palakkad
Vilayur West	679309	Kerala	Palakkad
Viyyakurissi	678593	Kerala	Palakkad
Walayar Dam	678624	Kerala	Palakkad
Yakkara	678001	Kerala	Palakkad
Adichipuzha	689711	Kerala	Pathanamthitta
Adumpumkulam	689692	Kerala	Pathanamthitta
Adur( Kla)	691523	Kerala	Pathanamthitta
Alumthuruthy	689104	Kerala	Pathanamthitta
Amichikary	689112	Kerala	Pathanamthitta
Anandapally	691523	Kerala	Pathanamthitta
Angadi	689674	Kerala	Pathanamthitta
Angadical North	689648	Kerala	Pathanamthitta
Angadical South	691555	Kerala	Pathanamthitta
Angamoozhy	689645	Kerala	Pathanamthitta
Anikad	689585	Kerala	Pathanamthitta
Anj1lithanam	689582	Kerala	Pathanamthitta
Anthiyalankavu	689649	Kerala	Pathanamthitta
Aranmula	689533	Kerala	Pathanamthitta
Arattupuzha	689123	Kerala	Pathanamthitta
Aruvappulam	689691	Kerala	Pathanamthitta
Aryavon	689691	Kerala	Pathanamthitta
Athirumkal	689693	Kerala	Pathanamthitta
Attachakkal	689692	Kerala	Pathanamthitta
Ayroor North	689612	Kerala	Pathanamthitta
Ayroor South	689611	Kerala	Pathanamthitta
Azhiyadathuchira	689113	Kerala	Pathanamthitta
Chalappally	689586	Kerala	Pathanamthitta
Chandanapally	689648	Kerala	Pathanamthitta
Chathankary	689112	Kerala	Pathanamthitta
Chathenthara	686510	Kerala	Pathanamthitta
Chayalode	691556	Kerala	Pathanamthitta
Chelikuzhy	691556	Kerala	Pathanamthitta
Chellakkad	689677	Kerala	Pathanamthitta
Chengalthadom	689671	Kerala	Pathanamthitta
Chengara	689664	Kerala	Pathanamthitta
Chengaroor	689594	Kerala	Pathanamthitta
Chenneerkara	689517	Kerala	Pathanamthitta
Cherukole Kozhencherri	689650	Kerala	Pathanamthitta
Cherukulanji	689673	Kerala	Pathanamthitta
Chethackal	689677	Kerala	Pathanamthitta
Chirayirambu	689549	Kerala	Pathanamthitta
Chittar	689663	Kerala	Pathanamthitta
Choorakode	691551	Kerala	Pathanamthitta
Chumathra	689103	Kerala	Pathanamthitta
Chunkapara	686547	Kerala	Pathanamthitta
Churulicode	689668	Kerala	Pathanamthitta
Edakulam	689672	Kerala	Pathanamthitta
Edapariyaram	689643	Kerala	Pathanamthitta
Edappavoor	689614	Kerala	Pathanamthitta
Edathitta	691555	Kerala	Pathanamthitta
Edathua	689573	Kerala	Pathanamthitta
Edayaramula West	689532	Kerala	Pathanamthitta
Edayarnmula	689532	Kerala	Pathanamthitta
Elakollur	689703	Kerala	Pathanamthitta
Elamannur	691524	Kerala	Pathanamthitta
Elanthur	689643	Kerala	Pathanamthitta
Elanthur East	689643	Kerala	Pathanamthitta
Elanthur Pariyaram	689643	Kerala	Pathanamthitta
Elappupara	689656	Kerala	Pathanamthitta
Elavanthitta	689625	Kerala	Pathanamthitta
Ellimullumplackal	689692	Kerala	Pathanamthitta
Enathu	691526	Kerala	Pathanamthitta
Eraviperoor	689542	Kerala	Pathanamthitta
Eraviperoor East	689542	Kerala	Pathanamthitta
Erumakkad	689532	Kerala	Pathanamthitta
Ettichuvadu	689675	Kerala	Pathanamthitta
Ezhumattoor	689586	Kerala	Pathanamthitta
Gavi	685533	Kerala	Pathanamthitta
Gurunathanmannu	689667	Kerala	Pathanamthitta
Iythala	689673	Kerala	Pathanamthitta
Kadamankulam	689603	Kerala	Pathanamthitta
Kadambanad	691552	Kerala	Pathanamthitta
Kadambanad South	691553	Kerala	Pathanamthitta
Kadammanitta	689649	Kerala	Pathanamthitta
Kadapra Kumbanadu	689547	Kerala	Pathanamthitta
Kadapra Mannar	689630	Kerala	Pathanamthitta
Kaipattur	689648	Kerala	Pathanamthitta
Kaipuzha North	689503	Kerala	Pathanamthitta
Kaithakody	689614	Kerala	Pathanamthitta
Kaithaparambu	691526	Kerala	Pathanamthitta
Kakkudumon	689711	Kerala	Pathanamthitta
Kalanjoor	689694	Kerala	Pathanamthitta
Kallely	689691	Kerala	Pathanamthitta
Kallely Thottam	689691	Kerala	Pathanamthitta
Kallooppara	689583	Kerala	Pathanamthitta
Kallumkal	689102	Kerala	Pathanamthitta
Kanjeettukara	689616	Kerala	Pathanamthitta
Karakkal	689108	Kerala	Pathanamthitta
Karamvely	689643	Kerala	Pathanamthitta
Kariamplavu	689615	Kerala	Pathanamthitta
Karikayam	689663	Kerala	Pathanamthitta
Karikulam	689682	Kerala	Pathanamthitta
Karithotta	689514	Kerala	Pathanamthitta
Karuvatta Adur	691523	Kerala	Pathanamthitta
Kattode	689105	Kerala	Pathanamthitta
Kattoor Kozhencherry	689650	Kerala	Pathanamthitta
Kaviyoor	689582	Kerala	Pathanamthitta
Kavumbhagom	689102	Kerala	Pathanamthitta
Kavungumprayar	689543	Kerala	Pathanamthitta
Keekozhur	689672	Kerala	Pathanamthitta
Keerukuzhy	689502	Kerala	Pathanamthitta
Keezhvaipur	689587	Kerala	Pathanamthitta
Kidangannur	689514	Kerala	Pathanamthitta
Kizhakkumbhagom	689620	Kerala	Pathanamthitta
Kizhakkupuram	689653	Kerala	Pathanamthitta
Kochukoikkal	689667	Kerala	Pathanamthitta
Kodumon	691555	Kerala	Pathanamthitta
Kodumon East	691555	Kerala	Pathanamthitta
Koipuram	689531	Kerala	Pathanamthitta
Kokkathode	689691	Kerala	Pathanamthitta
Kolabhagom	689545	Kerala	Pathanamthitta
Konny	689691	Kerala	Pathanamthitta
Koodal	689693	Kerala	Pathanamthitta
Koonamkara	689711	Kerala	Pathanamthitta
Kottamonpara	689667	Kerala	Pathanamthitta
Kottanad	689615	Kerala	Pathanamthitta
Kottangal	686547	Kerala	Pathanamthitta
Kottathoor	689614	Kerala	Pathanamthitta
Kottoor	689582	Kerala	Pathanamthitta
Kozhencherry	689641	Kerala	Pathanamthitta
Kozhencherry thekkemala	689654	Kerala	Pathanamthitta
Kozhencherry College	689641	Kerala	Pathanamthitta
Kozhencherry East	689641	Kerala	Pathanamthitta
Kozhimala	689541	Kerala	Pathanamthitta
Kudamurutty	689711	Kerala	Pathanamthitta
Kulanada	689503	Kerala	Pathanamthitta
Kulathumon	689693	Kerala	Pathanamthitta
Kulathur	689588	Kerala	Pathanamthitta
Kumaramperoor Thekkekkara	689662	Kerala	Pathanamthitta
Kumbanadu	689547	Kerala	Pathanamthitta
Kumbazhamuri	689653	Kerala	Pathanamthitta
Kummannoor	689691	Kerala	Pathanamthitta
Kumpalampoika	689661	Kerala	Pathanamthitta
Kunnam Vechoochira	686511	Kerala	Pathanamthitta
Kunnamthanam	689581	Kerala	Pathanamthitta
Kunnathukara Hsc	689546	Kerala	Pathanamthitta
Kurampala South	689501	Kerala	Pathanamthitta
Kuravankuzhy	689548	Kerala	Pathanamthitta
Kuriannoor	689550	Kerala	Pathanamthitta
Kurichimuttom	689532	Kerala	Pathanamthitta
Kurunghazhabhagom	689548	Kerala	Pathanamthitta
Kuttapuzha	689103	Kerala	Pathanamthitta
Kuttur	689106	Kerala	Pathanamthitta
Kuzhikala	689644	Kerala	Pathanamthitta
Lahai	689662	Kerala	Pathanamthitta
Madamon	689665	Kerala	Pathanamthitta
Madathumbhagom North	689543	Kerala	Pathanamthitta
Makkankunnu	689645	Kerala	Pathanamthitta
Makkapuzha	689676	Kerala	Pathanamthitta
Malakara	689532	Kerala	Pathanamthitta
Malayalapuzha Eram	689664	Kerala	Pathanamthitta
Malayalapuzha Thazham	689666	Kerala	Pathanamthitta
Mallappally East	689584	Kerala	Pathanamthitta
Mallappally North	689594	Kerala	Pathanamthitta
Mallappally West	689585	Kerala	Pathanamthitta
Mallappuzhassery	689533	Kerala	Pathanamthitta
Mallasseri	689646	Kerala	Pathanamthitta
Mammoodu	689513	Kerala	Pathanamthitta
Mampara	689711	Kerala	Pathanamthitta
Manakala	691551	Kerala	Pathanamthitta
Mancode	689694	Kerala	Pathanamthitta
Mandiram Jn	689672	Kerala	Pathanamthitta
Maniyar	689662	Kerala	Pathanamthitta
Manjady Jn	689105	Kerala	Pathanamthitta
Mannadisala	686511	Kerala	Pathanamthitta
Mannady	691530	Kerala	Pathanamthitta
Mannam Nagar	689501	Kerala	Pathanamthitta
Mannam Sugar mills	689501	Kerala	Pathanamthitta
Mannarakulanji	689678	Kerala	Pathanamthitta
Manneera	689699	Kerala	Pathanamthitta
Manthanam	689581	Kerala	Pathanamthitta
Manthuka	689519	Kerala	Pathanamthitta
Maramon	689549	Kerala	Pathanamthitta
Marur	691524	Kerala	Pathanamthitta
Mathur	689657	Kerala	Pathanamthitta
Mekozhur	689678	Kerala	Pathanamthitta
Melood	691523	Kerala	Pathanamthitta
Melukara	689641	Kerala	Pathanamthitta
Mepral	689591	Kerala	Pathanamthitta
Mezhuveli	689507	Kerala	Pathanamthitta
Moozhiar	689662	Kerala	Pathanamthitta
Mudiyoorkonam	689516	Kerala	Pathanamthitta
Mundamala	689543	Kerala	Pathanamthitta
Mundiappally	689581	Kerala	Pathanamthitta
Mundukottackal	689649	Kerala	Pathanamthitta
Murinjakal	689693	Kerala	Pathanamthitta
Muthoor	689107	Kerala	Pathanamthitta
Muthupezhumkal	689698	Kerala	Pathanamthitta
Muttathukonam	689625	Kerala	Pathanamthitta
Muttom Thumpamon	689502	Kerala	Pathanamthitta
Muttumon	689547	Kerala	Pathanamthitta
Mylapra	689671	Kerala	Pathanamthitta
Mylapra Town	689678	Kerala	Pathanamthitta
Nalkallikkal	689533	Kerala	Pathanamthitta
Narakathanni	689544	Kerala	Pathanamthitta
Naranamoozhy	689711	Kerala	Pathanamthitta
Naranganam	689642	Kerala	Pathanamthitta
Naranganam North	689642	Kerala	Pathanamthitta
Naranganam West	689642	Kerala	Pathanamthitta
Nariapuram	689513	Kerala	Pathanamthitta
Nedumon	691556	Kerala	Pathanamthitta
Nedumoncavu	689693	Kerala	Pathanamthitta
Nedumpuram	689578	Kerala	Pathanamthitta
Neeliplavu	689663	Kerala	Pathanamthitta
Nellikala	689643	Kerala	Pathanamthitta
Nellikkamon	689680	Kerala	Pathanamthitta
Nellikkapara	689691	Kerala	Pathanamthitta
Nellimala	689542	Kerala	Pathanamthitta
Nellimukal	691551	Kerala	Pathanamthitta
Niranam	689621	Kerala	Pathanamthitta
Niranam Central	689629	Kerala	Pathanamthitta
Nirathupara	689693	Kerala	Pathanamthitta
Njakkunilam	689656	Kerala	Pathanamthitta
Omallur-kla	689647	Kerala	Pathanamthitta
Oonnakavu	689674	Kerala	Pathanamthitta
Oonnukal	689647	Kerala	Pathanamthitta
Oottupara	689691	Kerala	Pathanamthitta
Othera	689546	Kerala	Pathanamthitta
Otherawest	689551	Kerala	Pathanamthitta
Padam	689694	Kerala	Pathanamthitta
Padimon	689587	Kerala	Pathanamthitta
Paduthode	689544	Kerala	Pathanamthitta
Palackathakidi	689581	Kerala	Pathanamthitta
Pampa Dam	685533	Kerala	Pathanamthitta
Pampa Triveni	689662	Kerala	Pathanamthitta
Pampini	689663	Kerala	Pathanamthitta
Panangad	689503	Kerala	Pathanamthitta
Pandalam	689501	Kerala	Pathanamthitta
Pandalam Medical mission	689501	Kerala	Pathanamthitta
Pandanad	689506	Kerala	Pathanamthitta
Parakadavu	690561	Kerala	Pathanamthitta
Parakara	691525	Kerala	Pathanamthitta
Parakode	691554	Kerala	Pathanamthitta
Parakoottam	691551	Kerala	Pathanamthitta
Paranthal	689518	Kerala	Pathanamthitta
Pariyaram	689596	Kerala	Pathanamthitta
Parumala	689626	Kerala	Pathanamthitta
Pathanamthitta	689645	Kerala	Pathanamthitta
Payyanamon	689692	Kerala	Pathanamthitta
Pazhakulam	691523	Kerala	Pathanamthitta
Peringanad	691528	Kerala	Pathanamthitta
Peringara	689108	Kerala	Pathanamthitta
Perinjottackal	689692	Kerala	Pathanamthitta
Perumpatty	689592	Kerala	Pathanamthitta
Perumpramavu	689587	Kerala	Pathanamthitta
Perumthuruthy	689107	Kerala	Pathanamthitta
Pezhumpara	689662	Kerala	Pathanamthitta
Podiyadi	689110	Kerala	Pathanamthitta
Poovathoor	689531	Kerala	Pathanamthitta
Prakkanam	689643	Kerala	Pathanamthitta
Pullad	689548	Kerala	Pathanamthitta
Pulloopram	689674	Kerala	Pathanamthitta
Punnakkad	689652	Kerala	Pathanamthitta
Punnavely	689589	Kerala	Pathanamthitta
Puramattom	689543	Kerala	Pathanamthitta
Pushpagiri Tiruvalla	689105	Kerala	Pathanamthitta
Puthumala	691554	Kerala	Pathanamthitta
Puthusserimala	689672	Kerala	Pathanamthitta
Puthusserry South	689602	Kerala	Pathanamthitta
Ranny	689672	Kerala	Pathanamthitta
Ranny Edamon	689681	Kerala	Pathanamthitta
Ranny Perinad	689711	Kerala	Pathanamthitta
Ranny-pazhavangadi	689673	Kerala	Pathanamthitta
Seethathode	689667	Kerala	Pathanamthitta
Thadiyur	689545	Kerala	Pathanamthitta
Thalachira Eram	689664	Kerala	Pathanamthitta
Thannithode	689699	Kerala	Pathanamthitta
Thattayil	691525	Kerala	Pathanamthitta
Thazhathuvadakku	691526	Kerala	Pathanamthitta
Thekketheri	691552	Kerala	Pathanamthitta
Thekkumkal	689614	Kerala	Pathanamthitta
Thekkuthode	689699	Kerala	Pathanamthitta
Thelliyoor	689544	Kerala	Pathanamthitta
Thengamom	690522	Kerala	Pathanamthitta
Thengeli	689106	Kerala	Pathanamthitta
Thengumcavu	689646	Kerala	Pathanamthitta
Theodical	689613	Kerala	Pathanamthitta
Theppupara	691554	Kerala	Pathanamthitta
Thirumoolapuram	689115	Kerala	Pathanamthitta
Thombikandam	689676	Kerala	Pathanamthitta
Thonniamala	689668	Kerala	Pathanamthitta
Thottabhagom	689541	Kerala	Pathanamthitta
Thulappally	686510	Kerala	Pathanamthitta
Thumpamon	689502	Kerala	Pathanamthitta
Thumpamon North	689625	Kerala	Pathanamthitta
Thumpamon Thazham	689632	Kerala	Pathanamthitta
Thuruthicaud	689587	Kerala	Pathanamthitta
Thuvayur South	691552	Kerala	Pathanamthitta
Tiruvalla	689101	Kerala	Pathanamthitta
Tiruvalla Market jn	689101	Kerala	Pathanamthitta
Tiruvalla Rs	689111	Kerala	Pathanamthitta
Ulanad	689503	Kerala	Pathanamthitta
Ullannur	689503	Kerala	Pathanamthitta
Urukari	689595	Kerala	Pathanamthitta
Uthimoodu	689645	Kerala	Pathanamthitta
Vadakkedathukavu Jn	691529	Kerala	Pathanamthitta
Vadakkupuram	689653	Kerala	Pathanamthitta
Vadasserikara	689662	Kerala	Pathanamthitta
Vaipur	689588	Kerala	Pathanamthitta
Vakayar	689698	Kerala	Pathanamthitta
Valakuzhy	689544	Kerala	Pathanamthitta
Valanjavattom	689104	Kerala	Pathanamthitta
Valiyakavu	689675	Kerala	Pathanamthitta
Vallamkulam	689541	Kerala	Pathanamthitta
Vallamkulam East	689541	Kerala	Pathanamthitta
Vallicode	689659	Kerala	Pathanamthitta
Vallicode Kottayam	689656	Kerala	Pathanamthitta
Varayannur	689548	Kerala	Pathanamthitta
Vayala Parakode	691554	Kerala	Pathanamthitta
Vayalathala	689660	Kerala	Pathanamthitta
Vayyattupuzha	689663	Kerala	Pathanamthitta
Vazhamuttom	689647	Kerala	Pathanamthitta
Vazhamuttom East	689646	Kerala	Pathanamthitta
Vdakkumbhagom	689621	Kerala	Pathanamthitta
Vellappara	689691	Kerala	Pathanamthitta
Vellayil	689613	Kerala	Pathanamthitta
Velliyara	689612	Kerala	Pathanamthitta
Vennikulam	689544	Kerala	Pathanamthitta
Venpala	689114	Kerala	Pathanamthitta
Vettur Kumbazha	689653	Kerala	Pathanamthitta
Adayamon	695614	Kerala	Thiruvananthapuram
Alamcode	695102	Kerala	Thiruvananthapuram
Aliyadu	695607	Kerala	Thiruvananthapuram
Altharamoodu	695102	Kerala	Thiruvananthapuram
Amachal	695572	Kerala	Thiruvananthapuram
Amaravila	695122	Kerala	Thiruvananthapuram
Ambalamukku	695005	Kerala	Thiruvananthapuram
Ambalathara	695026	Kerala	Thiruvananthapuram
Ambalathinkala	695572	Kerala	Thiruvananthapuram
Amboori	695505	Kerala	Thiruvananthapuram
Anad	695544	Kerala	Thiruvananthapuram
Anakudy	695606	Kerala	Thiruvananthapuram
Anappara	695551	Kerala	Thiruvananthapuram
Anathalavattom	695306	Kerala	Thiruvananthapuram
Anavoor	695124	Kerala	Thiruvananthapuram
Anayara	695029	Kerala	Thiruvananthapuram
Andoorkonam	695584	Kerala	Thiruvananthapuram
Anjengo	695309	Kerala	Thiruvananthapuram
Aralumoodu	695123	Kerala	Thiruvananthapuram
Aramada	695032	Kerala	Thiruvananthapuram
Arayur	695122	Kerala	Thiruvananthapuram
Arumanoor	695525	Kerala	Thiruvananthapuram
Aruvikara	695564	Kerala	Thiruvananthapuram
Aruvipuram	695126	Kerala	Thiruvananthapuram
Aryanad	695542	Kerala	Thiruvananthapuram
Attakulangara	695023	Kerala	Thiruvananthapuram
Attingal	695101	Kerala	Thiruvananthapuram
Attukal	695009	Kerala	Thiruvananthapuram
Avanavancherry	695103	Kerala	Thiruvananthapuram
Ayilam	695103	Kerala	Thiruvananthapuram
Ayira	695502	Kerala	Thiruvananthapuram
Ayroor-varkala	695310	Kerala	Thiruvananthapuram
Azhurmarket	695305	Kerala	Thiruvananthapuram
Balaramapuram	695501	Kerala	Thiruvananthapuram
Beemapally	695008	Kerala	Thiruvananthapuram
Bhagavathinada	695501	Kerala	Thiruvananthapuram
Bharathannur	695616	Kerala	Thiruvananthapuram
Bonaccord	695557	Kerala	Thiruvananthapuram
Cgo Complex poonkulam	695522	Kerala	Thiruvananthapuram
Chaikkottukonam	695122	Kerala	Thiruvananthapuram
Chakkai	695024	Kerala	Thiruvananthapuram
Changa	695542	Kerala	Thiruvananthapuram
Channamkara	695315	Kerala	Thiruvananthapuram
Charupara	695601	Kerala	Thiruvananthapuram
Cheeranikkara	695615	Kerala	Thiruvananthapuram
Chekkakonam	695564	Kerala	Thiruvananthapuram
Chempazhanthy	695587	Kerala	Thiruvananthapuram
Chenkal	695132	Kerala	Thiruvananthapuram
Cheriakolla	695504	Kerala	Thiruvananthapuram
Cheriyakonni	695013	Kerala	Thiruvananthapuram
Cherunniyur	695142	Kerala	Thiruvananthapuram
Cheruvarakonam	695502	Kerala	Thiruvananthapuram
Cheruvikkal	695011	Kerala	Thiruvananthapuram
Chettachal	695551	Kerala	Thiruvananthapuram
Chilakur	695141	Kerala	Thiruvananthapuram
Chirayinkeezhu	695304	Kerala	Thiruvananthapuram
Chittattumukku	695588	Kerala	Thiruvananthapuram
Chowara	695501	Kerala	Thiruvananthapuram
Chullimanoor	695541	Kerala	Thiruvananthapuram
Cotton Hill	695014	Kerala	Thiruvananthapuram
Daivapura	695563	Kerala	Thiruvananthapuram
Dalmughom	695125	Kerala	Thiruvananthapuram
Dhanuvachapuram	695503	Kerala	Thiruvananthapuram
Edakode	695104	Kerala	Thiruvananthapuram
Edava	695311	Kerala	Thiruvananthapuram
Elakamon	695310	Kerala	Thiruvananthapuram
Elakamon-kizhakkepuram	695310	Kerala	Thiruvananthapuram
Elavattom	695562	Kerala	Thiruvananthapuram
Elluvila	695504	Kerala	Thiruvananthapuram
Ex-servicemen's Colony	695562	Kerala	Thiruvananthapuram
Goureesapattom	695004	Kerala	Thiruvananthapuram
Hariharapuram	695310	Kerala	Thiruvananthapuram
Idinjar	695563	Kerala	Thiruvananthapuram
Ilamba	695103	Kerala	Thiruvananthapuram
Ilanchiyam	695563	Kerala	Thiruvananthapuram
Industrial Estate	695019	Kerala	Thiruvananthapuram
Irinchayam	695561	Kerala	Thiruvananthapuram
Iroorpara	695584	Kerala	Thiruvananthapuram
Jagathy	695014	Kerala	Thiruvananthapuram
Janardhanapuram	695141	Kerala	Thiruvananthapuram
Kachani	695013	Kerala	Thiruvananthapuram
Kadakkavur	695306	Kerala	Thiruvananthapuram
Kaikara	695307	Kerala	Thiruvananthapuram
Kaimanam	695040	Kerala	Thiruvananthapuram
Kaithamukku	695024	Kerala	Thiruvananthapuram
Kakkavila	695506	Kerala	Thiruvananthapuram
Kalamachal	695606	Kerala	Thiruvananthapuram
Kallambalam	695605	Kerala	Thiruvananthapuram
Kallar Tvm	695551	Kerala	Thiruvananthapuram
Kallara	695608	Kerala	Thiruvananthapuram
Kallayam	695043	Kerala	Thiruvananthapuram
Kalliyal	695574	Kerala	Thiruvananthapuram
Kalliyoor	695042	Kerala	Thiruvananthapuram
Kanchinada	695609	Kerala	Thiruvananthapuram
Kandala	695512	Kerala	Thiruvananthapuram
Kaniyapuram	695301	Kerala	Thiruvananthapuram
Kanjampazhanji	695525	Kerala	Thiruvananthapuram
Kanjiramkulam	695524	Kerala	Thiruvananthapuram
Kanjirampara	695030	Kerala	Thiruvananthapuram
Kappil	695311	Kerala	Thiruvananthapuram
Karakonam	695504	Kerala	Thiruvananthapuram
Karakulam	695564	Kerala	Thiruvananthapuram
Karamana	695002	Kerala	Thiruvananthapuram
Karavaram	695605	Kerala	Thiruvananthapuram
Karikuzhi	695505	Kerala	Thiruvananthapuram
Karimanal	695583	Kerala	Thiruvananthapuram
Karimancode	695562	Kerala	Thiruvananthapuram
Karimkuttikara	695606	Kerala	Thiruvananthapuram
Karipur	695541	Kerala	Thiruvananthapuram
Karode	695506	Kerala	Thiruvananthapuram
Karumom	695002	Kerala	Thiruvananthapuram
Karyavattom	695581	Kerala	Thiruvananthapuram
Katakam	695304	Kerala	Thiruvananthapuram
Kattachalkuzhy	695509	Kerala	Thiruvananthapuram
Kattacode	695572	Kerala	Thiruvananthapuram
Kattaikonam	695584	Kerala	Thiruvananthapuram
Kattakada	695572	Kerala	Thiruvananthapuram
Kattumpuram	695608	Kerala	Thiruvananthapuram
Kaudiar	695003	Kerala	Thiruvananthapuram
Kaudiar Square	695003	Kerala	Thiruvananthapuram
Kavalayur	695144	Kerala	Thiruvananthapuram
Kazhakuttam	695582	Kerala	Thiruvananthapuram
Kazhavur	695526	Kerala	Thiruvananthapuram
Keezharur	695130	Kerala	Thiruvananthapuram
Keezhattingal	695101	Kerala	Thiruvananthapuram
Kerala Governor's camp	695099	Kerala	Thiruvananthapuram
Kidarakuzhy	695523	Kerala	Thiruvananthapuram
Kilimanur	695601	Kerala	Thiruvananthapuram
Kilimanur Palace	695601	Kerala	Thiruvananthapuram
Kizhuvalam	695104	Kerala	Thiruvananthapuram
Kochuvila	695563	Kerala	Thiruvananthapuram
Kodithookiyakunnu	695608	Kerala	Thiruvananthapuram
Kodunganur	695013	Kerala	Thiruvananthapuram
Kodungavila	695123	Kerala	Thiruvananthapuram
Koduvazhannur	695612	Kerala	Thiruvananthapuram
Koithurkonam	695584	Kerala	Thiruvananthapuram
Kokkotela	695542	Kerala	Thiruvananthapuram
Kokkottukonam	695604	Kerala	Thiruvananthapuram
Koliakode	695607	Kerala	Thiruvananthapuram
Kollode	695571	Kerala	Thiruvananthapuram
Konchira	695615	Kerala	Thiruvananthapuram
Koonanvenga	695560	Kerala	Thiruvananthapuram
Koonthallur	695304	Kerala	Thiruvananthapuram
Koothali(tvm)	695505	Kerala	Thiruvananthapuram
Kottackal (tvm)	695124	Kerala	Thiruvananthapuram
Kottakkakom	695542	Kerala	Thiruvananthapuram
Kottapuram	695521	Kerala	Thiruvananthapuram
Kottoor(tvm)	695574	Kerala	Thiruvananthapuram
Kottukal	695501	Kerala	Thiruvananthapuram
Kottukunnam	695606	Kerala	Thiruvananthapuram
Kovalam	695527	Kerala	Thiruvananthapuram
Kovalam Beach	695527	Kerala	Thiruvananthapuram
Kudappanakunnu	695043	Kerala	Thiruvananthapuram
Kudappanamoodu	695510	Kerala	Thiruvananthapuram
Kudavur	695313	Kerala	Thiruvananthapuram
Kudayal	695505	Kerala	Thiruvananthapuram
Kulamuttam	695144	Kerala	Thiruvananthapuram
Kulappada	695542	Kerala	Thiruvananthapuram
Kulathur	695583	Kerala	Thiruvananthapuram
Kunnathukal	695504	Kerala	Thiruvananthapuram
Kurakkada	695104	Kerala	Thiruvananthapuram
Kuravankonam	695003	Kerala	Thiruvananthapuram
Kurumbayam	695608	Kerala	Thiruvananthapuram
Kuruthamcode	695572	Kerala	Thiruvananthapuram
Kuthirakalam-vellanad	695543	Kerala	Thiruvananthapuram
Kuthirakulam	695615	Kerala	Thiruvananthapuram
Kuttamala	695505	Kerala	Thiruvananthapuram
Kuttichal	695574	Kerala	Thiruvananthapuram
Kuvalassery	695512	Kerala	Thiruvananthapuram
Lourdepuram	695526	Kerala	Thiruvananthapuram
Machel	695571	Kerala	Thiruvananthapuram
Madavoor-pallickal	695602	Kerala	Thiruvananthapuram
Malakkal	695602	Kerala	Thiruvananthapuram
Malayam	695571	Kerala	Thiruvananthapuram
Malayinkil	695571	Kerala	Thiruvananthapuram
Manacaud	695009	Kerala	Thiruvananthapuram
Manali	695505	Kerala	Thiruvananthapuram
Manambur	695611	Kerala	Thiruvananthapuram
Mancha	695541	Kerala	Thiruvananthapuram
Manchamcode	695125	Kerala	Thiruvananthapuram
Manchavilakom	695503	Kerala	Thiruvananthapuram
Manikanteswaram	695013	Kerala	Thiruvananthapuram
Manjamala	695313	Kerala	Thiruvananthapuram
Mannamkonam	695125	Kerala	Thiruvananthapuram
Mannanthala	695015	Kerala	Thiruvananthapuram
Mannurkonam	695541	Kerala	Thiruvananthapuram
Marangad	695542	Kerala	Thiruvananthapuram
Marayamuttom	695131	Kerala	Thiruvananthapuram
Mariyapuram	695127	Kerala	Thiruvananthapuram
Maruthamala	695551	Kerala	Thiruvananthapuram
Maruthikunnu	695603	Kerala	Thiruvananthapuram
Mayam	695505	Kerala	Thiruvananthapuram
Meenankal	695542	Kerala	Thiruvananthapuram
Meenmutty	695562	Kerala	Thiruvananthapuram
Melkadakkavur	695306	Kerala	Thiruvananthapuram
Melvettoor	695312	Kerala	Thiruvananthapuram
Memala	695551	Kerala	Thiruvananthapuram
Mg College	695004	Kerala	Thiruvananthapuram
Mithirmala	695610	Kerala	Thiruvananthapuram
Mithraniketan	695543	Kerala	Thiruvananthapuram
Moongode	695573	Kerala	Thiruvananthapuram
Moonnanakuzhy	695615	Kerala	Thiruvananthapuram
Moonnumukku	695609	Kerala	Thiruvananthapuram
Moothala	695604	Kerala	Thiruvananthapuram
Mudakkal	695103	Kerala	Thiruvananthapuram
Mudapuram	695314	Kerala	Thiruvananthapuram
Mukkolackal	695005	Kerala	Thiruvananthapuram
Mukkudil	695607	Kerala	Thiruvananthapuram
Mulakkalathukavu	695614	Kerala	Thiruvananthapuram
Mulayara	695543	Kerala	Thiruvananthapuram
Mullur	695521	Kerala	Thiruvananthapuram
Mulluvila	695133	Kerala	Thiruvananthapuram
Mundela	695543	Kerala	Thiruvananthapuram
Murukumpuzhaa	695302	Kerala	Thiruvananthapuram
Muthana	695146	Kerala	Thiruvananthapuram
Muthuvila	695610	Kerala	Thiruvananthapuram
Muttada	695025	Kerala	Thiruvananthapuram
Muttakadu	695523	Kerala	Thiruvananthapuram
Muttappalam	695145	Kerala	Thiruvananthapuram
Mylakkara	695572	Kerala	Thiruvananthapuram
Mylamoodu	695609	Kerala	Thiruvananthapuram
Nagaroor	695618	Kerala	Thiruvananthapuram
Nalanchira	695015	Kerala	Thiruvananthapuram
Narimanmoodu	695020	Kerala	Thiruvananthapuram
Navaikulam	695603	Kerala	Thiruvananthapuram
Nedumangad	695541	Kerala	Thiruvananthapuram
Nedumparambu	695102	Kerala	Thiruvananthapuram
Nedunganda	695307	Kerala	Thiruvananthapuram
Neeramankadavuu	695610	Kerala	Thiruvananthapuram
Nellanad	695606	Kerala	Thiruvananthapuram
Nellimoodu	695524	Kerala	Thiruvananthapuram
Nellivila	695523	Kerala	Thiruvananthapuram
Nemom	695020	Kerala	Thiruvananthapuram
Nethajipuram	695584	Kerala	Thiruvananthapuram
Neyyar Dam	695572	Kerala	Thiruvananthapuram
Neyyattinkara	695121	Kerala	Thiruvananthapuram
Neyyattinkara Town	695121	Kerala	Thiruvananthapuram
Nilakkamukku	695306	Kerala	Thiruvananthapuram
Njarayilkonam	695602	Kerala	Thiruvananthapuram
Odayam	695311	Kerala	Thiruvananthapuram
Olathanni	695133	Kerala	Thiruvananthapuram
Ookode	695020	Kerala	Thiruvananthapuram
Oolampara	695005	Kerala	Thiruvananthapuram
Oorupoika	695104	Kerala	Thiruvananthapuram
Ooruttambalam	695507	Kerala	Thiruvananthapuram
Ottasekharamangalam	695125	Kerala	Thiruvananthapuram
Pmg Jn	695033	Kerala	Thiruvananthapuram
Ptp Jn	695004	Kerala	Thiruvananthapuram
Pacha	695562	Kerala	Thiruvananthapuram
Pachallur	695027	Kerala	Thiruvananthapuram
Pakalkuri	695604	Kerala	Thiruvananthapuram
Palachira	695143	Kerala	Thiruvananthapuram
Palamkonam	695607	Kerala	Thiruvananthapuram
Palayamkunnu	695146	Kerala	Thiruvananthapuram
Palkulangara	695024	Kerala	Thiruvananthapuram
Pallichal	695020	Kerala	Thiruvananthapuram
Pallickal Kilimanur	695604	Kerala	Thiruvananthapuram
Pallipuram	695316	Kerala	Thiruvananthapuram
Pallithura	695586	Kerala	Thiruvananthapuram
Paluvally	695562	Kerala	Thiruvananthapuram
Panachamoodu	695505	Kerala	Thiruvananthapuram
Panacode	695542	Kerala	Thiruvananthapuram
Panangode	695563	Kerala	Thiruvananthapuram
Panavoor	695560	Kerala	Thiruvananthapuram
Panayam	695560	Kerala	Thiruvananthapuram
Panayamuttom	695561	Kerala	Thiruvananthapuram
Panayara	695145	Kerala	Thiruvananthapuram
Pandalacode	695028	Kerala	Thiruvananthapuram
Pangappara	695581	Kerala	Thiruvananthapuram
Pangode	695609	Kerala	Thiruvananthapuram
Panniyode	695575	Kerala	Thiruvananthapuram
Pantha	695572	Kerala	Thiruvananthapuram
Pappanamcode	695018	Kerala	Thiruvananthapuram
Parakunnu	695603	Kerala	Thiruvananthapuram
Parandode	695542	Kerala	Thiruvananthapuram
Parappara	695551	Kerala	Thiruvananthapuram
Parassala	695502	Kerala	Thiruvananthapuram
Parasuvaickal	695508	Kerala	Thiruvananthapuram
Parayathukonam	695104	Kerala	Thiruvananthapuram
Paruthikuzhy	695541	Kerala	Thiruvananthapuram
Paruthipally	695574	Kerala	Thiruvananthapuram
Pattom	695004	Kerala	Thiruvananthapuram
Pattom Palace	695004	Kerala	Thiruvananthapuram
Payattuvila	695501	Kerala	Thiruvananthapuram
Pazhakutty	695561	Kerala	Thiruvananthapuram
Pazhayakunnummel	695601	Kerala	Thiruvananthapuram
Peppara Dam	695551	Kerala	Thiruvananthapuram
Perayam	695562	Kerala	Thiruvananthapuram
Peringamala	695563	Kerala	Thiruvananthapuram
Peroor	695601	Kerala	Thiruvananthapuram
Perukavu	695573	Kerala	Thiruvananthapuram
Perumathura	695303	Kerala	Thiruvananthapuram
Perumkadavila	695124	Kerala	Thiruvananthapuram
Perumkulam	695102	Kerala	Thiruvananthapuram
Perumpazhuthoor	695126	Kerala	Thiruvananthapuram
Perunguzhi	695305	Kerala	Thiruvananthapuram
Perurkada	695005	Kerala	Thiruvananthapuram
Peyad	695573	Kerala	Thiruvananthapuram
Pirappancode	695607	Kerala	Thiruvananthapuram
Plamootukada	695120	Kerala	Thiruvananthapuram
Poikamukku	695103	Kerala	Thiruvananthapuram
Ponganadu	695601	Kerala	Thiruvananthapuram
Ponmudi	695551	Kerala	Thiruvananthapuram
Poojapura	695012	Kerala	Thiruvananthapuram
Poojapura Junction	695012	Kerala	Thiruvananthapuram
Poonthura	695026	Kerala	Thiruvananthapuram
Poothura	695309	Kerala	Thiruvananthapuram
Poovachal	695575	Kerala	Thiruvananthapuram
Poovathur	695561	Kerala	Thiruvananthapuram
Poozhanad	695125	Kerala	Thiruvananthapuram
Pothencode	695584	Kerala	Thiruvananthapuram
Powdikonam	695587	Kerala	Thiruvananthapuram
Pozhiyoor	695513	Kerala	Thiruvananthapuram
Prasanth Nagar	695011	Kerala	Thiruvananthapuram
Pravachambalam	695020	Kerala	Thiruvananthapuram
Ptp Nagar	695038	Kerala	Thiruvananthapuram
Pulimath	695612	Kerala	Thiruvananthapuram
Puliyarakonam	695573	Kerala	Thiruvananthapuram
Puliyurkonam	695604	Kerala	Thiruvananthapuram
Pullampara	695607	Kerala	Thiruvananthapuram
Pullanicode	695311	Kerala	Thiruvananthapuram
Pullayil	695601	Kerala	Thiruvananthapuram
Pulluvila	695526	Kerala	Thiruvananthapuram
Punalal	695575	Kerala	Thiruvananthapuram
Puthencurichy	695303	Kerala	Thiruvananthapuram
Puthenthope	695586	Kerala	Thiruvananthapuram
Puthiathura	695526	Kerala	Thiruvananthapuram
Puthukulangara	695541	Kerala	Thiruvananthapuram
Puthusserimukku	695605	Kerala	Thiruvananthapuram
Puvar	695525	Kerala	Thiruvananthapuram
Russelpuram	695501	Kerala	Thiruvananthapuram
Sainik School	695585	Kerala	Thiruvananthapuram
Santhigiri	695584	Kerala	Thiruvananthapuram
Sasthamangalam	695010	Kerala	Thiruvananthapuram
Sasthavattom	695305	Kerala	Thiruvananthapuram
Sreekaryam	695017	Kerala	Thiruvananthapuram
Sreenivasapuram	695145	Kerala	Thiruvananthapuram
St.Xavier's college	695586	Kerala	Thiruvananthapuram
Tv Chalai	695036	Kerala	Thiruvananthapuram
Tv Medical college	695011	Kerala	Thiruvananthapuram
Tv Museum	695033	Kerala	Thiruvananthapuram
Tv University	695034	Kerala	Thiruvananthapuram
Tvm r.k mission	695010	Kerala	Thiruvananthapuram
Tvm Ag's	695039	Kerala	Thiruvananthapuram
Tvm Beach	695007	Kerala	Thiruvananthapuram
Tvm Engg college	695016	Kerala	Thiruvananthapuram
Tvm Fort	695023	Kerala	Thiruvananthapuram
Tvm Govt press	695001	Kerala	Thiruvananthapuram
Tvm Isro	695022	Kerala	Thiruvananthapuram
Tvm Pettah	695024	Kerala	Thiruvananthapuram
Thalikuzhi	695612	Kerala	Thiruvananthapuram
Thamalam	695012	Kerala	Thiruvananthapuram
Thannimoodu	695123	Kerala	Thiruvananthapuram
Thattathumala	695614	Kerala	Thiruvananthapuram
Thekkuppara	695505	Kerala	Thiruvananthapuram
Thennur	695563	Kerala	Thiruvananthapuram
Thiruvallom	695027	Kerala	Thiruvananthapuram
Thiruvananthapuram.	695001	Kerala	Thiruvananthapuram
Thokkad	695143	Kerala	Thiruvananthapuram
Tholicode	695541	Kerala	Thiruvananthapuram
Thonnakkal	695317	Kerala	Thiruvananthapuram
Thope	695008	Kerala	Thiruvananthapuram
Thottakkad	695605	Kerala	Thiruvananthapuram
Thundathil	695581	Kerala	Thiruvananthapuram
Thuruvikkal	695031	Kerala	Thiruvananthapuram
Thycaud	695014	Kerala	Thiruvananthapuram
Tirumala	695006	Kerala	Thiruvananthapuram
Tirupuram	695133	Kerala	Thiruvananthapuram
Titanium	695021	Kerala	Thiruvananthapuram
Tv Thampanoor	695014	Kerala	Thiruvananthapuram
Uchakada	695506	Kerala	Thiruvananthapuram
Ulloor	695011	Kerala	Thiruvananthapuram
Uriakode	695543	Kerala	Thiruvananthapuram
Vadasserikonam	695143	Kerala	Thiruvananthapuram
Vakkom	695308	Kerala	Thiruvananthapuram
Valiamala	695547	Kerala	Thiruvananthapuram
Valiathura	695008	Kerala	Thiruvananthapuram
Valiaveli	695021	Kerala	Thiruvananthapuram
Valiavila	695006	Kerala	Thiruvananthapuram
Vallakkadavoo	695008	Kerala	Thiruvananthapuram
Vamanapuram	695606	Kerala	Thiruvananthapuram
Vanchiyoor Junction	695035	Kerala	Thiruvananthapuram
Vanchiyur	695035	Kerala	Thiruvananthapuram
Vanchiyur-attingal	695102	Kerala	Thiruvananthapuram
Varkala	695141	Kerala	Thiruvananthapuram
Varkala South	695145	Kerala	Thiruvananthapuram
Vattakarikkakom	695562	Kerala	Thiruvananthapuram
Vattappara	695028	Kerala	Thiruvananthapuram
Vattavila	695132	Kerala	Thiruvananthapuram
Vattiyoorkavu	695013	Kerala	Thiruvananthapuram
Vazhichal	695125	Kerala	Thiruvananthapuram
Vedivachankoil	695501	Kerala	Thiruvananthapuram
Veeranakavu	695572	Kerala	Thiruvananthapuram
Veliyamcode	695512	Kerala	Thiruvananthapuram
Veliyannur	695543	Kerala	Thiruvananthapuram
Vellallur	695601	Kerala	Thiruvananthapuram
Vellanad	695543	Kerala	Thiruvananthapuram
Vellarada	695505	Kerala	Thiruvananthapuram
Vellayani	695522	Kerala	Thiruvananthapuram
Vellumannady	695607	Kerala	Thiruvananthapuram
Vembayam	695615	Kerala	Thiruvananthapuram
Venganur	695523	Kerala	Thiruvananthapuram
Venjaramoodu	695607	Kerala	Thiruvananthapuram
Venkadambu	695506	Kerala	Thiruvananthapuram
Venkode	695028	Kerala	Thiruvananthapuram
Venkulam	695311	Kerala	Thiruvananthapuram
Vennicode	695318	Kerala	Thiruvananthapuram
Venpakal	695123	Kerala	Thiruvananthapuram
Vettiyara	695603	Kerala	Thiruvananthapuram
Vettoor	695312	Kerala	Thiruvananthapuram
Vikas Bhavan	695033	Kerala	Thiruvananthapuram
Vilappilsala	695573	Kerala	Thiruvananthapuram
Vilayilmoola	695101	Kerala	Thiruvananthapuram
Vinobaniketan	695542	Kerala	Thiruvananthapuram
Vithura	695551	Kerala	Thiruvananthapuram
Vizhinjam	695521	Kerala	Thiruvananthapuram
Adat	680554	Kerala	Thrissur
Agalad	680518	Kerala	Thrissur
Akathiyur	680503	Kerala	Thrissur
Akkikkavu	680519	Kerala	Thrissur
Alagappanagar	680302	Kerala	Thrissur
Alapad	680641	Kerala	Thrissur
Alathur(thrissur)	680741	Kerala	Thrissur
Alur	680683	Kerala	Thrissur
Alur Mattam	680603	Kerala	Thrissur
Amalanagar	680555	Kerala	Thrissur
Ammadam	680563	Kerala	Thrissur
Anandapuram	680323	Kerala	Thrissur
Anapuzha	680667	Kerala	Thrissur
Anchery	680006	Kerala	Thrissur
Andathode	679564	Kerala	Thrissur
Anjur Mundur	680549	Kerala	Thrissur
Anjur-kunnamkulam	680523	Kerala	Thrissur
Annakara	680508	Kerala	Thrissur
Annallur	680731	Kerala	Thrissur
Annamanada	680741	Kerala	Thrissur
Annanad	680309	Kerala	Thrissur
Anthikad	680641	Kerala	Thrissur
Aranattukara	680618	Kerala	Thrissur
Arangottukara	680593	Kerala	Thrissur
Arattupuzha	680562	Kerala	Thrissur
Arimpur	680620	Kerala	Thrissur
Aripalam	680688	Kerala	Thrissur
Ariyannur	680102	Kerala	Thrissur
Arthat	680521	Kerala	Thrissur
Asarikkad	680751	Kerala	Thrissur
Ashtamichira	680731	Kerala	Thrissur
Athani Trichur	680771	Kerala	Thrissur
Attur	680592	Kerala	Thrissur
Avanisseri	680313	Kerala	Thrissur
Avanur	680547	Kerala	Thrissur
Avittathur	680683	Kerala	Thrissur
Ayyanthole	680003	Kerala	Thrissur
Ayyanthole North	680003	Kerala	Thrissur
Ayyappankavu	680751	Kerala	Thrissur
Azhikode Jetty	680666	Kerala	Thrissur
Azhikode-thrissur	680673	Kerala	Thrissur
Blangad	680506	Kerala	Thrissur
Brahmakulam	680104	Kerala	Thrissur
Chaipankuzhi	680724	Kerala	Thrissur
Chakkarappadam	680686	Kerala	Thrissur
Chakkumkandam	680522	Kerala	Thrissur
Chalakudi	680307	Kerala	Thrissur
Chalingad	680681	Kerala	Thrissur
Chamakkala	680687	Kerala	Thrissur
Chammannur	679561	Kerala	Thrissur
Chattikulam	680721	Kerala	Thrissur
Chavakkad	680506	Kerala	Thrissur
Chazhur	680571	Kerala	Thrissur
Chelakkara	680586	Kerala	Thrissur
Chelakode	680587	Kerala	Thrissur
Chembuchira	680684	Kerala	Thrissur
Chemmannur	680517	Kerala	Thrissur
Chemmanthatta	680501	Kerala	Thrissur
Chengallur	680312	Kerala	Thrissur
Chennaipara	680653	Kerala	Thrissur
Chentrappinni	680687	Kerala	Thrissur
Chentrappinni East	680687	Kerala	Thrissur
Cherpu	680561	Kerala	Thrissur
Cherpu Padinjattumuri	680573	Kerala	Thrissur
Cherur	680008	Kerala	Thrissur
Cheruthuruthy	679531	Kerala	Thrissur
Cheruvallur	680321	Kerala	Thrissur
Chettupuzha	680621	Kerala	Thrissur
Chimoni Dam	680304	Kerala	Thrissur
Chiramanangad	680604	Kerala	Thrissur
Chiranellur	680501	Kerala	Thrissur
Chittanda	680600	Kerala	Thrissur
Chittanjur	680523	Kerala	Thrissur
Chittattukara	680511	Kerala	Thrissur
Chittilapilly	680551	Kerala	Thrissur
Chittissery	680301	Kerala	Thrissur
Chiyyaram	680026	Kerala	Thrissur
Chokkana	680699	Kerala	Thrissur
Cholissery	680541	Kerala	Thrissur
Choondal	680502	Kerala	Thrissur
Chottupara	680581	Kerala	Thrissur
Chovvur	680027	Kerala	Thrissur
Chowannur	680503	Kerala	Thrissur
Chulur	680567	Kerala	Thrissur
Chuvannamannu	680652	Kerala	Thrissur
Desamangalam	679532	Kerala	Thrissur
Edakkalathur	680552	Kerala	Thrissur
Edakkara	680518	Kerala	Thrissur
Edakkazhiyur	680515	Kerala	Thrissur
Edakulam	680688	Kerala	Thrissur
Edamuttam	680568	Kerala	Thrissur
Edassery	680569	Kerala	Thrissur
Edathirinji	680122	Kerala	Thrissur
Edathuruthy	680703	Kerala	Thrissur
Edavilangu	680671	Kerala	Thrissur
Elanad	680586	Kerala	Thrissur
Elavally	680511	Kerala	Thrissur
Elavally South	680511	Kerala	Thrissur
Elinjipra	680721	Kerala	Thrissur
Elthuruth	680611	Kerala	Thrissur
Enamakkal	680510	Kerala	Thrissur
Engandiyur	680615	Kerala	Thrissur
Enkakad	680589	Kerala	Thrissur
Eranellur	680501	Kerala	Thrissur
Eravathur	680734	Kerala	Thrissur
Eravimangalam	680751	Kerala	Thrissur
Eravu	680620	Kerala	Thrissur
Erayamkudi	680308	Kerala	Thrissur
Eriyad	680666	Kerala	Thrissur
Erumapetty	680584	Kerala	Thrissur
Eyyal	680501	Kerala	Thrissur
Guruvayur	680101	Kerala	Thrissur
Guruvayur Temple (n)	680101	Kerala	Thrissur
Inchakundu	680312	Kerala	Thrissur
Inchamudy	680564	Kerala	Thrissur
Iranikulam	680734	Kerala	Thrissur
Iringapuram	680103	Kerala	Thrissur
Irinjalakuda	680121	Kerala	Thrissur
Irinjalakuda North	680125	Kerala	Thrissur
Irunilamcode	680583	Kerala	Thrissur
Kadappuram	680514	Kerala	Thrissur
Kadavallur	680543	Kerala	Thrissur
Kadukutty	680309	Kerala	Thrissur
Kaduppassery	680683	Kerala	Thrissur
Kainoor	680014	Kerala	Thrissur
Kaipamangalam	680681	Kerala	Thrissur
Kaipamangalam Beach	680681	Kerala	Thrissur
Kaiparamba	680546	Kerala	Thrissur
Kajirakode	680590	Kerala	Thrissur
Kakkassery	680511	Kerala	Thrissur
Kalimbram	680568	Kerala	Thrissur
Kaliyarode	680586	Kerala	Thrissur
Kallepadam	680587	Kerala	Thrissur
Kallettumkara	680683	Kerala	Thrissur
Kallur	680317	Kerala	Thrissur
Kanakamala	680689	Kerala	Thrissur
Kanattukara	680011	Kerala	Thrissur
Kandamkulam	680669	Kerala	Thrissur
Kandanassery	680102	Kerala	Thrissur
Kandassankadavu	680613	Kerala	Thrissur
Kanimangalam	680027	Kerala	Thrissur
Kanippayur	680517	Kerala	Thrissur
Kaniyarkod	680594	Kerala	Thrissur
Kanjani	680612	Kerala	Thrissur
Kanjirappilly	680721	Kerala	Thrissur
Kannampallipuram	680687	Kerala	Thrissur
Kannara	680652	Kerala	Thrissur
Kannikulangara	680682	Kerala	Thrissur
Kannoth	680510	Kerala	Thrissur
Kara	680671	Kerala	Thrissur
Karalam	680711	Kerala	Thrissur
Karanchira	680702	Kerala	Thrissur
Karayamvattam	680567	Kerala	Thrissur
Karikkad	680519	Kerala	Thrissur
Karumathra	680589	Kerala	Thrissur
Karupadanna	680670	Kerala	Thrissur
Karur	680697	Kerala	Thrissur
Karuvannur	680711	Kerala	Thrissur
Kathikkudam	680308	Kerala	Thrissur
Kattakampal	680544	Kerala	Thrissur
Kattilapoovam	680028	Kerala	Thrissur
Kattoor	680702	Kerala	Thrissur
Katungode	680584	Kerala	Thrissur
Kavida	680505	Kerala	Thrissur
Kecheri	680501	Kerala	Thrissur
Kerala Agri-university	680656	Kerala	Thrissur
Khannanagar-koratti	680309	Kerala	Thrissur
Kilakkummuri	680571	Kerala	Thrissur
Killimangalam	680591	Kerala	Thrissur
Kiralur	680601	Kerala	Thrissur
Kizhupillikkara	680702	Kerala	Thrissur
Kizhur	680523	Kerala	Thrissur
Koartti Kizhakkummuri	680308	Kerala	Thrissur
Kochannur	679562	Kerala	Thrissur
Kodakara	680684	Kerala	Thrissur
Kodannur	680574	Kerala	Thrissur
Kodassery	680721	Kerala	Thrissur
Kodungallur	680664	Kerala	Thrissur
Kolazhi Rm	680010	Kerala	Thrissur
Kombathukadavu	680682	Kerala	Thrissur
Konathukunnu	680123	Kerala	Thrissur
Kondazhi	679106	Kerala	Thrissur
Konikara	680306	Kerala	Thrissur
Konnakuzhy	680721	Kerala	Thrissur
Koolimuttam	680691	Kerala	Thrissur
Koonamoochi	680504	Kerala	Thrissur
Koorikuzhi	680681	Kerala	Thrissur
Kootala-trichur	680652	Kerala	Thrissur
Koovakkattukunnu	680311	Kerala	Thrissur
Koratti	680308	Kerala	Thrissur
Koratti South	680308	Kerala	Thrissur
Korattikara	680543	Kerala	Thrissur
Kothaparamba	680668	Kerala	Thrissur
Kottai	680731	Kerala	Thrissur
Kottamuri	680732	Kerala	Thrissur
Kottanallur	680672	Kerala	Thrissur
Kottapadi	680505	Kerala	Thrissur
Kottappuram	680667	Kerala	Thrissur
Kottappuram Wri	680584	Kerala	Thrissur
Kozhukully	680752	Kerala	Thrissur
Krishnankotta	680733	Kerala	Thrissur
Kukkulissery	680734	Kerala	Thrissur
Kumaranellur Tc	680590	Kerala	Thrissur
Kumarappanal	680585	Kerala	Thrissur
Kumbalacode	680587	Kerala	Thrissur
Kundaliyur	680616	Kerala	Thrissur
Kundannur	680590	Kerala	Thrissur
Kundukad	680028	Kerala	Thrissur
Kundur	680734	Kerala	Thrissur
Kunnamkulam	680503	Kerala	Thrissur
Kunnamkulam City	680523	Kerala	Thrissur
Kunnappilly	680311	Kerala	Thrissur
Kuranniyur	680506	Kerala	Thrissur
Kuriachira	680006	Kerala	Thrissur
Kurkancheri	680007	Kerala	Thrissur
Kuruchikkara	680028	Kerala	Thrissur
Kurumal	680601	Kerala	Thrissur
Kurumala	680586	Kerala	Thrissur
Kurumbilavu	680564	Kerala	Thrissur
Kuruvilassery	680735	Kerala	Thrissur
Kuthampilly	680594	Kerala	Thrissur
Kuttamangalam	680703	Kerala	Thrissur
Kuttanchery	680584	Kerala	Thrissur
Kuttanellur	680014	Kerala	Thrissur
Kuttichira	680724	Kerala	Thrissur
Kuttikkad	680724	Kerala	Thrissur
Kuttur	680013	Kerala	Thrissur
Kuzhikkattussery	680697	Kerala	Thrissur
Kuzhur	680734	Kerala	Thrissur
Madakkathara	680651	Kerala	Thrissur
Madathumpady	680733	Kerala	Thrissur
Madavana	680666	Kerala	Thrissur
Madayikonam	680712	Kerala	Thrissur
Madu	680512	Kerala	Thrissur
Mala-thrissur	680732	Kerala	Thrissur
Malavattom	680588	Kerala	Thrissur
Malesamangalam	680588	Kerala	Thrissur
Mambra	680308	Kerala	Thrissur
Manakkodi	680017	Kerala	Thrissur
Manakulangara	680684	Kerala	Thrissur
Manalithara	680589	Kerala	Thrissur
Manalur	680617	Kerala	Thrissur
Manalur Hs	680617	Kerala	Thrissur
Mangad	680542	Kerala	Thrissur
Mannalamkunu	680518	Kerala	Thrissur
Mannamangalam	680014	Kerala	Thrissur
Mannuthy	680651	Kerala	Thrissur
Marathakkara	680306	Kerala	Thrissur
Marottichal	680014	Kerala	Thrissur
Maruthancode	680604	Kerala	Thrissur
Maruthayur	680507	Kerala	Thrissur
Mathilakam	680685	Kerala	Thrissur
Mattam	680602	Kerala	Thrissur
Mattathur	680684	Kerala	Thrissur
Mattathurkkunnu	680684	Kerala	Thrissur
Mayannur	679105	Kerala	Thrissur
Melur	680311	Kerala	Thrissur
Methala	680669	Kerala	Thrissur
Minalur	680581	Kerala	Thrissur
Moorkkanad	680711	Kerala	Thrissur
Mothirakkanni	680724	Kerala	Thrissur
Mulagunnathukavu	680581	Kerala	Thrissur
Mulayam	680751	Kerala	Thrissur
Mullassery	680509	Kerala	Thrissur
Mullurkkara	680583	Kerala	Thrissur
Mundathicode	680595	Kerala	Thrissur
Mundathicode West	680623	Kerala	Thrissur
Mundur	680541	Kerala	Thrissur
Mupliyam	680312	Kerala	Thrissur
Murikkungal	680699	Kerala	Thrissur
Muringoor Vadakkummuri	680316	Kerala	Thrissur
Muriyad	680683	Kerala	Thrissur
Muttithadi	680317	Kerala	Thrissur
Nadathara	680751	Kerala	Thrissur
Nadavaramba	680661	Kerala	Thrissur
Naduvilkkara	680614	Kerala	Thrissur
Nalukettu	680308	Kerala	Thrissur
Nambazhikad	680602	Kerala	Thrissur
Nandikkara	680301	Kerala	Thrissur
Nandipulam	680319	Kerala	Thrissur
Nattika	680566	Kerala	Thrissur
Nattikabeach	680566	Kerala	Thrissur
Nedupuzha	680015	Kerala	Thrissur
Nehrunagar	680006	Kerala	Thrissur
Nellayi-thrissur	680305	Kerala	Thrissur
Nellikunnu	680005	Kerala	Thrissur
Nelluvaya	680584	Kerala	Thrissur
Nemmini	680104	Kerala	Thrissur
Nenmenikkara	680301	Kerala	Thrissur
Nettissery	680657	Kerala	Thrissur
Netumpura	679531	Kerala	Thrissur
Nhamaghat	679563	Kerala	Thrissur
Ollukkara	680655	Kerala	Thrissur
Ollur	680306	Kerala	Thrissur
Ollur North	680306	Kerala	Thrissur
Ollur Thaikkattussery	680322	Kerala	Thrissur
Orumanayur	680512	Kerala	Thrissur
Padinjare Vemballur	680671	Kerala	Thrissur
Padiyam	680641	Kerala	Thrissur
Padiyur	680695	Kerala	Thrissur
Padoor	680524	Kerala	Thrissur
Pady	680699	Kerala	Thrissur
Painkulam	679531	Kerala	Thrissur
Palappilly	680304	Kerala	Thrissur
Palayamparambu	680741	Kerala	Thrissur
Palayur	680506	Kerala	Thrissur
Palissery	680027	Kerala	Thrissur
Pallam Kottambathur	679532	Kerala	Thrissur
Pallipuram	680732	Kerala	Thrissur
Pallur	679532	Kerala	Thrissur
Paluvai	680522	Kerala	Thrissur
Pampady East	680588	Kerala	Thrissur
Pampady West	680597	Kerala	Thrissur
Panamkulam	680711	Kerala	Thrissur
Panangad	680665	Kerala	Thrissur
Panangattukara	680623	Kerala	Thrissur
Panjal	679531	Kerala	Thrissur
Panparappally	680586	Kerala	Thrissur
Paralam	680575	Kerala	Thrissur
Parappukkara	680310	Kerala	Thrissur
Parappur	680552	Kerala	Thrissur
Pariyaram	680721	Kerala	Thrissur
Parlikkad	680623	Kerala	Thrissur
Pathazhakkad	680668	Kerala	Thrissur
Pathiyarkulangara	680552	Kerala	Thrissur
Pattikkad Tc	680652	Kerala	Thrissur
Pattiparambu	680588	Kerala	Thrissur
Pavaratty	680507	Kerala	Thrissur
Pazhanji	680542	Kerala	Thrissur
Pazhayannur	680587	Kerala	Thrissur
Pazhayi	680301	Kerala	Thrissur
Pazhuvil	680564	Kerala	Thrissur
Pazhuvil West	680564	Kerala	Thrissur
Peechi	680653	Kerala	Thrissur
Peramangalam	680545	Kerala	Thrissur
Perambra-thrissur	680689	Kerala	Thrissur
Perinchery	680306	Kerala	Thrissur
Peringandur	680581	Kerala	Thrissur
Peringavu	680018	Kerala	Thrissur
Peringottukara	680565	Kerala	Thrissur
Perinjanam	680686	Kerala	Thrissur
Perinjanam West	680686	Kerala	Thrissur
Perngamuck	680544	Kerala	Thrissur
Perumpilavu	680519	Kerala	Thrissur
Perumthuruthy	680542	Kerala	Thrissur
Peruvallur	680508	Kerala	Thrissur
Ponjanam	680702	Kerala	Thrissur
Ponnore	680552	Kerala	Thrissur
Ponnukkara	680306	Kerala	Thrissur
Pookode	680505	Kerala	Thrissur
Poomala	680581	Kerala	Thrissur
Pooppathy	680733	Kerala	Thrissur
Pootharakkal	680561	Kerala	Thrissur
Poothole	680004	Kerala	Thrissur
Poovanchira	680652	Kerala	Thrissur
Poovathussery	680741	Kerala	Thrissur
Porathissery	680125	Kerala	Thrissur
Poringalkuthu	680721	Kerala	Thrissur
Porkolangad	680517	Kerala	Thrissur
Porkulam	680542	Kerala	Thrissur
Potta	680722	Kerala	Thrissur
Pottore	680581	Kerala	Thrissur
Poyya	680733	Kerala	Thrissur
Pudukad	680301	Kerala	Thrissur
Puduruthy	680623	Kerala	Thrissur
Pulakkad	680585	Kerala	Thrissur
Pulakode	680586	Kerala	Thrissur
Pullazhi	680012	Kerala	Thrissur
Pullu	680641	Kerala	Thrissur
Pullur	680683	Kerala	Thrissur
Pullut	680663	Kerala	Thrissur
Pullut North	680663	Kerala	Thrissur
Punkunnu	680002	Kerala	Thrissur
Punnayur	679562	Kerala	Thrissur
Punnayurkulam	679561	Kerala	Thrissur
Puranattukara	680551	Kerala	Thrissur
Puthanpalli	680103	Kerala	Thrissur
Puthenchira	680682	Kerala	Thrissur
Puthenchira Kizhakkummuri	680682	Kerala	Thrissur
Puthenchira Thekkummuri	680682	Kerala	Thrissur
Puthenpeedika	680642	Kerala	Thrissur
Puthur-trichur	680014	Kerala	Thrissur
Puvathur	680508	Kerala	Thrissur
Puzhakkal	680553	Kerala	Thrissur
Ramavarmapuram	680631	Kerala	Thrissur
Santhipuram	680668	Kerala	Thrissur
South Kondazhi	679106	Kerala	Thrissur
Tali	680585	Kerala	Thrissur
Talikulam	680569	Kerala	Thrissur
Thaikkad	680104	Kerala	Thrissur
Thalakkottukara	680501	Kerala	Thrissur
Thalassery	679532	Kerala	Thrissur
Thalore	680306	Kerala	Thrissur
Thamarayur	680505	Kerala	Thrissur
Thampankadavu	680569	Kerala	Thrissur
Thangalur	680581	Kerala	Thrissur
Thanissery	680701	Kerala	Thrissur
Thayyur	680584	Kerala	Thrissur
Thazhekkad	680697	Kerala	Thrissur
Thekkumkara	680608	Kerala	Thrissur
Thichur	680584	Kerala	Thrissur
Thippilissery	680519	Kerala	Thrissur
Thirumukkulam	680734	Kerala	Thrissur
Thirunellur	680508	Kerala	Thrissur
Thiruvambady Tsr	680022	Kerala	Thrissur
Thiruvenkitam	680101	Kerala	Thrissur
Thiruvilwamala	680588	Kerala	Thrissur
Thonnurkkara	680610	Kerala	Thrissur
Thottippal	680310	Kerala	Thrissur
Thozhiyur	680520	Kerala	Thrissur
Thozhupadam	680586	Kerala	Thrissur
Thrissur	680001	Kerala	Thrissur
Thrissur Central	680001	Kerala	Thrissur
Thrissur City	680020	Kerala	Thrissur
Thrissur East	680005	Kerala	Thrissur
Thrissur Engg college	680009	Kerala	Thrissur
Thrissur R s	680021	Kerala	Thrissur
Thumbur	680662	Kerala	Thrissur
Tirur	680581	Kerala	Thrissur
Tiruvatra	680516	Kerala	Thrissur
Tolur-parappur	680552	Kerala	Thrissur
Toyakkavu	680513	Kerala	Thrissur
Trikkur	680314	Kerala	Thrissur
Triprayar	680567	Kerala	Thrissur
Trithallur	680619	Kerala	Thrissur
Trithallur West	680619	Kerala	Thrissur
Urakam	680562	Kerala	Thrissur
Vadakkekad	679562	Kerala	Thrissur
Vadakkethara	680587	Kerala	Thrissur
Vadakkummuri	680570	Kerala	Thrissur
Vadama	680732	Kerala	Thrissur
Vadookkara	680007	Kerala	Thrissur
Vaka	680602	Kerala	Thrissur
Valapad	680567	Kerala	Thrissur
Valapad Beach	680567	Kerala	Thrissur
Vallachira	680562	Kerala	Thrissur
Vallivattam	680124	Kerala	Thrissur
Vaniampara	680652	Kerala	Thrissur
Varakara	680325	Kerala	Thrissur
Varandarappilly	680303	Kerala	Thrissur
Varavur	680585	Kerala	Thrissur
Vatanapally Beach	680614	Kerala	Thrissur
Vatanapilly	680614	Kerala	Thrissur
Vattanathara	680302	Kerala	Thrissur
Vattekkad	680512	Kerala	Thrissur
Vazhani	680589	Kerala	Thrissur
Velappaya	680596	Kerala	Thrissur
Vellanchira	680697	Kerala	Thrissur
Vellangallur	680662	Kerala	Thrissur
Vellani	680701	Kerala	Thrissur
Vellanikkara	680654	Kerala	Thrissur
Vellarakad	680584	Kerala	Thrissur
Vellattanjur	680601	Kerala	Thrissur
Vellikulangara	680693	Kerala	Thrissur
Velupadam	680303	Kerala	Thrissur
Velur Bazar	680601	Kerala	Thrissur
Velur Thrissur	680601	Kerala	Thrissur
Veluthur	680016	Kerala	Thrissur
Vemmanad	680507	Kerala	Thrissur
Venganellur	680586	Kerala	Thrissur
Venkitangu	680510	Kerala	Thrissur
Vennur	680587	Kerala	Thrissur
Vettikkatti R.s.	679531	Kerala	Thrissur
Vettilappara	680721	Kerala	Thrissur
Vettukad	680014	Kerala	Thrissur
Vijayaraghavapuram	680722	Kerala	Thrissur
Viyyur	680010	Kerala	Thrissur
Vyasagiri	680623	Kerala	Thrissur
Vylathur	679563	Kerala	Thrissur
Wadakkancheri Rs	680623	Kerala	Thrissur
Wadakkanchery	680582	Kerala	Thrissur
West Fort	680004	Kerala	Thrissur
Achooranam	673575	Kerala	Wayanad
Alattil	670644	Kerala	Wayanad
Amara Kuni	673579	Kerala	Wayanad
Ambalavayal	673593	Kerala	Wayanad
Anjukunnu	670645	Kerala	Wayanad
Arambatta Kunnu	673575	Kerala	Wayanad
Arattuthara	670645	Kerala	Wayanad
Arinjerummal	670721	Kerala	Wayanad
Athirattu Kunnu	673596	Kerala	Wayanad
Bavali	670646	Kerala	Wayanad
Beenachi	673592	Kerala	Wayanad
Bhoodanam Colony	673579	Kerala	Wayanad
Bibleland	673575	Kerala	Wayanad
Chedalath	673592	Kerala	Wayanad
Cheengeri	673593	Kerala	Wayanad
Cheeral	673595	Kerala	Wayanad
Cheeyambam	673579	Kerala	Wayanad
Chellangode	673581	Kerala	Wayanad
Chennalode	673121	Kerala	Wayanad
Cherakkara(wayanad)	670644	Kerala	Wayanad
Cherukattoor	670721	Kerala	Wayanad
Chettapalam	673579	Kerala	Wayanad
Choothupara	673596	Kerala	Wayanad
Chulliote	673592	Kerala	Wayanad
Chundale	673123	Kerala	Wayanad
Cottanad	673577	Kerala	Wayanad
Echchome	670721	Kerala	Wayanad
Edavaka	670645	Kerala	Wayanad
Ellumannam	670645	Kerala	Wayanad
Kadalmat	673581	Kerala	Wayanad
Kakka Vayal	673122	Kerala	Wayanad
Kalanadi Kolli	673579	Kerala	Wayanad
Kalathu Vayal	673593	Kerala	Wayanad
Kalpetta	673121	Kerala	Wayanad
Kalpetta North	673122	Kerala	Wayanad
Kambalakkad	673121	Kerala	Wayanad
Kammana	670645	Kerala	Wayanad
Kampatti	670644	Kerala	Wayanad
Kaniyambetta	673124	Kerala	Wayanad
Kappattumala	670644	Kerala	Wayanad
Karachal	673591	Kerala	Wayanad
Karadipara	673593	Kerala	Wayanad
Karakkamala	670645	Kerala	Wayanad
Karani	673591	Kerala	Wayanad
Karinkutty	673121	Kerala	Wayanad
Kariyambadi	673591	Kerala	Wayanad
Kartikulam	670646	Kerala	Wayanad
Kattayad	670731	Kerala	Wayanad
Kavumannam	673121	Kerala	Wayanad
Kayakunnu	670721	Kerala	Wayanad
Kellur	670645	Kerala	Wayanad
Kenichira	673596	Kerala	Wayanad
Kidanganad	673592	Kerala	Wayanad
Kolagapara	673591	Kerala	Wayanad
Koleri	673596	Kerala	Wayanad
Kottarakkunnu	670731	Kerala	Wayanad
Kottathara	673121	Kerala	Wayanad
Krishna Giri	673591	Kerala	Wayanad
Kumbaleri	673591	Kerala	Wayanad
Kunhome	670731	Kerala	Wayanad
Kunnamangalam Wayanad	670645	Kerala	Wayanad
Kunnambetta	673123	Kerala	Wayanad
Kuppadi	673592	Kerala	Wayanad
Lakkidi	673576	Kerala	Wayanad
Madakkimala	673121	Kerala	Wayanad
Madakunnu	673121	Kerala	Wayanad
Makkiad	670731	Kerala	Wayanad
Manal Vayal	673579	Kerala	Wayanad
Mananthavady	670645	Kerala	Wayanad
Mandad	673122	Kerala	Wayanad
Maniyangode	673122	Kerala	Wayanad
Manjoora	673575	Kerala	Wayanad
Marakadavu	673579	Kerala	Wayanad
Mattilayam	670731	Kerala	Wayanad
Meenangadi	673591	Kerala	Wayanad
Meppadi	673577	Kerala	Wayanad
Moodakolli	673592	Kerala	Wayanad
Mookuthi Kunnu	673595	Kerala	Wayanad
Moolan Kavu	673592	Kerala	Wayanad
Mullankolli	673579	Kerala	Wayanad
Mundakai	673577	Kerala	Wayanad
Mundakutty	670645	Kerala	Wayanad
Muthanga	673592	Kerala	Wayanad
Muttil	673122	Kerala	Wayanad
Mylambadi	673591	Kerala	Wayanad
Nadavayal	670721	Kerala	Wayanad
Naiketty	673592	Kerala	Wayanad
Nallara Chal	673593	Kerala	Wayanad
Nallurnad	670645	Kerala	Wayanad
Nambiar Kunnu	673595	Kerala	Wayanad
Narikkundu	673593	Kerala	Wayanad
Nathamkuni	673577	Kerala	Wayanad
Nenmeni	673592	Kerala	Wayanad
Nenmeni Kunnu	673595	Kerala	Wayanad
Nirvaram	670721	Kerala	Wayanad
Nulpuzha	673592	Kerala	Wayanad
Padichira	673579	Kerala	Wayanad
Padinhara Thara	673575	Kerala	Wayanad
Pakkom	673579	Kerala	Wayanad
Palakolli	673579	Kerala	Wayanad
Pallikunnu Wynad	673121	Kerala	Wayanad
Pambra	673592	Kerala	Wayanad
Panamaram	670721	Kerala	Wayanad
Panavally	670646	Kerala	Wayanad
Pariyaram - wynad	673122	Kerala	Wayanad
Payyampalli	670646	Kerala	Wayanad
Pazhupathur	673592	Kerala	Wayanad
Perikallur	673579	Kerala	Wayanad
Periya	670644	Kerala	Wayanad
Pilakavu	670645	Kerala	Wayanad
Pinangode	673121	Kerala	Wayanad
Poomulla	673592	Kerala	Wayanad
Poothadi	673596	Kerala	Wayanad
Porur(wayanad)	670644	Kerala	Wayanad
Pozhuthana	673575	Kerala	Wayanad
Pudusseri	670645	Kerala	Wayanad
Pudusserikadavu	670645	Kerala	Wayanad
Pulpalli	673579	Kerala	Wayanad
Puthan Kunnu	673595	Kerala	Wayanad
Puthumala	673577	Kerala	Wayanad
Puthur Vayal	673121	Kerala	Wayanad
Puzhamutti	673121	Kerala	Wayanad
Ripon Wynad	673577	Kerala	Wayanad
Sasimala	673579	Kerala	Wayanad
Seetha Mount	673579	Kerala	Wayanad
Sugandhagiri	673576	Kerala	Wayanad
Sulthan Bathery	673592	Kerala	Wayanad
Sulthan Bathery east	673592	Kerala	Wayanad
Tavinhal	670644	Kerala	Wayanad
Thalapuzha	670644	Kerala	Wayanad
Thariote	673589	Kerala	Wayanad
Thariote North	673575	Kerala	Wayanad
Tharuvana	670732	Kerala	Wayanad
Thazha Munda	673596	Kerala	Wayanad
Thazhathur	673595	Kerala	Wayanad
Thekkumthara	673121	Kerala	Wayanad
Thettamala	670731	Kerala	Wayanad
Tholpetty	670646	Kerala	Wayanad
Thondernadu	670731	Kerala	Wayanad
Thovari Mala	673592	Kerala	Wayanad
Thrissileri	670646	Kerala	Wayanad
Tirunelli	670646	Kerala	Wayanad
Tirunelli Temple	670646	Kerala	Wayanad
Trikai Petta	673577	Kerala	Wayanad
Vakeri	673592	Kerala	Wayanad
Vala Vayal	673596	Kerala	Wayanad
Valery	670645	Kerala	Wayanad
Vallarmala	673578	Kerala	Wayanad
Vallat	670644	Kerala	Wayanad
Valluvadi	673592	Kerala	Wayanad
Vanhode	670731	Kerala	Wayanad
Varadoor	673121	Kerala	Wayanad
Varambetta	673575	Kerala	Wayanad
Varayal	670644	Kerala	Wayanad
Vatuvanchal	673581	Kerala	Wayanad
Vazhu Vatta	673122	Kerala	Wayanad
Veliyambam	673579	Kerala	Wayanad
Vellamunda	670731	Kerala	Wayanad
Vemom	670645	Kerala	Wayanad
Vimalanagar	670645	Kerala	Wayanad
Vythiri	673576	Kerala	Wayanad